CircleName,RegionName,DivisionName,OfficeName,Pincode,OfficeType,Delivery,District,StateName,Latitude,Longitude
Andhra Pradesh Circle,Vijayawada Region,Vijayawada Division,NDC VIJAYAWADA,521225,PO,Non Delivery,KRISHNA,ANDHRA PRADESH,NA,NA
Andhra Pradesh Circle,Vijayawada Region,Vijayawada Division,Mallela B.O,509132,BO,Delivery,KRISHNA,ANDHRA PRADESH,17.0175260,80.5582350
Andhra Pradesh Circle,Vijayawada Region,Vijayawada Division,Kokilampadu B.O,521235,BO,Delivery,KRISHNA,ANDHRA PRADESH,17.1076720,80.6456960
Andhra Pradesh Circle,Vijayawada Region,Vijayawada Division,Sriniketan B.O,521235,BO,Delivery,KRISHNA,ANDHRA PRADESH,17.0583410,80.5371520
Andhra Pradesh Circle,Vijayawada Region,Vijayawada Division,Kodurupadu B.O,521110,BO,Delivery,KRISHNA,ANDHRA PRADESH,16.6105770,80.9001390
Andhra Pradesh Circle,Vijayawada Region,Vijayawada Division,Remalle B.O,521110,BO,Delivery,KRISHNA,ANDHRA PRADESH,16.6617080,80.9148390
Andhra Pradesh Circle,Vijayawada Region,Vijayawada Division,Keesara BO,521185,BO,Delivery,KRISHNA,ANDHRA PRADESH,16.7206520,80.3248270
Andhra Pradesh Circle,Vijayawada Region,Gudivada Division,Bokinala B.O,521260,BO,Delivery,KRISHNA,ANDHRA PRADESH,16.463419,80.845044
Andhra Pradesh Circle,Vijayawada Region,Gudivada Division,Siddantham B.O,521330,BO,Delivery,KRISHNA,ANDHRA PRADESH,16.4000000,81.0300000
Andhra Pradesh Circle,Vijayawada Region,Gudivada Division,Cherukumilli B.O,521324,BO,Delivery,KRISHNA,ANDHRA PRADESH,16.3800000,81.3100000
Andhra Pradesh Circle,Vijayawada Region,Gudivada Division,Chorampudi B.O,521324,BO,Delivery,KRISHNA,ANDHRA PRADESH,16.4100000,81.2900000
Andhra Pradesh Circle,Vijayawada Region,Gudivada Division,Komatigunta Lock B.O,521260,BO,Delivery,KRISHNA,ANDHRA PRADESH,16.556437,81.428585
Andhra Pradesh Circle,Vijayawada Region,Gudivada Division,Tarigoppula R.S. B.O,521260,BO,Delivery,KRISHNA,ANDHRA PRADESH,16.488073,80.833627
Andhra Pradesh Circle,Vijayawada Region,Machilipatnam Division,Krishna University S.O,521004,PO,Delivery,KRISHNA,ANDHRA PRADESH,16.136902,81.099842
Andhra Pradesh Circle,Vijayawada Region,Machilipatnam Division,Kappaladoddi B.O,521366,BO,Delivery,KRISHNA,ANDHRA PRADESH,NA,NA
Andhra Pradesh Circle,Vijayawada Region,Machilipatnam Division,L.K.Gunta B.O,521366,BO,Delivery,KRISHNA,ANDHRA PRADESH,NA,NA
Andhra Pradesh Circle,Vijayawada Region,Machilipatnam Division,Lellagaruvu B.O,521366,BO,Delivery,KRISHNA,ANDHRA PRADESH,NA,NA
Andhra Pradesh Circle,Vijayawada Region,Machilipatnam Division,Nadupuru B.O,521366,BO,Delivery,KRISHNA,ANDHRA PRADESH,NA,NA
Andhra Pradesh Circle,Vijayawada Region,Machilipatnam Division,Konkepudi B.O,521366,BO,Delivery,KRISHNA,ANDHRA PRADESH,NA,NA
Andhra Pradesh Circle,Vijayawada Region,Gudivada Division,Tenneru B.O,521260,BO,Delivery,KRISHNA,ANDHRA PRADESH,16.484304,80.814248
Andhra Pradesh Circle,Vijayawada Region,Gudivada Division,Jayapuram B.O,521324,BO,Delivery,KRISHNA,ANDHRA PRADESH,16.3800000,81.2500000
Andhra Pradesh Circle,Vijayawada Region,Gudivada Division,Komallapudi B.O,521324,BO,Delivery,KRISHNA,ANDHRA PRADESH,16.4000000,81.3700000
Andhra Pradesh Circle,Vijayawada Region,Gudivada Division,Neelipudi B.O,521324,BO,Delivery,KRISHNA,ANDHRA PRADESH,16.4000000,81.3500000
Andhra Pradesh Circle,Vijayawada Region,Gudivada Division,Kruthivennu SO,521320,PO,Delivery,KRISHNA,ANDHRA PRADESH,16.3787,81.360617
Andhra Pradesh Circle,Vijayawada Region,Gudivada Division,Chandrala B.O,521330,BO,Delivery,KRISHNA,ANDHRA PRADESH,16.3776750,81.0552010
Andhra Pradesh Circle,Vijayawada Region,Gudivada Division,Serikalavapudi B.O,521330,BO,Delivery,KRISHNA,ANDHRA PRADESH,16.3700000,81.0200000
Andhra Pradesh Circle,Vijayawada Region,Gudivada Division,Amudalapalli B.O,521324,BO,Delivery,KRISHNA,ANDHRA PRADESH,16.3700000,81.2400000
Andhra Pradesh Circle,Vijayawada Region,Machilipatnam Division,Mutcherla B.O,521366,BO,Delivery,KRISHNA,ANDHRA PRADESH,NA,NA
Andhra Pradesh Circle,Vijayawada Region,Machilipatnam Division,Nandigama B.O,521366,BO,Delivery,KRISHNA,ANDHRA PRADESH,NA,NA
Andhra Pradesh Circle,Vijayawada Region,Machilipatnam Division,Modumudi B.O,521122,BO,Delivery,KRISHNA,ANDHRA PRADESH,NA,NA
Andhra Pradesh Circle,Vijayawada Region,Machilipatnam Division,Viswanadhapalli B.O,521122,BO,Delivery,KRISHNA,ANDHRA PRADESH,NA,NA
Andhra Pradesh Circle,Vijayawada Region,Machilipatnam Division,Devarakota B.O,521133,BO,Delivery,KRISHNA,ANDHRA PRADESH,NA,NA
Andhra Pradesh Circle,Vijayawada Region,Machilipatnam Division,Ghantasalapalem B.O,521133,BO,Delivery,KRISHNA,ANDHRA PRADESH,NA,NA
Andhra Pradesh Circle,Vijayawada Region,Machilipatnam Division,Barlapudi B.O,521136,BO,Delivery,KRISHNA,ANDHRA PRADESH,NA,NA
Andhra Pradesh Circle,Vijayawada Region,Machilipatnam Division,Eddanapudi B.O,521136,BO,Delivery,KRISHNA,ANDHRA PRADESH,NA,NA
Andhra Pradesh Circle,Vijayawada Region,Machilipatnam Division,Kanchakoduru B.O,521150,BO,Delivery,KRISHNA,ANDHRA PRADESH,NA,NA
Andhra Pradesh Circle,Vijayawada Region,Machilipatnam Division,Maddipatla B.O,521150,BO,Delivery,KRISHNA,ANDHRA PRADESH,NA,NA
Andhra Pradesh Circle,Vijayawada Region,Machilipatnam Division,Turakapalem B.O,521150,BO,Delivery,KRISHNA,ANDHRA PRADESH,NA,NA
Andhra Pradesh Circle,Vijayawada Region,Machilipatnam Division,Chinakallepalli B.O,521132,BO,Delivery,KRISHNA,ANDHRA PRADESH,NA,NA
Andhra Pradesh Circle,Vijayawada Region,Gudivada Division,Korlapadu B.O,521324,BO,Delivery,KRISHNA,ANDHRA PRADESH,16.3600000,81.2500000
Andhra Pradesh Circle,Vijayawada Region,Gudivada Division,Vempadu B.O,521260,BO,Delivery,KRISHNA,ANDHRA PRADESH,17.390367,82.657796
Andhra Pradesh Circle,Vijayawada Region,Gudivada Division,Nuzella B.O,521330,BO,Delivery,KRISHNA,ANDHRA PRADESH,16.3000000,81.0200000
Andhra Pradesh Circle,Vijayawada Region,Gudivada Division,Bommuluru B.O,521330,BO,Delivery,KRISHNA,ANDHRA PRADESH,16.3486730,81.0492300
Andhra Pradesh Circle,Vijayawada Region,Gudivada Division,Krithivennu B.O,521324,BO,Delivery,KRISHNA,ANDHRA PRADESH,16.3800000,81.3700000
Andhra Pradesh Circle,Vijayawada Region,Gudivada Division,Lakshmipuram B.O,521324,BO,Delivery,KRISHNA,ANDHRA PRADESH,16.3900000,81.4400000
Andhra Pradesh Circle,Vijayawada Region,Gudivada Division,Malleswaram B.O,521324,BO,Delivery,KRISHNA,ANDHRA PRADESH,16.3500000,81.2700000
Andhra Pradesh Circle,Vijayawada Region,Gudivada Division,Matlam B.O,521324,BO,Delivery,KRISHNA,ANDHRA PRADESH,16.4200000,81.3900000
Andhra Pradesh Circle,Vijayawada Region,Gudivada Division,Mulaparru B.O,521324,BO,Delivery,KRISHNA,ANDHRA PRADESH,16.3900000,81.2600000
Andhra Pradesh Circle,Vijayawada Region,Gudivada Division,Munipeda B.O,521324,BO,Delivery,KRISHNA,ANDHRA PRADESH,16.4000000,81.3300000
Andhra Pradesh Circle,Vijayawada Region,Gudivada Division,Siddharthanagar B.O,521202,BO,Delivery,KRISHNA,ANDHRA PRADESH,16.8330000,80.7880000
Andhra Pradesh Circle,Vijayawada Region,Gudivada Division,Polasanipalli B.O,521111,BO,Delivery,KRISHNA,ANDHRA PRADESH,16.7300000,80.8900000
Andhra Pradesh Circle,Vijayawada Region,Gudivada Division,Jangamgudem B.O,521111,BO,Delivery,KRISHNA,ANDHRA PRADESH,16.7700000,80.9000000
Andhra Pradesh Circle,Vijayawada Region,Gudivada Division,Bommuluru B.O,521105,BO,Delivery,KRISHNA,ANDHRA PRADESH,16.6500000,81.0000000
Andhra Pradesh Circle,Vijayawada Region,Machilipatnam Division,Papanasanam B.O,521132,BO,Delivery,KRISHNA,ANDHRA PRADESH,NA,NA
Andhra Pradesh Circle,Vijayawada Region,Machilipatnam Division,Ullipalem B.O,521328,BO,Delivery,KRISHNA,ANDHRA PRADESH,NA,NA
Andhra Pradesh Circle,Vijayawada Region,Machilipatnam Division,Vekanuru B.O,521122,BO,Delivery,KRISHNA,ANDHRA PRADESH,NA,NA
Andhra Pradesh Circle,Vijayawada Region,Gudivada Division,Vemanda B.O,521311,BO,Delivery,KRISHNA,ANDHRA PRADESH,16.4600000,80.8900000
Andhra Pradesh Circle,Vijayawada Region,Gudivada Division,Tippanagunta B.O,521106,BO,Delivery,KRISHNA,ANDHRA PRADESH,16.5700000,80.9400000
Andhra Pradesh Circle,Vijayawada Region,Gudivada Division,Velpucherla B.O,521207,BO,Delivery,KRISHNA,ANDHRA PRADESH,16.7800000,81.0300000
Andhra Pradesh Circle,Vijayawada Region,Gudivada Division,Mukkollupadu B.O,521207,BO,Delivery,KRISHNA,ANDHRA PRADESH,16.8400000,80.8700000
Andhra Pradesh Circle,Vijayawada Region,Gudivada Division,Gullapudi B.O,521213,BO,Delivery,KRISHNA,ANDHRA PRADESH,16.8900000,80.9600000
Andhra Pradesh Circle,Vijayawada Region,Gudivada Division,Lopudi B.O,521213,BO,Delivery,KRISHNA,ANDHRA PRADESH,16.9200000,80.9500000
Andhra Pradesh Circle,Vijayawada Region,Gudivada Division,Surepalli B.O,521213,BO,Delivery,KRISHNA,ANDHRA PRADESH,16.9100000,80.9000000
Andhra Pradesh Circle,Vijayawada Region,Gudivada Division,Valasapalli B.O,521213,BO,Delivery,KRISHNA,ANDHRA PRADESH,16.8700000,80.9800000
Andhra Pradesh Circle,Vijayawada Region,Gudivada Division,Korlamanda B.O,521214,BO,Delivery,KRISHNA,ANDHRA PRADESH,17.0300000,80.7700000
Andhra Pradesh Circle,Vijayawada Region,Gudivada Division,Kotapadu B.O,521214,BO,Delivery,KRISHNA,ANDHRA PRADESH,17.0600000,80.9200000
Andhra Pradesh Circle,Vijayawada Region,Gudivada Division,Kudapa B.O,521215,BO,Delivery,KRISHNA,ANDHRA PRADESH,16.9000000,80.6900000
Andhra Pradesh Circle,Vijayawada Region,Vijayawada Division,Ampapuram B.O,521109,BO,Delivery,KRISHNA,ANDHRA PRADESH,16.6000090,80.8928530
Andhra Pradesh Circle,Vijayawada Region,Vijayawada Division,Lakshmipuram B.O,521235,BO,Delivery,KRISHNA,ANDHRA PRADESH,17.0502730,80.5795310
Andhra Pradesh Circle,Vijayawada Region,Vijayawada Division,Rolupadu B.O,521235,BO,Delivery,KRISHNA,ANDHRA PRADESH,17.0507610,80.5797920
Andhra Pradesh Circle,Vijayawada Region,Vijayawada Division,Kommireddipalli B.O,521235,BO,Delivery,KRISHNA,ANDHRA PRADESH,17.0587890,80.5370240
Andhra Pradesh Circle,Vijayawada Region,Vijayawada Division,Munukulla B.O,521235,BO,Delivery,KRISHNA,ANDHRA PRADESH,17.1158720,80.5743960
Andhra Pradesh Circle,Vijayawada Region,Vijayawada Division,Suravaram B.O,521109,BO,Delivery,KRISHNA,ANDHRA PRADESH,16.6344510,80.8598270
Andhra Pradesh Circle,Vijayawada Region,Vijayawada Division,Rajagopalapuram B.O,521110,BO,Delivery,KRISHNA,ANDHRA PRADESH,16.6615140,80.9144560
Andhra Pradesh Circle,Vijayawada Region,Vijayawada Division,Rangannagudem B.O,521110,BO,Delivery,KRISHNA,ANDHRA PRADESH,16.6338560,80.9108180
Andhra Pradesh Circle,Vijayawada Region,Vijayawada Division,Umamaheswarapuram B.O,521110,BO,Delivery,KRISHNA,ANDHRA PRADESH,16.0292000,81.2923000
Andhra Pradesh Circle,Vijayawada Region,Vijayawada Division,Veleru B.O,521110,BO,Delivery,KRISHNA,ANDHRA PRADESH,16.6490440,80.9366760
Andhra Pradesh Circle,Vijayawada Region,Vijayawada Division,Galigopuram B.O,521109,BO,Delivery,KRISHNA,ANDHRA PRADESH,16.5751900,80.8967060
Andhra Pradesh Circle,Vijayawada Region,Vijayawada Division,Chintalapadu B.O,521235,BO,Delivery,KRISHNA,ANDHRA PRADESH,17.0177270,80.5586550
Andhra Pradesh Circle,Vijayawada Region,Vijayawada Division,Vamukuntla B.O,521235,BO,Delivery,KRISHNA,ANDHRA PRADESH,17.0650570,80.5711160
Andhra Pradesh Circle,Vijayawada Region,Vijayawada Division,Vavilala B.O,521235,BO,Delivery,KRISHNA,ANDHRA PRADESH,17.0964130,80.5356220
Andhra Pradesh Circle,Vijayawada Region,Vijayawada Division,Gullapudi B.O,521403,BO,Delivery,KRISHNA,ANDHRA PRADESH,17.0504340,80.5043680
Andhra Pradesh Circle,Vijayawada Region,Vijayawada Division,Vinagadapa B.O,521403,BO,Delivery,KRISHNA,ANDHRA PRADESH,16.9454260,80.5740840
Andhra Pradesh Circle,Vijayawada Region,Vijayawada Division,Tunikipadu B.O,521401,BO,Delivery,KRISHNA,ANDHRA PRADESH,16.9815440,80.3864540
Andhra Pradesh Circle,Vijayawada Region,Vijayawada Division,Vutukuru B.O,521401,BO,Delivery,KRISHNA,ANDHRA PRADESH,17.0182040,80.4335770
Andhra Pradesh Circle,Vijayawada Region,Vijayawada Division,Chiravada B.O,521109,BO,Delivery,KRISHNA,ANDHRA PRADESH,16.5595590,80.9341280
Andhra Pradesh Circle,Vijayawada Region,Gudivada Division,Maddulaparva B.O,521215,BO,Delivery,KRISHNA,ANDHRA PRADESH,16.9300000,80.7500000
Andhra Pradesh Circle,Vijayawada Region,Gudivada Division,Narasapuram B.O,521215,BO,Delivery,KRISHNA,ANDHRA PRADESH,16.9802000,80.8062000
Andhra Pradesh Circle,Vijayawada Region,Gudivada Division,Telladevarapalli B.O,521215,BO,Delivery,KRISHNA,ANDHRA PRADESH,16.9800000,80.7300000
Andhra Pradesh Circle,Vijayawada Region,Gudivada Division,Veldipadu B.O,521312,BO,Delivery,KRISHNA,ANDHRA PRADESH,16.5000000,80.8600000
Andhra Pradesh Circle,Vijayawada Region,Gudivada Division,Kothapalli B.O,521111,BO,Delivery,KRISHNA,ANDHRA PRADESH,16.7200000,80.9400000
Andhra Pradesh Circle,Vijayawada Region,Gudivada Division,Mallavalli B.O,521111,BO,Delivery,KRISHNA,ANDHRA PRADESH,16.6800000,80.8900000
Andhra Pradesh Circle,Vijayawada Region,Gudivada Division,Mirzapuram B.O,521111,BO,Delivery,KRISHNA,ANDHRA PRADESH,16.7100000,80.9200000
Andhra Pradesh Circle,Vijayawada Region,Gudivada Division,Pallerlamudi B.O,521105,BO,Delivery,KRISHNA,ANDHRA PRADESH,16.6900000,80.9800000
Andhra Pradesh Circle,Vijayawada Region,Gudivada Division,Perikeedu Bridge B.O,521105,BO,Delivery,KRISHNA,ANDHRA PRADESH,16.6100000,80.9700000
Andhra Pradesh Circle,Vijayawada Region,Machilipatnam Division,Akumarru B.O,521149,BO,Delivery,KRISHNA,ANDHRA PRADESH,NA,NA
Andhra Pradesh Circle,Vijayawada Region,Machilipatnam Division,Kankata B.O,521149,BO,Delivery,KRISHNA,ANDHRA PRADESH,NA,NA
Andhra Pradesh Circle,Vijayawada Region,Machilipatnam Division,Kosuru B.O,521150,BO,Delivery,KRISHNA,ANDHRA PRADESH,NA,NA
Andhra Pradesh Circle,Vijayawada Region,Machilipatnam Division,Mallampalli B.O,521150,BO,Delivery,KRISHNA,ANDHRA PRADESH,NA,NA
Andhra Pradesh Circle,Vijayawada Region,Machilipatnam Division,Chitturupu B.O,521132,BO,Delivery,KRISHNA,ANDHRA PRADESH,NA,NA
Andhra Pradesh Circle,Vijayawada Region,Machilipatnam Division,Srikakulam B.O,521132,BO,Delivery,KRISHNA,ANDHRA PRADESH,NA,NA
Andhra Pradesh Circle,Vijayawada Region,Machilipatnam Division,Swatantrapuram B.O,521328,BO,Delivery,KRISHNA,ANDHRA PRADESH,NA,NA
Andhra Pradesh Circle,Vijayawada Region,Machilipatnam Division,Salempalem B.O,521328,BO,Delivery,KRISHNA,ANDHRA PRADESH,NA,NA
Andhra Pradesh Circle,Vijayawada Region,Machilipatnam Division,Mangalapuram B.O,521131,BO,Delivery,KRISHNA,ANDHRA PRADESH,NA,NA
Andhra Pradesh Circle,Vijayawada Region,Machilipatnam Division,Pedaprolu B.O,521125,BO,Delivery,KRISHNA,ANDHRA PRADESH,NA,NA
Andhra Pradesh Circle,Vijayawada Region,Machilipatnam Division,Vemulamada B.O,521135,BO,Delivery,KRISHNA,ANDHRA PRADESH,NA,NA
Andhra Pradesh Circle,Vijayawada Region,Machilipatnam Division,Ganapeswaram B.O,521120,BO,Delivery,KRISHNA,ANDHRA PRADESH,NA,NA
Andhra Pradesh Circle,Vijayawada Region,Machilipatnam Division,Kammanamoulu B.O,521120,BO,Delivery,KRISHNA,ANDHRA PRADESH,NA,NA
Andhra Pradesh Circle,Vijayawada Region,Machilipatnam Division,V.Kothapalem B.O,521122,BO,Delivery,KRISHNA,ANDHRA PRADESH,NA,NA
Andhra Pradesh Circle,Vijayawada Region,Machilipatnam Division,Chittiguduru B.O,521149,BO,Delivery,KRISHNA,ANDHRA PRADESH,NA,NA
Andhra Pradesh Circle,Vijayawada Region,Machilipatnam Division,Chitturu B.O,521150,BO,Delivery,KRISHNA,ANDHRA PRADESH,NA,NA
Andhra Pradesh Circle,Vijayawada Region,Machilipatnam Division,Divigollapalem B.O,521328,BO,Delivery,KRISHNA,ANDHRA PRADESH,NA,NA
Andhra Pradesh Circle,Vijayawada Region,Machilipatnam Division,Hamsaladeevi B.O,521328,BO,Delivery,KRISHNA,ANDHRA PRADESH,NA,NA
Andhra Pradesh Circle,Vijayawada Region,Machilipatnam Division,Jayapuram B.O,521328,BO,Delivery,KRISHNA,ANDHRA PRADESH,NA,NA
Andhra Pradesh Circle,Vijayawada Region,Machilipatnam Division,Lingareddipalem B.O,521328,BO,Delivery,KRISHNA,ANDHRA PRADESH,NA,NA
Andhra Pradesh Circle,Vijayawada Region,Machilipatnam Division,Mandapakala B.O,521328,BO,Delivery,KRISHNA,ANDHRA PRADESH,NA,NA
Andhra Pradesh Circle,Vijayawada Region,Machilipatnam Division,Bhogireddipalli B.O,521131,BO,Delivery,KRISHNA,ANDHRA PRADESH,NA,NA
Andhra Pradesh Circle,Vijayawada Region,Machilipatnam Division,Daliparru B.O,521131,BO,Delivery,KRISHNA,ANDHRA PRADESH,NA,NA
Andhra Pradesh Circle,Vijayawada Region,Machilipatnam Division,Endakuduru B.O,521131,BO,Delivery,KRISHNA,ANDHRA PRADESH,NA,NA
Andhra Pradesh Circle,Vijayawada Region,Vijayawada Division,Kothapalli B.O,521403,BO,Delivery,KRISHNA,ANDHRA PRADESH,16.9694760,80.5265740
Andhra Pradesh Circle,Vijayawada Region,Vijayawada Division,Ammireddigudem B.O,521403,BO,Delivery,KRISHNA,ANDHRA PRADESH,16.9707390,80.5005620
Andhra Pradesh Circle,Vijayawada Region,Vijayawada Division,Arlapadu B.O,521403,BO,Delivery,KRISHNA,ANDHRA PRADESH,17.0263890,80.4932100
Andhra Pradesh Circle,Vijayawada Region,Vijayawada Division,Erramadu B.O,521403,BO,Delivery,KRISHNA,ANDHRA PRADESH,17.1127280,80.6021250
Andhra Pradesh Circle,Vijayawada Region,Vijayawada Division,Dundiralapadu B.O,521401,BO,Delivery,KRISHNA,ANDHRA PRADESH,16.7660830,80.5053140
Andhra Pradesh Circle,Vijayawada Region,Vijayawada Division,Konijerla B.O,521401,BO,Delivery,KRISHNA,ANDHRA PRADESH,17.0469530,80.4067240
Andhra Pradesh Circle,Vijayawada Region,Machilipatnam Division,Lankapalli B.O,521131,BO,Delivery,KRISHNA,ANDHRA PRADESH,NA,NA
Andhra Pradesh Circle,Vijayawada Region,Machilipatnam Division,Chiruvolulanka B.O,521125,BO,Delivery,KRISHNA,ANDHRA PRADESH,NA,NA
Andhra Pradesh Circle,Vijayawada Region,Machilipatnam Division,K.Kothapalem B.O,521125,BO,Delivery,KRISHNA,ANDHRA PRADESH,NA,NA
Andhra Pradesh Circle,Vijayawada Region,Machilipatnam Division,Kokkiligadda B.O,521125,BO,Delivery,KRISHNA,ANDHRA PRADESH,NA,NA
Andhra Pradesh Circle,Vijayawada Region,Machilipatnam Division,Nagayatippa B.O,521125,BO,Delivery,KRISHNA,ANDHRA PRADESH,NA,NA
Andhra Pradesh Circle,Vijayawada Region,Machilipatnam Division,Dd.Puram B.O,521120,BO,Delivery,KRISHNA,ANDHRA PRADESH,NA,NA
Andhra Pradesh Circle,Vijayawada Region,Machilipatnam Division,Edurumondi B.O,521120,BO,Delivery,KRISHNA,ANDHRA PRADESH,NA,NA
Andhra Pradesh Circle,Vijayawada Region,Machilipatnam Division,Etimogga B.O,521120,BO,Delivery,KRISHNA,ANDHRA PRADESH,NA,NA
Andhra Pradesh Circle,Vijayawada Region,Machilipatnam Division,Nangegadda B.O,521120,BO,Delivery,KRISHNA,ANDHRA PRADESH,NA,NA
Andhra Pradesh Circle,Vijayawada Region,Machilipatnam Division,Elakurru B.O,521156,BO,Delivery,KRISHNA,ANDHRA PRADESH,NA,NA
Andhra Pradesh Circle,Vijayawada Region,Machilipatnam Division,Mantripalem B.O,521156,BO,Delivery,KRISHNA,ANDHRA PRADESH,NA,NA
Andhra Pradesh Circle,Vijayawada Region,Machilipatnam Division,Tallapalem B.O,521002,BO,Delivery,KRISHNA,ANDHRA PRADESH,NA,NA
Andhra Pradesh Circle,Vijayawada Region,Machilipatnam Division,Pedayadara B.O,521003,BO,Delivery,KRISHNA,ANDHRA PRADESH,NA,NA
Andhra Pradesh Circle,Vijayawada Region,Machilipatnam Division,Polatitippa B.O,521003,BO,Delivery,KRISHNA,ANDHRA PRADESH,NA,NA
Andhra Pradesh Circle,Vijayawada Region,Machilipatnam Division,S.N.Gollapalem B.O,521003,BO,Delivery,KRISHNA,ANDHRA PRADESH,NA,NA
Andhra Pradesh Circle,Vijayawada Region,Machilipatnam Division,Saradanagar B.O,521003,BO,Delivery,KRISHNA,ANDHRA PRADESH,NA,NA
Andhra Pradesh Circle,Vijayawada Region,Machilipatnam Division,Jakkamcherla B.O,521332,BO,Delivery,KRISHNA,ANDHRA PRADESH,NA,NA
Andhra Pradesh Circle,Vijayawada Region,Machilipatnam Division,Mukkollu B.O,521332,BO,Delivery,KRISHNA,ANDHRA PRADESH,NA,NA
Andhra Pradesh Circle,Vijayawada Region,Machilipatnam Division,Kurada B.O,521356,BO,Delivery,KRISHNA,ANDHRA PRADESH,NA,NA
Andhra Pradesh Circle,Vijayawada Region,Machilipatnam Division,Pittalalanka B.O,521122,BO,Delivery,KRISHNA,ANDHRA PRADESH,NA,NA
Andhra Pradesh Circle,Vijayawada Region,Machilipatnam Division,Puligadda B.O,521122,BO,Delivery,KRISHNA,ANDHRA PRADESH,NA,NA
Andhra Pradesh Circle,Vijayawada Region,Machilipatnam Division,Ramachandrapuram(Divi) B.O,521122,BO,Delivery,KRISHNA,ANDHRA PRADESH,NA,NA
Andhra Pradesh Circle,Vijayawada Region,Machilipatnam Division,V.Rudravaram B.O,521133,BO,Delivery,KRISHNA,ANDHRA PRADESH,NA,NA
Andhra Pradesh Circle,Vijayawada Region,Machilipatnam Division,Kokanarayanapalem B.O,521149,BO,Delivery,KRISHNA,ANDHRA PRADESH,NA,NA
Andhra Pradesh Circle,Vijayawada Region,Machilipatnam Division,Chinamuttevi B.O,521136,BO,Delivery,KRISHNA,ANDHRA PRADESH,NA,NA
Andhra Pradesh Circle,Vijayawada Region,Machilipatnam Division,Pedamuttevi B.O,521136,BO,Delivery,KRISHNA,ANDHRA PRADESH,NA,NA
Andhra Pradesh Circle,Vijayawada Region,Machilipatnam Division,Tadepalli B.O,521132,BO,Delivery,KRISHNA,ANDHRA PRADESH,NA,NA
Andhra Pradesh Circle,Vijayawada Region,Machilipatnam Division,Velivolu B.O,521132,BO,Delivery,KRISHNA,ANDHRA PRADESH,NA,NA
Andhra Pradesh Circle,Vijayawada Region,Machilipatnam Division,Chodavaram B.O,521120,BO,Delivery,KRISHNA,ANDHRA PRADESH,NA,NA
Andhra Pradesh Circle,Vijayawada Region,Machilipatnam Division,T.Kothapalem B.O,521120,BO,Delivery,KRISHNA,ANDHRA PRADESH,NA,NA
Andhra Pradesh Circle,Vijayawada Region,Machilipatnam Division,Talagadadeevi B.O,521120,BO,Delivery,KRISHNA,ANDHRA PRADESH,NA,NA
Andhra Pradesh Circle,Vijayawada Region,Machilipatnam Division,P.G.Lanka B.O,521156,BO,Delivery,KRISHNA,ANDHRA PRADESH,NA,NA
Andhra Pradesh Circle,Vijayawada Region,Machilipatnam Division,Tarakaturu B.O,521156,BO,Delivery,KRISHNA,ANDHRA PRADESH,NA,NA
Andhra Pradesh Circle,Vijayawada Region,Machilipatnam Division,Nimmaluru B.O,521158,BO,Delivery,KRISHNA,ANDHRA PRADESH,NA,NA
Andhra Pradesh Circle,Vijayawada Region,Machilipatnam Division,Majeru B.O,521131,BO,Delivery,KRISHNA,ANDHRA PRADESH,NA,NA
Andhra Pradesh Circle,Vijayawada Region,Machilipatnam Division,Gudapadu B.O,521135,BO,Delivery,KRISHNA,ANDHRA PRADESH,NA,NA
Andhra Pradesh Circle,Vijayawada Region,Machilipatnam Division,Bhavadevarapalli B.O,521120,BO,Delivery,KRISHNA,ANDHRA PRADESH,NA,NA
Andhra Pradesh Circle,Vijayawada Region,Machilipatnam Division,Nagayalanka East B.O,521120,BO,Non Delivery,KRISHNA,ANDHRA PRADESH,NA,NA
Andhra Pradesh Circle,Vijayawada Region,Machilipatnam Division,Parrachivara B.O,521120,BO,Delivery,KRISHNA,ANDHRA PRADESH,NA,NA
Andhra Pradesh Circle,Vijayawada Region,Machilipatnam Division,Sorlagondhi B.O,521120,BO,Delivery,KRISHNA,ANDHRA PRADESH,NA,NA
Andhra Pradesh Circle,Vijayawada Region,Machilipatnam Division,Undrapudi B.O,521157,BO,Delivery,KRISHNA,ANDHRA PRADESH,NA,NA
Andhra Pradesh Circle,Vijayawada Region,Machilipatnam Division,Bhatlapenumarru B.O,521138,BO,Delivery,KRISHNA,ANDHRA PRADESH,NA,NA
Andhra Pradesh Circle,Vijayawada Region,Machilipatnam Division,Mallavolu B.O,521162,BO,Delivery,KRISHNA,ANDHRA PRADESH,NA,NA
Andhra Pradesh Circle,Vijayawada Region,Machilipatnam Division,Rayavaram B.O,521162,BO,Delivery,KRISHNA,ANDHRA PRADESH,NA,NA
Andhra Pradesh Circle,Vijayawada Region,Machilipatnam Division,Manginapudi B.O,521002,BO,Delivery,KRISHNA,ANDHRA PRADESH,NA,NA
Andhra Pradesh Circle,Vijayawada Region,Machilipatnam Division,Pothepalli B.O,521002,BO,Delivery,KRISHNA,ANDHRA PRADESH,NA,NA
Andhra Pradesh Circle,Vijayawada Region,Machilipatnam Division,Gundupalem B.O,521003,BO,Delivery,KRISHNA,ANDHRA PRADESH,NA,NA
Andhra Pradesh Circle,Vijayawada Region,Machilipatnam Division,Mpm Fort B.O,521003,BO,Delivery,KRISHNA,ANDHRA PRADESH,NA,NA
Andhra Pradesh Circle,Vijayawada Region,Machilipatnam Division,Tummalacheruvu B.O,521003,BO,Delivery,KRISHNA,ANDHRA PRADESH,NA,NA
Andhra Pradesh Circle,Vijayawada Region,Machilipatnam Division,Pesaramilli B.O,521332,BO,Delivery,KRISHNA,ANDHRA PRADESH,NA,NA
Andhra Pradesh Circle,Vijayawada Region,Machilipatnam Division,Penjendra B.O,521356,BO,Delivery,KRISHNA,ANDHRA PRADESH,NA,NA
Andhra Pradesh Circle,Vijayawada Region,Machilipatnam Division,Nagavaram B.O,521331,BO,Delivery,KRISHNA,ANDHRA PRADESH,NA,NA
Andhra Pradesh Circle,Vijayawada Region,Machilipatnam Division,Vemavaram B.O,521331,BO,Delivery,KRISHNA,ANDHRA PRADESH,NA,NA
Andhra Pradesh Circle,Vijayawada Region,Machilipatnam Division,Arthamuru B.O,521369,BO,Delivery,KRISHNA,ANDHRA PRADESH,NA,NA
Andhra Pradesh Circle,Vijayawada Region,Machilipatnam Division,Kakarlamudi B.O,521369,BO,Delivery,KRISHNA,ANDHRA PRADESH,NA,NA
Andhra Pradesh Circle,Vijayawada Region,Machilipatnam Division,Akulamannadu B.O,521366,BO,Delivery,KRISHNA,ANDHRA PRADESH,NA,NA
Andhra Pradesh Circle,Vijayawada Region,Machilipatnam Division,Palankipadu B.O,521158,BO,Delivery,KRISHNA,ANDHRA PRADESH,NA,NA
Andhra Pradesh Circle,Vijayawada Region,Machilipatnam Division,Daggumilli(Z) B.O,521157,BO,Delivery,KRISHNA,ANDHRA PRADESH,NA,NA
Andhra Pradesh Circle,Vijayawada Region,Machilipatnam Division,Jujjuvaram B.O,521157,BO,Delivery,KRISHNA,ANDHRA PRADESH,NA,NA
Andhra Pradesh Circle,Vijayawada Region,Machilipatnam Division,Kondiparru B.O,521157,BO,Delivery,KRISHNA,ANDHRA PRADESH,NA,NA
Andhra Pradesh Circle,Vijayawada Region,Machilipatnam Division,Kurumaddali B.O,521157,BO,Delivery,KRISHNA,ANDHRA PRADESH,NA,NA
Andhra Pradesh Circle,Vijayawada Region,Gudivada Division,Serinarasannapalem B.O,521105,BO,Delivery,KRISHNA,ANDHRA PRADESH,16.6200000,80.9600000
Andhra Pradesh Circle,Vijayawada Region,Gudivada Division,Arugolanu B.O,521106,BO,Delivery,KRISHNA,ANDHRA PRADESH,16.5700000,80.9600000
Andhra Pradesh Circle,Vijayawada Region,Gudivada Division,Kakulapadu B.O,521106,BO,Delivery,KRISHNA,ANDHRA PRADESH,16.5900000,80.9800000
Andhra Pradesh Circle,Vijayawada Region,Gudivada Division,Puttagunta B.O,521106,BO,Delivery,KRISHNA,ANDHRA PRADESH,16.5200000,80.9600000
Andhra Pradesh Circle,Vijayawada Region,Gudivada Division,Balive B.O,521207,BO,Delivery,KRISHNA,ANDHRA PRADESH,16.8100000,81.0100000
Andhra Pradesh Circle,Vijayawada Region,Gudivada Division,Chintalavalli B.O,521207,BO,Delivery,KRISHNA,ANDHRA PRADESH,16.8400000,80.9200000
Andhra Pradesh Circle,Vijayawada Region,Gudivada Division,Ellapuram B.O,521207,BO,Delivery,KRISHNA,ANDHRA PRADESH,16.8400000,80.9900000
Andhra Pradesh Circle,Vijayawada Region,Gudivada Division,Gopavaram B.O,521207,BO,Delivery,KRISHNA,ANDHRA PRADESH,16.8200000,80.9700000
Andhra Pradesh Circle,Vijayawada Region,Gudivada Division,Katrenipadu B.O,521207,BO,Delivery,KRISHNA,ANDHRA PRADESH,16.7900000,80.9500000
Andhra Pradesh Circle,Vijayawada Region,Gudivada Division,Akkireddygudem B.O,521213,BO,Delivery,KRISHNA,ANDHRA PRADESH,16.8900000,80.9100000
Andhra Pradesh Circle,Vijayawada Region,Gudivada Division,Chekkapalli B.O,521213,BO,Delivery,KRISHNA,ANDHRA PRADESH,16.8800000,80.9400000
Andhra Pradesh Circle,Vijayawada Region,Gudivada Division,Chittapur B.O,521213,BO,Delivery,KRISHNA,ANDHRA PRADESH,16.9300000,80.8700000
Andhra Pradesh Circle,Vijayawada Region,Gudivada Division,Digavalli B.O,521213,BO,Delivery,KRISHNA,ANDHRA PRADESH,16.8700000,80.8500000
Andhra Pradesh Circle,Vijayawada Region,Gudivada Division,Chatrai B.O,521214,BO,Delivery,KRISHNA,ANDHRA PRADESH,16.9900000,80.8600000
Andhra Pradesh Circle,Vijayawada Region,Gudivada Division,Chinnampet B.O,521214,BO,Delivery,KRISHNA,ANDHRA PRADESH,17.0700000,80.8800000
Andhra Pradesh Circle,Vijayawada Region,Gudivada Division,Annaraopet B.O,521215,BO,Delivery,KRISHNA,ANDHRA PRADESH,16.8900000,80.7600000
Andhra Pradesh Circle,Vijayawada Region,Gudivada Division,Chandrupatla B.O,521215,BO,Delivery,KRISHNA,ANDHRA PRADESH,16.9700000,80.7600000
Andhra Pradesh Circle,Vijayawada Region,Gudivada Division,Amudalapalli B.O,521312,BO,Delivery,KRISHNA,ANDHRA PRADESH,16.5100000,80.9000000
Andhra Pradesh Circle,Vijayawada Region,Gudivada Division,Garapadu B.O,521312,BO,Delivery,KRISHNA,ANDHRA PRADESH,16.5300000,80.9100000
Andhra Pradesh Circle,Vijayawada Region,Gudivada Division,Koyyagurapadu B.O,521312,BO,Delivery,KRISHNA,ANDHRA PRADESH,16.5100000,80.9200000
Andhra Pradesh Circle,Vijayawada Region,Gudivada Division,Ponukumadu B.O,521312,BO,Delivery,KRISHNA,ANDHRA PRADESH,16.5300000,80.8900000
Andhra Pradesh Circle,Vijayawada Region,Gudivada Division,Tukkuluru B.O,521111,BO,Delivery,KRISHNA,ANDHRA PRADESH,16.7800000,80.8900000
Andhra Pradesh Circle,Vijayawada Region,Gudivada Division,Sitaramapuram B.O,521105,BO,Delivery,KRISHNA,ANDHRA PRADESH,16.6790000,80.9590000
Andhra Pradesh Circle,Vijayawada Region,Gudivada Division,Lankapalli Agraharam B.O,521311,BO,Delivery,KRISHNA,ANDHRA PRADESH,16.4900000,80.8900000
Andhra Pradesh Circle,Vijayawada Region,Gudivada Division,Pothureddipalli B.O,521207,BO,Delivery,KRISHNA,ANDHRA PRADESH,16.8100000,80.8700000
Andhra Pradesh Circle,Vijayawada Region,Gudivada Division,Somavaram B.O,521213,BO,Delivery,KRISHNA,ANDHRA PRADESH,16.9300000,80.9100000
Andhra Pradesh Circle,Vijayawada Region,Gudivada Division,Gudipadu B.O,521214,BO,Delivery,KRISHNA,ANDHRA PRADESH,17.0300000,80.8200000
Andhra Pradesh Circle,Vijayawada Region,Gudivada Division,Janardhanavaram B.O,521214,BO,Delivery,KRISHNA,ANDHRA PRADESH,16.9700000,80.8600000
Andhra Pradesh Circle,Vijayawada Region,Gudivada Division,Kalagara B.O,521214,BO,Delivery,KRISHNA,ANDHRA PRADESH,17.0100000,80.7600000
Andhra Pradesh Circle,Vijayawada Region,Gudivada Division,Polavaram B.O,521214,BO,Delivery,KRISHNA,ANDHRA PRADESH,16.9800000,80.9100000
Andhra Pradesh Circle,Vijayawada Region,Gudivada Division,Muchinapalli B.O,521215,BO,Delivery,KRISHNA,ANDHRA PRADESH,16.9550000,80.7208000
Andhra Pradesh Circle,Vijayawada Region,Gudivada Division,Reddigudem B.O,521215,BO,Delivery,KRISHNA,ANDHRA PRADESH,16.8700000,80.7300000
Andhra Pradesh Circle,Vijayawada Region,Gudivada Division,Tatakuntla B.O,521215,BO,Delivery,KRISHNA,ANDHRA PRADESH,16.9600000,80.8000000
Andhra Pradesh Circle,Vijayawada Region,Machilipatnam Division,Pasumarru B.O,521157,BO,Delivery,KRISHNA,ANDHRA PRADESH,NA,NA
Andhra Pradesh Circle,Vijayawada Region,Machilipatnam Division,Perisepalli B.O,521157,BO,Delivery,KRISHNA,ANDHRA PRADESH,NA,NA
Andhra Pradesh Circle,Vijayawada Region,Machilipatnam Division,Mamidikolla B.O,521356,BO,Delivery,KRISHNA,ANDHRA PRADESH,NA,NA
Andhra Pradesh Circle,Vijayawada Region,Machilipatnam Division,Kavipuram B.O,521331,BO,Delivery,KRISHNA,ANDHRA PRADESH,NA,NA
Andhra Pradesh Circle,Vijayawada Region,Vijayawada Division,Nemali B.O,521401,BO,Delivery,KRISHNA,ANDHRA PRADESH,17.0667930,80.3935660
Andhra Pradesh Circle,Vijayawada Region,Vijayawada Division,Satyalapadu B.O,521401,BO,Delivery,KRISHNA,ANDHRA PRADESH,16.9915070,80.4857730
Andhra Pradesh Circle,Vijayawada Region,Vijayawada Division,Bandarugudem B.O,521109,BO,Delivery,KRISHNA,ANDHRA PRADESH,16.6185030,80.8654200
Andhra Pradesh Circle,Vijayawada Region,Machilipatnam Division,Kongamcherla B.O,521331,BO,Delivery,KRISHNA,ANDHRA PRADESH,NA,NA
Andhra Pradesh Circle,Vijayawada Region,Machilipatnam Division,Chennuru B.O,521366,BO,Delivery,KRISHNA,ANDHRA PRADESH,NA,NA
Andhra Pradesh Circle,Vijayawada Region,Machilipatnam Division,Chevendra B.O,521366,BO,Delivery,KRISHNA,ANDHRA PRADESH,NA,NA
Andhra Pradesh Circle,Vijayawada Region,Machilipatnam Division,Chittipalem B.O,521366,BO,Delivery,KRISHNA,ANDHRA PRADESH,NA,NA
Andhra Pradesh Circle,Vijayawada Region,Machilipatnam Division,K.P.Lock B.O,521366,BO,Delivery,KRISHNA,ANDHRA PRADESH,NA,NA
Andhra Pradesh Circle,Vijayawada Region,Machilipatnam Division,Rimmanapudi B.O,521157,BO,Delivery,KRISHNA,ANDHRA PRADESH,NA,NA
Andhra Pradesh Circle,Vijayawada Region,Machilipatnam Division,Kummaripalem B.O,521130,BO,Delivery,KRISHNA,ANDHRA PRADESH,NA,NA
Andhra Pradesh Circle,Vijayawada Region,Machilipatnam Division,Venaktapuram B.O,521130,BO,Delivery,KRISHNA,ANDHRA PRADESH,NA,NA
Andhra Pradesh Circle,Vijayawada Region,Machilipatnam Division,Ayyanki B.O,521138,BO,Delivery,KRISHNA,ANDHRA PRADESH,NA,NA
Andhra Pradesh Circle,Vijayawada Region,Machilipatnam Division,Ramannapet B.O,521162,BO,Delivery,KRISHNA,ANDHRA PRADESH,NA,NA
Andhra Pradesh Circle,Vijayawada Region,Machilipatnam Division,Kanuru B.O,521002,BO,Delivery,KRISHNA,ANDHRA PRADESH,NA,NA
Andhra Pradesh Circle,Vijayawada Region,Machilipatnam Division,Karagraharam B.O,521002,BO,Delivery,KRISHNA,ANDHRA PRADESH,NA,NA
Andhra Pradesh Circle,Vijayawada Region,Machilipatnam Division,Mekavanipalem B.O,521002,BO,Delivery,KRISHNA,ANDHRA PRADESH,NA,NA
Andhra Pradesh Circle,Vijayawada Region,Machilipatnam Division,Chinnapuram B.O,521003,BO,Delivery,KRISHNA,ANDHRA PRADESH,NA,NA
Andhra Pradesh Circle,Vijayawada Region,Machilipatnam Division,Kanchadam B.O,521369,BO,Delivery,KRISHNA,ANDHRA PRADESH,NA,NA
Andhra Pradesh Circle,Vijayawada Region,Machilipatnam Division,Nandamuru B.O,521369,BO,Delivery,KRISHNA,ANDHRA PRADESH,NA,NA
Andhra Pradesh Circle,Vijayawada Region,Machilipatnam Division,Penumalli B.O,521369,BO,Delivery,KRISHNA,ANDHRA PRADESH,NA,NA
Andhra Pradesh Circle,Vijayawada Region,Machilipatnam Division,Satulru B.O,521369,BO,Delivery,KRISHNA,ANDHRA PRADESH,NA,NA
Andhra Pradesh Circle,Vijayawada Region,Gudivada Division,Ravicherla B.O,521202,BO,Delivery,KRISHNA,ANDHRA PRADESH,16.7400000,80.8300000
Andhra Pradesh Circle,Vijayawada Region,Gudivada Division,Annavaram B.O,521202,BO,Delivery,KRISHNA,ANDHRA PRADESH,16.7847280,80.8498670
Andhra Pradesh Circle,Vijayawada Region,Gudivada Division,Billanapalli B.O,521111,BO,Delivery,KRISHNA,ANDHRA PRADESH,16.7100000,80.9500000
Andhra Pradesh Circle,Vijayawada Region,Gudivada Division,Morsapudi B.O,521111,BO,Delivery,KRISHNA,ANDHRA PRADESH,16.7477000,80.8952300
Andhra Pradesh Circle,Vijayawada Region,Gudivada Division,Devaragunta B.O,521111,BO,Delivery,KRISHNA,ANDHRA PRADESH,16.7600000,80.9100000
Andhra Pradesh Circle,Vijayawada Region,Gudivada Division,Bapulapadu B.O,521105,BO,Non Delivery,KRISHNA,ANDHRA PRADESH,16.6500000,80.9600000
Andhra Pradesh Circle,Vijayawada Region,Gudivada Division,Koyyuru B.O,521105,BO,Delivery,KRISHNA,ANDHRA PRADESH,16.6800000,80.9900000
Andhra Pradesh Circle,Vijayawada Region,Gudivada Division,Madicherla B.O,521105,BO,Delivery,KRISHNA,ANDHRA PRADESH,16.7400000,80.9800000
Andhra Pradesh Circle,Vijayawada Region,Gudivada Division,Nandamuru B.O,521311,BO,Delivery,KRISHNA,ANDHRA PRADESH,16.4500000,80.8600000
Andhra Pradesh Circle,Vijayawada Region,Gudivada Division,Aripirala B.O,521106,BO,Delivery,KRISHNA,ANDHRA PRADESH,16.5400000,80.9800000
Andhra Pradesh Circle,Vijayawada Region,Gudivada Division,Pedalingala B.O,521106,BO,Delivery,KRISHNA,ANDHRA PRADESH,16.5300000,80.9400000
Andhra Pradesh Circle,Vijayawada Region,Gudivada Division,Ramannagudem B.O,521106,BO,Delivery,KRISHNA,ANDHRA PRADESH,16.5900000,81.0100000
Andhra Pradesh Circle,Vijayawada Region,Gudivada Division,Korlagunta B.O,521207,BO,Delivery,KRISHNA,ANDHRA PRADESH,16.8200000,80.8900000
Andhra Pradesh Circle,Vijayawada Region,Gudivada Division,Gudipadu B.O,521213,BO,Delivery,KRISHNA,ANDHRA PRADESH,16.8790400,80.9648400
Andhra Pradesh Circle,Vijayawada Region,Gudivada Division,Kondaparva B.O,521213,BO,Delivery,KRISHNA,ANDHRA PRADESH,16.9100000,80.8300000
Andhra Pradesh Circle,Vijayawada Region,Gudivada Division,Tummagudem B.O,521213,BO,Delivery,KRISHNA,ANDHRA PRADESH,16.9409000,80.8927000
Andhra Pradesh Circle,Vijayawada Region,Gudivada Division,Krishnaraopalem B.O,521214,BO,Delivery,KRISHNA,ANDHRA PRADESH,17.0600000,80.8000000
Andhra Pradesh Circle,Vijayawada Region,Gudivada Division,Pothanapalli B.O,521214,BO,Delivery,KRISHNA,ANDHRA PRADESH,17.0200000,80.9000000
Andhra Pradesh Circle,Vijayawada Region,Gudivada Division,Jagannadhapuram B.O,521215,BO,Delivery,KRISHNA,ANDHRA PRADESH,16.8600000,80.7300000
Andhra Pradesh Circle,Vijayawada Region,Gudivada Division,Kunaparajaparva B.O,521215,BO,Delivery,KRISHNA,ANDHRA PRADESH,16.9100000,80.7200000
Andhra Pradesh Circle,Vijayawada Region,Gudivada Division,Velinuthala B.O,521312,BO,Delivery,KRISHNA,ANDHRA PRADESH,16.5200000,80.8600000
Andhra Pradesh Circle,Vijayawada Region,Vijayawada Division,Gosavedu B.O,521403,BO,Delivery,KRISHNA,ANDHRA PRADESH,16.9348610,80.4834470
Andhra Pradesh Circle,Vijayawada Region,Machilipatnam Division,Nali B.O,521120,BO,Delivery,KRISHNA,ANDHRA PRADESH,NA,NA
Andhra Pradesh Circle,Vijayawada Region,Machilipatnam Division,Pedakammavaripalem B.O,521120,BO,Delivery,KRISHNA,ANDHRA PRADESH,NA,NA
Andhra Pradesh Circle,Vijayawada Region,Machilipatnam Division,Uruturu B.O,521157,BO,Delivery,KRISHNA,ANDHRA PRADESH,NA,NA
Andhra Pradesh Circle,Vijayawada Region,Machilipatnam Division,Inampudi B.O,521138,BO,Delivery,KRISHNA,ANDHRA PRADESH,NA,NA
Andhra Pradesh Circle,Vijayawada Region,Machilipatnam Division,Pedapatnam B.O,521002,BO,Delivery,KRISHNA,ANDHRA PRADESH,NA,NA
Andhra Pradesh Circle,Vijayawada Region,Machilipatnam Division,Pothireddipalem B.O,521002,BO,Delivery,KRISHNA,ANDHRA PRADESH,NA,NA
Andhra Pradesh Circle,Vijayawada Region,Machilipatnam Division,Yadlavanipalem B.O,521002,BO,Delivery,KRISHNA,ANDHRA PRADESH,NA,NA
Andhra Pradesh Circle,Vijayawada Region,Machilipatnam Division,Gilakaladindi B.O,521003,BO,Delivery,KRISHNA,ANDHRA PRADESH,NA,NA
Andhra Pradesh Circle,Vijayawada Region,Machilipatnam Division,Kammavaricheruvu B.O,521003,BO,Delivery,KRISHNA,ANDHRA PRADESH,NA,NA
Andhra Pradesh Circle,Vijayawada Region,Machilipatnam Division,Vadapalem B.O,521003,BO,Delivery,KRISHNA,ANDHRA PRADESH,NA,NA
Andhra Pradesh Circle,Vijayawada Region,Machilipatnam Division,Rudravaram B.O,521003,BO,Delivery,KRISHNA,ANDHRA PRADESH,15.24239,78.604405
Andhra Pradesh Circle,Vijayawada Region,Machilipatnam Division,Venturumilli B.O,521332,BO,Delivery,KRISHNA,ANDHRA PRADESH,NA,NA
Andhra Pradesh Circle,Vijayawada Region,Machilipatnam Division,Daggumailli B.O,521356,BO,Delivery,KRISHNA,ANDHRA PRADESH,NA,NA
Andhra Pradesh Circle,Vijayawada Region,Machilipatnam Division,Vadlamannadu B.O,521331,BO,Delivery,KRISHNA,ANDHRA PRADESH,NA,NA
Andhra Pradesh Circle,Vijayawada Region,Machilipatnam Division,Jinjeru B.O,521369,BO,Delivery,KRISHNA,ANDHRA PRADESH,NA,NA
Andhra Pradesh Circle,Vijayawada Region,Vijayawada Division,Kanumuru B.O,521403,BO,Delivery,KRISHNA,ANDHRA PRADESH,16.9995210,80.5199110
Andhra Pradesh Circle,Vijayawada Region,Vijayawada Division,Chintalanerva B.O,521401,BO,Delivery,KRISHNA,ANDHRA PRADESH,17.0025490,80.4704530
Andhra Pradesh Circle,Vijayawada Region,Vijayawada Division,Sanagapadu B.O,521185,BO,Delivery,KRISHNA,ANDHRA PRADESH,16.8202740,80.2312120
Andhra Pradesh Circle,Vijayawada Region,Vijayawada Division,Vemulapalli B.O,521185,BO,Delivery,KRISHNA,ANDHRA PRADESH,16.6774960,80.3424770
Andhra Pradesh Circle,Vijayawada Region,Vijayawada Division,Chandapuram B.O,521185,BO,Delivery,KRISHNA,ANDHRA PRADESH,16.7830210,80.3525600
Andhra Pradesh Circle,Vijayawada Region,Vijayawada Division,Ramireddipalli B.O,521184,BO,Delivery,KRISHNA,ANDHRA PRADESH,16.7634810,80.3172300
Andhra Pradesh Circle,Vijayawada Region,Vijayawada Division,Rudravaram B.O,521184,BO,Delivery,KRISHNA,ANDHRA PRADESH,16.7963000,80.3661000
Andhra Pradesh Circle,Vijayawada Region,Vijayawada Division,Somavaram B.O,521184,BO,Delivery,KRISHNA,ANDHRA PRADESH,16.8346300,80.3423640
Andhra Pradesh Circle,Vijayawada Region,Vijayawada Division,Torragudipadu B.O,521184,BO,Delivery,KRISHNA,ANDHRA PRADESH,16.8311400,80.3428770
Andhra Pradesh Circle,Vijayawada Region,Vijayawada Division,Venkatapuram B.O,521190,BO,Delivery,KRISHNA,ANDHRA PRADESH,16.8413400,80.2646410
Andhra Pradesh Circle,Vijayawada Region,Vijayawada Division,Singavaram B.O,521190,BO,Delivery,KRISHNA,ANDHRA PRADESH,16.9261350,80.2059950
Andhra Pradesh Circle,Vijayawada Region,Vijayawada Division,Bhadrirajupalem B.O,521163,BO,Delivery,KRISHNA,ANDHRA PRADESH,16.3321240,80.7941840
Andhra Pradesh Circle,Vijayawada Region,Vijayawada Division,Vemulanarva B.O,521402,BO,Delivery,KRISHNA,ANDHRA PRADESH,16.9921040,80.2812020
Andhra Pradesh Circle,Vijayawada Region,Vijayawada Division,Choragudi B.O,521250,BO,Delivery,KRISHNA,ANDHRA PRADESH,16.2424150,80.8747280
Andhra Pradesh Circle,Vijayawada Region,Vijayawada Division,Krishnapuram B.O,521250,BO,Delivery,KRISHNA,ANDHRA PRADESH,16.2558470,80.8683770
Andhra Pradesh Circle,Vijayawada Region,Vijayawada Division,Pamidimukkala B.O,521250,BO,Delivery,KRISHNA,ANDHRA PRADESH,16.2798310,80.8665020
Andhra Pradesh Circle,Vijayawada Region,Machilipatnam Division,Borrapothupalem B.O,521366,BO,Delivery,KRISHNA,ANDHRA PRADESH,NA,NA
Andhra Pradesh Circle,Vijayawada Region,Vijayawada Division,Jupudi B.O,521456,BO,Delivery,KRISHNA,ANDHRA PRADESH,16.5642610,80.2556420
Andhra Pradesh Circle,Vijayawada Region,Vijayawada Division,Ketanakonda B.O,521456,BO,Delivery,KRISHNA,ANDHRA PRADESH,16.6177780,80.4579560
Andhra Pradesh Circle,Vijayawada Region,Vijayawada Division,Kotikalapudi B.O,521456,BO,Delivery,KRISHNA,ANDHRA PRADESH,16.6020170,80.4625080
Andhra Pradesh Circle,Vijayawada Region,Vijayawada Division,Garikiparru B.O,521165,BO,Delivery,KRISHNA,ANDHRA PRADESH,16.3453900,80.8304970
Andhra Pradesh Circle,Vijayawada Region,Vijayawada Division,Buthumillipadu B.O,521101,BO,Delivery,KRISHNA,ANDHRA PRADESH,16.8562340,80.6523560
Andhra Pradesh Circle,Vijayawada Region,Vijayawada Division,Purushothapatnam B.O,521101,BO,Delivery,KRISHNA,ANDHRA PRADESH,16.5602080,80.7698460
Andhra Pradesh Circle,Vijayawada Region,Vijayawada Division,Roynagar B.O,521101,BO,Delivery,KRISHNA,ANDHRA PRADESH,16.5449,80.8058
Andhra Pradesh Circle,Vijayawada Region,Vijayawada Division,Lime Stone Town Ship B.O,521175,BO,Delivery,KRISHNA,ANDHRA PRADESH,16.8744190,80.0892640
Andhra Pradesh Circle,Vijayawada Region,Machilipatnam Division,Nadakuduru B.O,521126,BO,Delivery,KRISHNA,ANDHRA PRADESH,NA,NA
Andhra Pradesh Circle,Vijayawada Region,Machilipatnam Division,Vakkalagadda B.O,521126,BO,Delivery,KRISHNA,ANDHRA PRADESH,NA,NA
Andhra Pradesh Circle,Vijayawada Region,Machilipatnam Division,Edlalanka B.O,521122,BO,Delivery,KRISHNA,ANDHRA PRADESH,NA,NA
Andhra Pradesh Circle,Vijayawada Region,Vijayawada Division,Malkapuram B.O,521175,BO,Delivery,KRISHNA,ANDHRA PRADESH,16.8965320,80.9523650
Andhra Pradesh Circle,Vijayawada Region,Vijayawada Division,Shermohammadpet B.O,521175,BO,Delivery,KRISHNA,ANDHRA PRADESH,16.9244120,80.0938030
Andhra Pradesh Circle,Vijayawada Region,Vijayawada Division,Srinivasa Nagar Colony B.O,521175,BO,Delivery,KRISHNA,ANDHRA PRADESH,16.9856350,80.8965930
Andhra Pradesh Circle,Vijayawada Region,Vijayawada Division,Takkellapadu B.O,521175,BO,Delivery,KRISHNA,ANDHRA PRADESH,16.6895230,80.7856940
Andhra Pradesh Circle,Vijayawada Region,Vijayawada Division,Gottumukkala B.O,521180,BO,Delivery,KRISHNA,ANDHRA PRADESH,16.6981110,80.4081730
Andhra Pradesh Circle,Vijayawada Region,Vijayawada Division,Moguluru B.O,521180,BO,Delivery,KRISHNA,ANDHRA PRADESH,16.6371160,80.3382460
Andhra Pradesh Circle,Vijayawada Region,Vijayawada Division,Munnaluru B.O,521180,BO,Delivery,KRISHNA,ANDHRA PRADESH,16.6240810,80.3357960
Andhra Pradesh Circle,Vijayawada Region,Vijayawada Division,Ponnavaram B.O,521180,BO,Delivery,KRISHNA,ANDHRA PRADESH,16.7161900,80.8111500
Andhra Pradesh Circle,Vijayawada Region,Vijayawada Division,Gani Atkuru B.O,521180,BO,Delivery,KRISHNA,ANDHRA PRADESH,16.6156770,80.3922320
Andhra Pradesh Circle,Vijayawada Region,Vijayawada Division,Kalavapamula B.O,521164,BO,Delivery,KRISHNA,ANDHRA PRADESH,16.4392650,80.8791810
Andhra Pradesh Circle,Vijayawada Region,Vijayawada Division,Ramachandrapuram B.O,521226,BO,Delivery,KRISHNA,ANDHRA PRADESH,16.8734230,80.6384140
Andhra Pradesh Circle,Vijayawada Region,Vijayawada Division,Ambedkarnagar B.O,521165,BO,Non Delivery,KRISHNA,ANDHRA PRADESH,16.3612180,80.8296320
Andhra Pradesh Circle,Vijayawada Region,Vijayawada Division,Iluru B.O,521247,BO,Delivery,KRISHNA,ANDHRA PRADESH,16.2661270,80.8298320
Andhra Pradesh Circle,Vijayawada Region,Vijayawada Division,Madhurapuram B.O,521247,BO,Delivery,KRISHNA,ANDHRA PRADESH,16.2767970,80.8246820
Andhra Pradesh Circle,Vijayawada Region,Vijayawada Division,Patamatalankapalli B.O,521247,BO,Delivery,KRISHNA,ANDHRA PRADESH,16.2216290,80.8445950
Andhra Pradesh Circle,Vijayawada Region,Vijayawada Division,China Nandigama B.O,521230,BO,Delivery,KRISHNA,ANDHRA PRADESH,16.7265350,80.6557890
Andhra Pradesh Circle,Vijayawada Region,Vijayawada Division,Koduru B.O,521230,BO,Delivery,KRISHNA,ANDHRA PRADESH,16.7265350,80.6806890
Andhra Pradesh Circle,Vijayawada Region,Vijayawada Division,Morusumilli B.O,521230,BO,Delivery,KRISHNA,ANDHRA PRADESH,16.8526680,80.5756290
Andhra Pradesh Circle,Vijayawada Region,Vijayawada Division,Chandrgudem B.O,521230,BO,Delivery,KRISHNA,ANDHRA PRADESH,16.8042240,80.6287320
Andhra Pradesh Circle,Vijayawada Region,Vijayawada Division,Naguluru B.O,521230,BO,Delivery,KRISHNA,ANDHRA PRADESH,16.7892200,80.7237890
Andhra Pradesh Circle,Vijayawada Region,Vijayawada Division,Pondugula B.O,521230,BO,Delivery,KRISHNA,ANDHRA PRADESH,16.7729470,80.6172240
Andhra Pradesh Circle,Vijayawada Region,Vijayawada Division,Konduru B.O,521184,BO,Delivery,KRISHNA,ANDHRA PRADESH,16.7715000,80.2838000
Andhra Pradesh Circle,Vijayawada Region,Vijayawada Division,Azzampudi B.O,521101,BO,Delivery,KRISHNA,ANDHRA PRADESH,16.5236440,80.8070310
Andhra Pradesh Circle,Vijayawada Region,Vijayawada Division,Bahubalendrunigudem B.O,521101,BO,Delivery,KRISHNA,ANDHRA PRADESH,16.5713140,80.7918190
Andhra Pradesh Circle,Vijayawada Region,Vijayawada Division,Gannavaram Centre B.O,521101,BO,Non Delivery,KRISHNA,ANDHRA PRADESH,16.5255260,80.7939270
Andhra Pradesh Circle,Vijayawada Region,Vijayawada Division,Anumanchipalli B.O,521175,BO,Delivery,KRISHNA,ANDHRA PRADESH,16.9235860,80.8562950
Andhra Pradesh Circle,Vijayawada Region,Vijayawada Division,Kontalapalli B.O,521181,BO,Delivery,KRISHNA,ANDHRA PRADESH,16.8956980,80.8853690
Andhra Pradesh Circle,Vijayawada Region,Vijayawada Division,Narasimharaopalem B.O,521181,BO,Delivery,KRISHNA,ANDHRA PRADESH,16.7236030,80.4236640
Andhra Pradesh Circle,Vijayawada Region,Vijayawada Division,Jammavaram B.O,521180,BO,Delivery,KRISHNA,ANDHRA PRADESH,16.7365290,80.3665610
Andhra Pradesh Circle,Vijayawada Region,Vijayawada Division,Paritala B.O,521180,BO,Delivery,KRISHNA,ANDHRA PRADESH,16.6601740,80.4085823
Andhra Pradesh Circle,Vijayawada Region,Vijayawada Division,Hanumanthapuram B.O,521246,BO,Delivery,KRISHNA,ANDHRA PRADESH,16.3033240,80.8833830
Andhra Pradesh Circle,Vijayawada Region,Vijayawada Division,Chavutapalli B.O,521227,BO,Delivery,KRISHNA,ANDHRA PRADESH,17.0413700,80.6014190
Andhra Pradesh Circle,Vijayawada Region,Vijayawada Division,Kakarla B.O,521227,BO,Delivery,KRISHNA,ANDHRA PRADESH,17.0559990,80.6331760
Andhra Pradesh Circle,Vijayawada Region,Vijayawada Division,Kavuluru B.O,521228,BO,Delivery,KRISHNA,ANDHRA PRADESH,16.6330730,80.5781470
Andhra Pradesh Circle,Vijayawada Region,Vijayawada Division,Kattubadipalem BO,521228,BO,Delivery,KRISHNA,ANDHRA PRADESH,16.6521240,80.5637590
Andhra Pradesh Circle,Vijayawada Region,Vijayawada Division,Vedadri B.O,521457,BO,Delivery,KRISHNA,ANDHRA PRADESH,16.7997860,80.1482570
Andhra Pradesh Circle,Vijayawada Region,Vijayawada Division,Gurazada B.O,521256,BO,Delivery,KRISHNA,ANDHRA PRADESH,16.3597980,80.8782080
Andhra Pradesh Circle,Vijayawada Region,Vijayawada Division,Kanumuru B.O,521256,BO,Delivery,KRISHNA,ANDHRA PRADESH,16.3398260,80.9021550
Andhra Pradesh Circle,Vijayawada Region,Vijayawada Division,Saipuram B.O,521256,BO,Delivery,KRISHNA,ANDHRA PRADESH,16.3392360,80.9020090
Andhra Pradesh Circle,Vijayawada Region,Vijayawada Division,Srirangapuram B.O,521247,BO,Non Delivery,KRISHNA,ANDHRA PRADESH,16.2212170,80.8633060
Andhra Pradesh Circle,Vijayawada Region,Vijayawada Division,Chintalapadu B.O,521183,BO,Delivery,KRISHNA,ANDHRA PRADESH,16.6576030,80.2769820
Andhra Pradesh Circle,Vijayawada Region,Vijayawada Division,Eturu B.O,521183,BO,Delivery,KRISHNA,ANDHRA PRADESH,16.6308980,80.2962510
Andhra Pradesh Circle,Vijayawada Region,Vijayawada Division,Guttavaripalem B.O,521183,BO,Delivery,KRISHNA,ANDHRA PRADESH,16.6302190,80.2961320
Andhra Pradesh Circle,Vijayawada Region,Vijayawada Division,Thotaravulapadu B.O,521183,BO,Delivery,KRISHNA,ANDHRA PRADESH,16.6775310,80.2793290
Andhra Pradesh Circle,Vijayawada Region,Vijayawada Division,Pulluru B.O,521230,BO,Delivery,KRISHNA,ANDHRA PRADESH,16.8354510,80.6362380
Andhra Pradesh Circle,Vijayawada Region,Vijayawada Division,Cheruvukommupalem B.O,521185,BO,Delivery,KRISHNA,ANDHRA PRADESH,16.7822710,80.3512890
Andhra Pradesh Circle,Vijayawada Region,Vijayawada Division,Allapuram B.O,521101,BO,Delivery,KRISHNA,ANDHRA PRADESH,16.5422760,80.8348370
Andhra Pradesh Circle,Vijayawada Region,Gudivada Division,Ramapuram B.O,521321,BO,Delivery,KRISHNA,ANDHRA PRADESH,16.5500000,18.0100000
Andhra Pradesh Circle,Vijayawada Region,Gudivada Division,Tummalapalli B.O,521321,BO,Delivery,KRISHNA,ANDHRA PRADESH,16.5200000,81.0100000
Andhra Pradesh Circle,Vijayawada Region,Gudivada Division,Achavaram B.O,521333,BO,Delivery,KRISHNA,ANDHRA PRADESH,16.5200000,81.1900000
Andhra Pradesh Circle,Vijayawada Region,Gudivada Division,Mulaupparagudem B.O,521344,BO,Delivery,KRISHNA,ANDHRA PRADESH,16.4300000,81.3400000
Andhra Pradesh Circle,Vijayawada Region,Gudivada Division,Santhoshapuram B.O,521344,BO,Delivery,KRISHNA,ANDHRA PRADESH,16.4700000,81.3300000
Andhra Pradesh Circle,Vijayawada Region,Gudivada Division,Tamarakollu B.O,521343,BO,Delivery,KRISHNA,ANDHRA PRADESH,16.5100000,81.2100000
Andhra Pradesh Circle,Vijayawada Region,Gudivada Division,Vemavarappadu B.O,521343,BO,Delivery,KRISHNA,ANDHRA PRADESH,16.5200000,81.2200000
Andhra Pradesh Circle,Vijayawada Region,Gudivada Division,Chigurukota B.O,521345,BO,Delivery,KRISHNA,ANDHRA PRADESH,816.4830000,81.1850000
Andhra Pradesh Circle,Vijayawada Region,Gudivada Division,Chowtapalli B.O,521323,BO,Delivery,KRISHNA,ANDHRA PRADESH,16.4100000,81.0400000
Andhra Pradesh Circle,Vijayawada Region,Gudivada Division,Koduru B.O,521325,BO,Delivery,KRISHNA,ANDHRA PRADESH,16.4100000,81.0800000
Andhra Pradesh Circle,Vijayawada Region,Gudivada Division,Komarru B.O,521325,BO,Delivery,KRISHNA,ANDHRA PRADESH,16.4300000,81.1600000
Andhra Pradesh Circle,Vijayawada Region,Gudivada Division,Lingala B.O,521325,BO,Delivery,KRISHNA,ANDHRA PRADESH,16.4700000,81.1500000
Andhra Pradesh Circle,Vijayawada Region,Vijayawada Division,Balusupadu B.O,521175,BO,Delivery,KRISHNA,ANDHRA PRADESH,16.9216020,80.0461310
Andhra Pradesh Circle,Vijayawada Region,Vijayawada Division,Gandrai B.O,521175,BO,Delivery,KRISHNA,ANDHRA PRADESH,16.9720990,80.1186430
Andhra Pradesh Circle,Vijayawada Region,Vijayawada Division,Chennaraopalem B.O,521181,BO,Delivery,KRISHNA,ANDHRA PRADESH,16.7449740,80.4712140
Andhra Pradesh Circle,Vijayawada Region,Vijayawada Division,Gudem Madhavaram B.O,521181,BO,Delivery,KRISHNA,ANDHRA PRADESH,16.7675600,80.5132200
Andhra Pradesh Circle,Vijayawada Region,Vijayawada Division,Peddapuram B.O,521181,BO,Delivery,KRISHNA,ANDHRA PRADESH,16.7918930,80.4529480
Andhra Pradesh Circle,Vijayawada Region,Vijayawada Division,Vellanki B.O,521181,BO,Delivery,KRISHNA,ANDHRA PRADESH,16.7704440,80.3706120
Andhra Pradesh Circle,Vijayawada Region,Vijayawada Division,Jaccampudi B.O,520012,BO,Non Delivery,KRISHNA,ANDHRA PRADESH,16.7569230,80.6598320
Andhra Pradesh Circle,Vijayawada Region,Vijayawada Division,Chevitikallu B.O,521180,BO,Delivery,KRISHNA,ANDHRA PRADESH,16.6177520,80.3590320
Andhra Pradesh Circle,Vijayawada Region,Vijayawada Division,Damuluru B.O,521180,BO,Delivery,KRISHNA,ANDHRA PRADESH,16.6053030,80.4112860
Andhra Pradesh Circle,Vijayawada Region,Vijayawada Division,Kanuru B.O,520007,BO,Non Delivery,KRISHNA,ANDHRA PRADESH,16.4950400,80.6885820
Andhra Pradesh Circle,Vijayawada Region,Vijayawada Division,Krishnanagar B.O,520007,BO,Non Delivery,KRISHNA,ANDHRA PRADESH,16.4917650,80.6555390
Andhra Pradesh Circle,Vijayawada Region,Vijayawada Division,Manthena B.O,521151,BO,Delivery,KRISHNA,ANDHRA PRADESH,16.4866670,80.7985070
Andhra Pradesh Circle,Vijayawada Region,Vijayawada Division,Proddutur B.O,521151,BO,Delivery,KRISHNA,ANDHRA PRADESH,16.4072170,80.7733300
Andhra Pradesh Circle,Vijayawada Region,Vijayawada Division,Vanukuru B.O,521151,BO,Delivery,KRISHNA,ANDHRA PRADESH,16.4412710,80.7356610
Andhra Pradesh Circle,Vijayawada Region,Vijayawada Division,Punadipadu B.O,521151,BO,Delivery,KRISHNA,ANDHRA PRADESH,16.4433090,80.7757010
Andhra Pradesh Circle,Vijayawada Region,Vijayawada Division,Royyur B.O,521151,BO,Delivery,KRISHNA,ANDHRA PRADESH,16.3922640,80.7396520
Andhra Pradesh Circle,Vijayawada Region,Vijayawada Division,Enikepadu B.O,521108,BO,Delivery,KRISHNA,ANDHRA PRADESH,16.5109150,80.7010000
Andhra Pradesh Circle,Vijayawada Region,Vijayawada Division,Pedapulipaka B.O,521134,BO,Delivery,KRISHNA,ANDHRA PRADESH,16.4619450,80.6870950
Andhra Pradesh Circle,Vijayawada Region,Vijayawada Division,Repudi B.O,521226,BO,Delivery,KRISHNA,ANDHRA PRADESH,16.9572880,80.6962110
Andhra Pradesh Circle,Vijayawada Region,Vijayawada Division,Krishnaraopalem,521226,BO,Delivery,KRISHNA,ANDHRA PRADESH,NA,NA
Andhra Pradesh Circle,Vijayawada Region,Vijayawada Division,Chinaogirala B.O,521245,BO,Delivery,KRISHNA,ANDHRA PRADESH,16.3771840,80.8244310
Andhra Pradesh Circle,Vijayawada Region,Vijayawada Division,Kotha Edara B.O,521211,BO,Delivery,KRISHNA,ANDHRA PRADESH,16.7268480,80.7603590
Andhra Pradesh Circle,Vijayawada Region,Vijayawada Division,Wambay Colony BO,520015,BO,Delivery,KRISHNA,ANDHRA PRADESH,16.5392610,80.6506480
Andhra Pradesh Circle,Vijayawada Region,Vijayawada Division,Bandipalem B.O,521178,BO,Delivery,KRISHNA,ANDHRA PRADESH,16.8193900,80.1863270
Andhra Pradesh Circle,Vijayawada Region,Vijayawada Division,Bhimavaram B.O,521178,BO,Delivery,KRISHNA,ANDHRA PRADESH,16.6424760,80.2304630
Andhra Pradesh Circle,Vijayawada Region,Vijayawada Division,Gowravaram B.O,521178,BO,Delivery,KRISHNA,ANDHRA PRADESH,16.8575460,80.1955090
Andhra Pradesh Circle,Vijayawada Region,Vijayawada Division,Atkuru B.O,521229,BO,Delivery,KRISHNA,ANDHRA PRADESH,16.5647750,80.8528580
Andhra Pradesh Circle,Vijayawada Region,Vijayawada Division,Chevutur B.O,521229,BO,Delivery,KRISHNA,ANDHRA PRADESH,16.6949710,80.5964160
Andhra Pradesh Circle,Vijayawada Region,Vijayawada Division,Duggiralapadu B.O,521229,BO,Delivery,KRISHNA,ANDHRA PRADESH,16.7662570,80.5055200
Andhra Pradesh Circle,Vijayawada Region,Vijayawada Division,Ganginenipalem B.O,521229,BO,Delivery,KRISHNA,ANDHRA PRADESH,16.7483570,80.5487520
Andhra Pradesh Circle,Vijayawada Region,Vijayawada Division,Vellaturu B.O,521229,BO,Delivery,KRISHNA,ANDHRA PRADESH,16.1155400,80.8110450
Andhra Pradesh Circle,Vijayawada Region,Gudivada Division,Pedakamanapudi B.O,521325,BO,Delivery,KRISHNA,ANDHRA PRADESH,16.4600000,81.1600000
Andhra Pradesh Circle,Vijayawada Region,Gudivada Division,Kottada B.O,521340,BO,Delivery,KRISHNA,ANDHRA PRADESH,16.6030000,81.3450000
Andhra Pradesh Circle,Vijayawada Region,Gudivada Division,Penchikalamarru B.O,521340,BO,Delivery,KRISHNA,ANDHRA PRADESH,16.5900000,81.3200000
Andhra Pradesh Circle,Vijayawada Region,Gudivada Division,Seetanapalli B.O,521340,BO,Delivery,KRISHNA,ANDHRA PRADESH,16.5500000,81.2800000
Andhra Pradesh Circle,Vijayawada Region,Gudivada Division,Vadarlapadu B.O,521340,BO,Delivery,KRISHNA,ANDHRA PRADESH,16.5700000,81.2600000
Andhra Pradesh Circle,Vijayawada Region,Vijayawada Division,Koduru B.O,521227,BO,Delivery,KRISHNA,ANDHRA PRADESH,16.9751130,80.6149880
Andhra Pradesh Circle,Vijayawada Region,Vijayawada Division,Putrela B.O,521227,BO,Delivery,KRISHNA,ANDHRA PRADESH,17.0259120,80.7157440
Andhra Pradesh Circle,Vijayawada Region,Vijayawada Division,Gollamandala B.O,521227,BO,Delivery,KRISHNA,ANDHRA PRADESH,16.9838580,80.6714720
Andhra Pradesh Circle,Vijayawada Region,Vijayawada Division,Rudravaram B.O,521227,BO,Delivery,KRISHNA,ANDHRA PRADESH,16.8748540,80.6617570
Andhra Pradesh Circle,Vijayawada Region,Vijayawada Division,Vallampatla B.O,521227,BO,Delivery,KRISHNA,ANDHRA PRADESH,16.9622740,80.6950510
Andhra Pradesh Circle,Vijayawada Region,Vijayawada Division,Ilaprolu B.O,521228,BO,Delivery,KRISHNA,ANDHRA PRADESH,16.6024410,80.5577900
Andhra Pradesh Circle,Vijayawada Region,Vijayawada Division,Pinapaka B.O,521228,BO,Delivery,KRISHNA,ANDHRA PRADESH,16.6589350,80.5759090
Andhra Pradesh Circle,Vijayawada Region,Vijayawada Division,Jayanthipuram B.O,521457,BO,Delivery,KRISHNA,ANDHRA PRADESH,16.8296920,80.1525490
Andhra Pradesh Circle,Vijayawada Region,Vijayawada Division,Velpuru B.O,521256,BO,Delivery,KRISHNA,ANDHRA PRADESH,16.3332780,80.8912790
Andhra Pradesh Circle,Vijayawada Region,Vijayawada Division,Guruvindapalli B.O,521247,BO,Delivery,KRISHNA,ANDHRA PRADESH,16.2876600,80.8242610
Andhra Pradesh Circle,Vijayawada Region,Vijayawada Division,Inapur B.O,521247,BO,Delivery,KRISHNA,ANDHRA PRADESH,16.2488230,80.8335220
Andhra Pradesh Circle,Vijayawada Region,Vijayawada Division,Turlapadu B.O,521183,BO,Delivery,KRISHNA,ANDHRA PRADESH,16.6573250,80.2763690
Andhra Pradesh Circle,Vijayawada Region,Vijayawada Division,Savaragudem B.O,521107,BO,Delivery,KRISHNA,ANDHRA PRADESH,16.5361960,80.7275690
Andhra Pradesh Circle,Vijayawada Region,Vijayawada Division,Chandrala B.O,521230,BO,Delivery,KRISHNA,ANDHRA PRADESH,16.7655850,80.7034140
Andhra Pradesh Circle,Vijayawada Region,Vijayawada Division,Venkatapuram B.O,521230,BO,Delivery,KRISHNA,ANDHRA PRADESH,16.8503090,80.5503250
Andhra Pradesh Circle,Vijayawada Region,Vijayawada Division,Vasanthanagar B.O,520007,BO,Non Delivery,KRISHNA,ANDHRA PRADESH,80.7079930,16.4833430
Andhra Pradesh Circle,Vijayawada Region,Vijayawada Division,Edupugallu B.O,521151,BO,Delivery,KRISHNA,ANDHRA PRADESH,16.4585350,80.7494210
Andhra Pradesh Circle,Vijayawada Region,Vijayawada Division,Godavarru B.O,521151,BO,Delivery,KRISHNA,ANDHRA PRADESH,16.3768420,80.6959930
Andhra Pradesh Circle,Vijayawada Region,Vijayawada Division,Uppaluru B.O,521151,BO,Delivery,KRISHNA,ANDHRA PRADESH,16.4851230,80.7757010
Andhra Pradesh Circle,Vijayawada Region,Vijayawada Division,Gudavalli B.O,521104,BO,Delivery,KRISHNA,ANDHRA PRADESH,16.5104550,80.7475480
Andhra Pradesh Circle,Vijayawada Region,Vijayawada Division,Velpuru B.O,521104,BO,Delivery,KRISHNA,ANDHRA PRADESH,16.4961650,80.7575080
Andhra Pradesh Circle,Vijayawada Region,Vijayawada Division,Ramakrishnapuram BO,520003,BO,Non Delivery,KRISHNA,ANDHRA PRADESH,16.4811120,80.6179580
Andhra Pradesh Circle,Vijayawada Region,Vijayawada Division,Sagguru B.O,521211,BO,Delivery,KRISHNA,ANDHRA PRADESH,16.6593910,80.8349030
Andhra Pradesh Circle,Vijayawada Region,Vijayawada Division,Seetharampuram B.O,521211,BO,Delivery,KRISHNA,ANDHRA PRADESH,16.7580400,80.7834040
Andhra Pradesh Circle,Vijayawada Region,Vijayawada Division,Zakkulanekkalam B.O,521102,BO,Delivery,KRISHNA,ANDHRA PRADESH,16.5385050,80.7461690
Andhra Pradesh Circle,Vijayawada Region,Vijayawada Division,Popuru B.O,521182,BO,Delivery,KRISHNA,ANDHRA PRADESH,16.6300000,80.2600000
Andhra Pradesh Circle,Vijayawada Region,Vijayawada Division,Vibharintapadu B.O,521182,BO,Delivery,KRISHNA,ANDHRA PRADESH,16.6443740,80.1937850
Andhra Pradesh Circle,Vijayawada Region,Vijayawada Division,Bobbellapadu B.O,521182,BO,Delivery,KRISHNA,ANDHRA PRADESH,16.7222500,80.2251220
Andhra Pradesh Circle,Vijayawada Region,Vijayawada Division,Kasarabad B.O,521182,BO,Delivery,KRISHNA,ANDHRA PRADESH,16.6725470,80.1595070
Andhra Pradesh Circle,Vijayawada Region,Vijayawada Division,Punnavalli B.O,521182,BO,Delivery,KRISHNA,ANDHRA PRADESH,16.6317090,80.2345760
Andhra Pradesh Circle,Vijayawada Region,Vijayawada Division,Mangollu B.O,521178,BO,Delivery,KRISHNA,ANDHRA PRADESH,16.9460640,80.1430530
Andhra Pradesh Circle,Vijayawada Region,Vijayawada Division,Pochampalli B.O,521178,BO,Delivery,KRISHNA,ANDHRA PRADESH,16.8300000,80.1900000
Andhra Pradesh Circle,Vijayawada Region,Vijayawada Division,Velagaleru B.O,521229,BO,Delivery,KRISHNA,ANDHRA PRADESH,16.6513670,80.6142600
Andhra Pradesh Circle,Vijayawada Region,Gudivada Division,Chinatummidi B.O,521329,BO,Delivery,KRISHNA,ANDHRA PRADESH,16.3800000,81.2300000
Andhra Pradesh Circle,Vijayawada Region,Gudivada Division,Korraguntapalem B.O,521329,BO,Delivery,KRISHNA,ANDHRA PRADESH,16.4500000,81.1800000
Andhra Pradesh Circle,Vijayawada Region,Gudivada Division,Pedatummidi B.O,521329,BO,Delivery,KRISHNA,ANDHRA PRADESH,16.4000000,81.2300000
Andhra Pradesh Circle,Vijayawada Region,Gudivada Division,Singarayapalem B.O,521329,BO,Delivery,KRISHNA,ANDHRA PRADESH,16.4100000,81.1500000
Andhra Pradesh Circle,Vijayawada Region,Gudivada Division,Addada B.O,521390,BO,Delivery,KRISHNA,ANDHRA PRADESH,16.3600000,80.9800000
Andhra Pradesh Circle,Vijayawada Region,Gudivada Division,Gunnanapudi B.O,521326,BO,Delivery,KRISHNA,ANDHRA PRADESH,16.4900000,81.1000000
Andhra Pradesh Circle,Vijayawada Region,Gudivada Division,Ingilipakalanka B.O,521326,BO,Delivery,KRISHNA,ANDHRA PRADESH,16.5470000,81.1260000
Andhra Pradesh Circle,Vijayawada Region,Gudivada Division,Nandigamalanka B.O,521326,BO,Delivery,KRISHNA,ANDHRA PRADESH,16.5700000,81.1300000
Andhra Pradesh Circle,Vijayawada Region,Gudivada Division,Dandiganapudi B.O,521327,BO,Delivery,KRISHNA,ANDHRA PRADESH,16.5100000,81.0400000
Andhra Pradesh Circle,Vijayawada Region,Gudivada Division,Lingavaram B.O,521327,BO,Delivery,KRISHNA,ANDHRA PRADESH,16.4600000,81.0000000
Andhra Pradesh Circle,Vijayawada Region,Gudivada Division,Polukonda B.O,521327,BO,Delivery,KRISHNA,ANDHRA PRADESH,16.5200000,81.0800000
Andhra Pradesh Circle,Vijayawada Region,Gudivada Division,Ponukumada B.O,521327,BO,Delivery,KRISHNA,ANDHRA PRADESH,16.5200000,81.0600000
Andhra Pradesh Circle,Vijayawada Region,Gudivada Division,Bhushanagulla B.O,521263,BO,Delivery,KRISHNA,ANDHRA PRADESH,16.4400000,80.9700000
Andhra Pradesh Circle,Vijayawada Region,Gudivada Division,Pedaparupudi B.O,521263,BO,Delivery,KRISHNA,ANDHRA PRADESH,16.4400000,80.9500000
Andhra Pradesh Circle,Vijayawada Region,Gudivada Division,Chinayerukapadu B.O,521322,BO,Delivery,KRISHNA,ANDHRA PRADESH,16.4100000,81.0000000
Andhra Pradesh Circle,Vijayawada Region,Gudivada Division,Komaravolu B.O,521322,BO,Delivery,KRISHNA,ANDHRA PRADESH,16.3700000,80.9800000
Andhra Pradesh Circle,Vijayawada Region,Gudivada Division,Tativarru B.O,521322,BO,Delivery,KRISHNA,ANDHRA PRADESH,16.3900000,80.9700000
Andhra Pradesh Circle,Vijayawada Region,Gudivada Division,Dosapadu B.O,521321,BO,Delivery,KRISHNA,ANDHRA PRADESH,16.4700000,80.9500000
Andhra Pradesh Circle,Vijayawada Region,Gudivada Division,Ilaparru B.O,521321,BO,Delivery,KRISHNA,ANDHRA PRADESH,16.5600000,81.0600000
Andhra Pradesh Circle,Vijayawada Region,Gudivada Division,Kudaravalli B.O,521321,BO,Delivery,KRISHNA,ANDHRA PRADESH,16.5600000,81.0300000
Andhra Pradesh Circle,Vijayawada Region,Gudivada Division,Atapaka B.O,521333,BO,Delivery,KRISHNA,ANDHRA PRADESH,16.5600000,81.2300000
Andhra Pradesh Circle,Vijayawada Region,Gudivada Division,Konduru B.O,521333,BO,Delivery,KRISHNA,ANDHRA PRADESH,16.7900000,80.2300000
Andhra Pradesh Circle,Vijayawada Region,Gudivada Division,Tadinada B.O,521333,BO,Delivery,KRISHNA,ANDHRA PRADESH,16.5477441,81.3235412
Andhra Pradesh Circle,Vijayawada Region,Gudivada Division,Varahapatnam B.O,521333,BO,Delivery,KRISHNA,ANDHRA PRADESH,16.5400000,81.2500000
Andhra Pradesh Circle,Vijayawada Region,Gudivada Division,Kondangi B.O,521344,BO,Delivery,KRISHNA,ANDHRA PRADESH,16.5000000,81.3400000
Andhra Pradesh Circle,Vijayawada Region,Gudivada Division,Lodidalanka B.O,521344,BO,Delivery,KRISHNA,ANDHRA PRADESH,16.4600000,81.3000000
Andhra Pradesh Circle,Vijayawada Region,Gudivada Division,Alluru B.O,521343,BO,Delivery,KRISHNA,ANDHRA PRADESH,16.4500000,81.2200000
Andhra Pradesh Circle,Vijayawada Region,Gudivada Division,Korlapadu B.O,521345,BO,Delivery,KRISHNA,ANDHRA PRADESH,16.4900000,81.1600000
Andhra Pradesh Circle,Vijayawada Region,Gudivada Division,Mokasakalvapudi B.O,521345,BO,Delivery,KRISHNA,ANDHRA PRADESH,16.4900000,81.1400000
Andhra Pradesh Circle,Vijayawada Region,Gudivada Division,Prathipadu B.O,521345,BO,Delivery,KRISHNA,ANDHRA PRADESH,16.5400000,81.1700000
Andhra Pradesh Circle,Vijayawada Region,Gudivada Division,Vadali B.O,521325,BO,Delivery,KRISHNA,ANDHRA PRADESH,16.4300000,81.1300000
Andhra Pradesh Circle,Vijayawada Region,Gudivada Division,Vanapumala B.O,521263,BO,Delivery,KRISHNA,ANDHRA PRADESH,16.4400000,80.9300000
Andhra Pradesh Circle,Vijayawada Region,Gudivada Division,Boruvancha B.O,521202,BO,Delivery,KRISHNA,ANDHRA PRADESH,16.7600000,80.8400000
Andhra Pradesh Circle,Vijayawada Region,Vijayawada Division,Ganapavaram B.O,521230,BO,Delivery,KRISHNA,ANDHRA PRADESH,16.7394600,80.6892060
Andhra Pradesh Circle,Vijayawada Region,Vijayawada Division,Tolukodu B.O,521230,BO,Delivery,KRISHNA,ANDHRA PRADESH,16.8352360,80.6361260
Andhra Pradesh Circle,Vijayawada Region,Vijayawada Division,Gollamudi B.O,521184,BO,Delivery,KRISHNA,ANDHRA PRADESH,16.7827390,80.3514820
Andhra Pradesh Circle,Vijayawada Region,Gudivada Division,Enamadala B.O,521202,BO,Delivery,KRISHNA,ANDHRA PRADESH,16.7900000,80.8000000
Andhra Pradesh Circle,Vijayawada Region,Gudivada Division,Nidamarru B.O,521324,BO,Delivery,KRISHNA,ANDHRA PRADESH,16.3600000,81.4300000
Andhra Pradesh Circle,Vijayawada Region,Gudivada Division,Pendurru B.O,521324,BO,Delivery,KRISHNA,ANDHRA PRADESH,16.3800000,81.2900000
Andhra Pradesh Circle,Vijayawada Region,Gudivada Division,Chinaparupudi B.O,521148,BO,Delivery,KRISHNA,ANDHRA PRADESH,16.3900000,80.9200000
Andhra Pradesh Circle,Vijayawada Region,Gudivada Division,Gandhi Asramam B.O,521322,BO,Delivery,KRISHNA,ANDHRA PRADESH,16.3800000,81.0000000
Andhra Pradesh Circle,Vijayawada Region,Gudivada Division,Moparru B.O,521321,BO,Delivery,KRISHNA,ANDHRA PRADESH,16.4900000,80.9400000
Andhra Pradesh Circle,Vijayawada Region,Gudivada Division,Pedavirivada B.O,521321,BO,Delivery,KRISHNA,ANDHRA PRADESH,16.5395000,81.0400000
Andhra Pradesh Circle,Vijayawada Region,Gudivada Division,Chavalipadu B.O,521333,BO,Delivery,KRISHNA,ANDHRA PRADESH,16.5500000,81.1900000
Andhra Pradesh Circle,Vijayawada Region,Gudivada Division,Gopavaram B.O,521333,BO,Delivery,KRISHNA,ANDHRA PRADESH,16.8200000,80.9700000
Andhra Pradesh Circle,Vijayawada Region,Gudivada Division,Kallapalem B.O,521333,BO,Delivery,KRISHNA,ANDHRA PRADESH,16.5300000,81.2700000
Andhra Pradesh Circle,Vijayawada Region,Gudivada Division,China Tadinada B.O,521333,BO,Delivery,KRISHNA,ANDHRA PRADESH,16.5031483,81.2876611
Andhra Pradesh Circle,Vijayawada Region,Gudivada Division,Pothumarru B.O,521344,BO,Delivery,KRISHNA,ANDHRA PRADESH,16.5300000,81.3100000
Andhra Pradesh Circle,Vijayawada Region,Gudivada Division,Devapudi B.O,521343,BO,Delivery,KRISHNA,ANDHRA PRADESH,16.4500000,81.2100000
Andhra Pradesh Circle,Vijayawada Region,Gudivada Division,Sanarudravaram B.O,521343,BO,Delivery,KRISHNA,ANDHRA PRADESH,16.5000000,81.2600000
Andhra Pradesh Circle,Vijayawada Region,Gudivada Division,Ayyavarirudravaram B.O,521345,BO,Delivery,KRISHNA,ANDHRA PRADESH,16.5100000,81.1800000
Andhra Pradesh Circle,Vijayawada Region,Gudivada Division,Perekegudem B.O,521345,BO,Delivery,KRISHNA,ANDHRA PRADESH,16.4900000,81.1500000
Andhra Pradesh Circle,Vijayawada Region,Gudivada Division,Dondapadu B.O,521323,BO,Delivery,KRISHNA,ANDHRA PRADESH,16.4600000,81.0300000
Andhra Pradesh Circle,Vijayawada Region,Gudivada Division,Serigolvepalli B.O,521323,BO,Delivery,KRISHNA,ANDHRA PRADESH,16.4800000,81.0700000
Andhra Pradesh Circle,Vijayawada Region,Gudivada Division,Chinapalaparru B.O,521325,BO,Delivery,KRISHNA,ANDHRA PRADESH,16.4300000,81.0900000
Andhra Pradesh Circle,Vijayawada Region,Gudivada Division,K.P.Agraharam B.O,521325,BO,Delivery,KRISHNA,ANDHRA PRADESH,16.4400000,81.0800000
Andhra Pradesh Circle,Vijayawada Region,Gudivada Division,Sankarshanapuram B.O,521325,BO,Delivery,KRISHNA,ANDHRA PRADESH,16.3900000,81.0900000
Andhra Pradesh Circle,Vijayawada Region,Gudivada Division,Vinnakota B.O,521325,BO,Delivery,KRISHNA,ANDHRA PRADESH,16.3700000,81.0900000
Andhra Pradesh Circle,Vijayawada Region,Gudivada Division,Appikatla B.O,521261,BO,Delivery,KRISHNA,ANDHRA PRADESH,16.4100000,80.9200000
Andhra Pradesh Circle,Vijayawada Region,Gudivada Division,Alapadu R.S. B.O,521340,BO,Delivery,KRISHNA,ANDHRA PRADESH,16.5800000,81.3200000
Andhra Pradesh Circle,Vijayawada Region,Gudivada Division,Doddipatla B.O,521340,BO,Delivery,KRISHNA,ANDHRA PRADESH,16.5600000,81.2900000
Andhra Pradesh Circle,Vijayawada Region,Gudivada Division,Utukuru B.O,521329,BO,Delivery,KRISHNA,ANDHRA PRADESH,17.0200000,80.4300000
Andhra Pradesh Circle,Vijayawada Region,Gudivada Division,Vaivaka B.O,521329,BO,Delivery,KRISHNA,ANDHRA PRADESH,16.4300000,81.2500000
Andhra Pradesh Circle,Vijayawada Region,Gudivada Division,Vanudurru B.O,521329,BO,Delivery,KRISHNA,ANDHRA PRADESH,16.4300000,81.2000000
Andhra Pradesh Circle,Vijayawada Region,Vijayawada Division,Jonnalagadda B.O,521184,BO,Delivery,KRISHNA,ANDHRA PRADESH,16.7367650,80.3026850
Andhra Pradesh Circle,Vijayawada Region,Vijayawada Division,Kanchala B.O,521185,BO,Delivery,KRISHNA,ANDHRA PRADESH,16.7032260,80.2976700
Andhra Pradesh Circle,Vijayawada Region,Vijayawada Division,Kethaveerunipadu B.O,521185,BO,Delivery,KRISHNA,ANDHRA PRADESH,16.7031310,80.2921400
Andhra Pradesh Circle,Vijayawada Region,Vijayawada Division,Pendyala B.O,521185,BO,Delivery,KRISHNA,ANDHRA PRADESH,16.6976360,80.3126050
Andhra Pradesh Circle,Vijayawada Region,Vijayawada Division,Adavinekkalam B.O,521212,BO,Delivery,KRISHNA,ANDHRA PRADESH,16.6321750,80.7226190
Andhra Pradesh Circle,Vijayawada Region,Vijayawada Division,Pathapadu B.O,521212,BO,Delivery,KRISHNA,ANDHRA PRADESH,16.5774550,80.8661520
Andhra Pradesh Circle,Vijayawada Region,Vijayawada Division,Surampalli B.O,521212,BO,Delivery,KRISHNA,ANDHRA PRADESH,16.5937800,80.7221470
Andhra Pradesh Circle,Vijayawada Region,Vijayawada Division,Atkur B.O,521286,BO,Delivery,KRISHNA,ANDHRA PRADESH,16.5648690,80.8529340
Andhra Pradesh Circle,Vijayawada Region,Vijayawada Division,Pottipadu B.O,521286,BO,Delivery,KRISHNA,ANDHRA PRADESH,16.5774550,80.8661520
Andhra Pradesh Circle,Vijayawada Region,Vijayawada Division,Veerapanenigudem B.O,521286,BO,Delivery,KRISHNA,ANDHRA PRADESH,16.6026280,80.8246730
Andhra Pradesh Circle,Vijayawada Region,Vijayawada Division,Sivapuram B.O,521190,BO,Delivery,KRISHNA,ANDHRA PRADESH,16.9049780,80.3199800
Andhra Pradesh Circle,Vijayawada Region,Vijayawada Division,Vemavaram B.O,521190,BO,Delivery,KRISHNA,ANDHRA PRADESH,16.9254250,80.2676230
Andhra Pradesh Circle,Vijayawada Region,Vijayawada Division,Kannevidu B.O,521190,BO,Delivery,KRISHNA,ANDHRA PRADESH,16.9606410,80.1908110
Andhra Pradesh Circle,Vijayawada Region,Vijayawada Division,Makkapeta B.O,521190,BO,Delivery,KRISHNA,ANDHRA PRADESH,16.9216050,80.1894740
Andhra Pradesh Circle,Vijayawada Region,Vijayawada Division,Mundlapadu B.O,521190,BO,Delivery,KRISHNA,ANDHRA PRADESH,16.8586720,80.2335400
Andhra Pradesh Circle,Vijayawada Region,Vijayawada Division,Subbayyagudem B.O,521190,BO,Delivery,KRISHNA,ANDHRA PRADESH,16.8712390,80.2628090
Andhra Pradesh Circle,Vijayawada Region,Vijayawada Division,Rayanapadu B.O,521241,BO,Delivery,KRISHNA,ANDHRA PRADESH,16.5713470,80.5686260
Andhra Pradesh Circle,Vijayawada Region,Vijayawada Division,Paidurupadu B.O,521241,BO,Delivery,KRISHNA,ANDHRA PRADESH,16.6016940,80.5789260
Andhra Pradesh Circle,Vijayawada Region,Vijayawada Division,Chagantipadu B.O,521163,BO,Delivery,KRISHNA,ANDHRA PRADESH,16.3217060,80.8059380
Andhra Pradesh Circle,Vijayawada Region,Vijayawada Division,Khambampadu B.O,521402,BO,Delivery,KRISHNA,ANDHRA PRADESH,16.9476770,80.2460800
Andhra Pradesh Circle,Vijayawada Region,Vijayawada Division,Pentalavarigudem B.O,521402,BO,Delivery,KRISHNA,ANDHRA PRADESH,16.9969320,80.2130750
Andhra Pradesh Circle,Vijayawada Region,Vijayawada Division,Chowtapalli B.O,521170,BO,Delivery,KRISHNA,ANDHRA PRADESH,16.7966220,80.4109080
Andhra Pradesh Circle,Vijayawada Region,Vijayawada Division,Doddadevarapadu B.O,521170,BO,Delivery,KRISHNA,ANDHRA PRADESH,16.8409020,80.4176190
Andhra Pradesh Circle,Vijayawada Region,Vijayawada Division,Konathamatmakur B.O,521170,BO,Delivery,KRISHNA,ANDHRA PRADESH,16.8532240,80.3613080
Andhra Pradesh Circle,Vijayawada Region,Vijayawada Division,Agniparru B.O,521250,BO,Delivery,KRISHNA,ANDHRA PRADESH,16.2702780,80.8844920
Andhra Pradesh Circle,Vijayawada Region,Vijayawada Division,Aminapuram B.O,521250,BO,Delivery,KRISHNA,ANDHRA PRADESH,16.3082840,80.8467020
Andhra Pradesh Circle,Vijayawada Region,Vijayawada Division,Gandigunta B.O,521165,BO,Delivery,KRISHNA,ANDHRA PRADESH,16.3779140,80.8386720
Andhra Pradesh Circle,Vijayawada Region,Vijayawada Division,Kanakavalli B.O,521165,BO,Delivery,KRISHNA,ANDHRA PRADESH,16.3364280,80.8276390
Andhra Pradesh Circle,Vijayawada Region,Vijayawada Division,Yanamalakuduru B.O,520007,BO,Delivery,KRISHNA,ANDHRA PRADESH,16.4804320,80.6734320
Andhra Pradesh Circle,Vijayawada Region,Vijayawada Division,Cheemalapadu B.O,521226,BO,Delivery,KRISHNA,ANDHRA PRADESH,16.8950470,80.6426520
Andhra Pradesh Circle,Vijayawada Region,Vijayawada Division,Kunderu B.O,521245,BO,Delivery,KRISHNA,ANDHRA PRADESH,16.4188480,80.8282510
Andhra Pradesh Circle,Vijayawada Region,Vijayawada Division,Chopparametla B.O,521211,BO,Delivery,KRISHNA,ANDHRA PRADESH,16.6797010,80.8151190
Andhra Pradesh Circle,Vijayawada Region,Vijayawada Division,Narasingapalem B.O,521211,BO,Delivery,KRISHNA,ANDHRA PRADESH,16.6532240,80.8006560
Andhra Pradesh Circle,Vijayawada Region,Vijayawada Division,Thotapalli B.O,521211,BO,Delivery,KRISHNA,ANDHRA PRADESH,16.6423700,80.7707870
Andhra Pradesh Circle,Vijayawada Region,Vijayawada Division,Kesarapalli B.O,521102,BO,Delivery,KRISHNA,ANDHRA PRADESH,16.5236190,80.7754270
Andhra Pradesh Circle,Vijayawada Region,Vijayawada Division,Konayapalem B.O,521182,BO,Delivery,KRISHNA,ANDHRA PRADESH,16.7567450,80.2265150
Andhra Pradesh Circle,Vijayawada Region,Vijayawada Division,Veladikothapalem B.O,521182,BO,Delivery,KRISHNA,ANDHRA PRADESH,16.6429320,80.2312380
Andhra Pradesh Circle,Vijayawada Region,Vijayawada Division,Gudimetla B.O,521182,BO,Delivery,KRISHNA,ANDHRA PRADESH,16.7371510,80.1764780
Andhra Pradesh Circle,Vijayawada Region,Vijayawada Division,Kodavatikallu B.O,521182,BO,Delivery,KRISHNA,ANDHRA PRADESH,16.6443360,80.1939330
Andhra Pradesh Circle,Vijayawada Region,Vijayawada Division,Peda Modugapalli B.O,521178,BO,Delivery,KRISHNA,ANDHRA PRADESH,16.9505540,80.1871230
Andhra Pradesh Circle,Vijayawada Region,Vijayawada Division,Tirumalagiri B.O,521178,BO,Delivery,KRISHNA,ANDHRA PRADESH,16.9200050,80.1385240
Andhra Pradesh Circle,Vijayawada Region,Vijayawada Division,Cheruvu Madhavaram B.O,521229,BO,Delivery,KRISHNA,ANDHRA PRADESH,16.6927240,80.5479660
Andhra Pradesh Circle,Vijayawada Region,Vijayawada Division,H Mutyalampadu B.O,521229,BO,Delivery,KRISHNA,ANDHRA PRADESH,16.8952340,80.6235640
Andhra Pradesh Circle,Vijayawada Region,Vijayawada Division,Gandepalli B.O,521185,BO,Delivery,KRISHNA,ANDHRA PRADESH,16.7281750,80.3334190
Andhra Pradesh Circle,Vijayawada Region,Vijayawada Division,Ithavaram B.O,521185,BO,Delivery,KRISHNA,ANDHRA PRADESH,16.7369290,80.3029060
Andhra Pradesh Circle,Vijayawada Region,Vijayawada Division,Pallagiri B.O,521184,BO,Delivery,KRISHNA,ANDHRA PRADESH,16.7820150,80.3345760
Andhra Pradesh Circle,Vijayawada Region,Vijayawada Division,Raghavapuram B.O,521184,BO,Delivery,KRISHNA,ANDHRA PRADESH,16.7632650,80.3195800
Andhra Pradesh Circle,Vijayawada Region,Vijayawada Division,Kanasanapalli B.O,521212,BO,Delivery,KRISHNA,ANDHRA PRADESH,16.6376730,80.7471060
Andhra Pradesh Circle,Vijayawada Region,Vijayawada Division,Lingagudem B.O,521190,BO,Delivery,KRISHNA,ANDHRA PRADESH,16.9010360,80.2168110
Andhra Pradesh Circle,Vijayawada Region,Vijayawada Division,Muchintala B.O,521190,BO,Delivery,KRISHNA,ANDHRA PRADESH,16.9106440,80.2658210
Andhra Pradesh Circle,Vijayawada Region,Vijayawada Division,Guntupalli B.O,521241,BO,Delivery,KRISHNA,ANDHRA PRADESH,16.5689500,80.5476700
Andhra Pradesh Circle,Vijayawada Region,Vijayawada Division,Dabbakupalli B.O,521402,BO,Delivery,KRISHNA,ANDHRA PRADESH,16.9946970,80.2303320
Andhra Pradesh Circle,Vijayawada Region,Gudivada Division,Unikili B.O,521326,BO,Delivery,KRISHNA,ANDHRA PRADESH,16.5300000,81.1100000
Andhra Pradesh Circle,Vijayawada Region,Gudivada Division,Anamanapudi B.O,521327,BO,Delivery,KRISHNA,ANDHRA PRADESH,16.5100000,81.0700000
Andhra Pradesh Circle,Vijayawada Region,Gudivada Division,Valivarthipadu B.O,521327,BO,Delivery,KRISHNA,ANDHRA PRADESH,16.4600000,81.0200000
Andhra Pradesh Circle,Vijayawada Region,Machilipatnam Division,Pagolu B.O,521126,BO,Delivery,KRISHNA,ANDHRA PRADESH,NA,NA
Andhra Pradesh Circle,Vijayawada Region,Machilipatnam Division,Yarlagadda B.O,521126,BO,Delivery,KRISHNA,ANDHRA PRADESH,NA,NA
Andhra Pradesh Circle,Vijayawada Region,Machilipatnam Division,Bandlaicheruvu B.O,521122,BO,Delivery,KRISHNA,ANDHRA PRADESH,NA,NA
Andhra Pradesh Circle,Vijayawada Region,Machilipatnam Division,Kothapet(Divi) B.O,521122,BO,Delivery,KRISHNA,ANDHRA PRADESH,NA,NA
Andhra Pradesh Circle,Vijayawada Region,Machilipatnam Division,Aswaraopalem B.O,521122,BO,Delivery,KRISHNA,ANDHRA PRADESH,NA,NA
Andhra Pradesh Circle,Vijayawada Region,Vijayawada Division,Kakaravai B.O,521402,BO,Delivery,KRISHNA,ANDHRA PRADESH,16.9638420,80.3035550
Andhra Pradesh Circle,Vijayawada Region,Vijayawada Division,Lingala B.O,521402,BO,Delivery,KRISHNA,ANDHRA PRADESH,16.9539850,80.2201530
Andhra Pradesh Circle,Vijayawada Region,Vijayawada Division,Polampalli B.O,521402,BO,Delivery,KRISHNA,ANDHRA PRADESH,16.8118090,80.3804390
Andhra Pradesh Circle,Vijayawada Region,Vijayawada Division,Damulur B.O,521170,BO,Delivery,KRISHNA,ANDHRA PRADESH,16.8252940,80.3704920
Andhra Pradesh Circle,Vijayawada Region,Vijayawada Division,Jayanthi B.O,521170,BO,Delivery,KRISHNA,ANDHRA PRADESH,16.8207180,80.4392700
Andhra Pradesh Circle,Vijayawada Region,Vijayawada Division,Penumatcha B.O,521250,BO,Delivery,KRISHNA,ANDHRA PRADESH,16.2457110,80.8830970
Andhra Pradesh Circle,Vijayawada Region,Vijayawada Division,Chilukuru B.O,521456,BO,Delivery,KRISHNA,ANDHRA PRADESH,16.6238260,80.4351360
Andhra Pradesh Circle,Vijayawada Region,Vijayawada Division,Mulapadu B.O,521456,BO,Delivery,KRISHNA,ANDHRA PRADESH,16.6089960,80.4694580
Andhra Pradesh Circle,Vijayawada Region,Vijayawada Division,Penamakuru B.O,521165,BO,Delivery,KRISHNA,ANDHRA PRADESH,16.3246160,80.8272910
Andhra Pradesh Circle,Vijayawada Region,Vijayawada Division,Nawabpet B.O,521185,BO,Delivery,KRISHNA,ANDHRA PRADESH,16.8206590,80.2314040
Andhra Pradesh Circle,Vijayawada Region,Vijayawada Division,Kammavaripalem B.O,521184,BO,Delivery,KRISHNA,ANDHRA PRADESH,16.7675020,80.3305690
Andhra Pradesh Circle,Vijayawada Region,Vijayawada Division,Lingalapadu B.O,521185,BO,Delivery,KRISHNA,ANDHRA PRADESH,16.7659600,80.2392780
Andhra Pradesh Circle,Vijayawada Region,Vijayawada Division,Tempalli B.O,521286,BO,Delivery,KRISHNA,ANDHRA PRADESH,16.5902470,80.8304460
Andhra Pradesh Circle,Vijayawada Region,Vijayawada Division,Anigandlapadu B.O,521190,BO,Delivery,KRISHNA,ANDHRA PRADESH,16.8911780,80.2867150
Andhra Pradesh Circle,Vijayawada Region,Vijayawada Division,Gopinenipalem B.O,521190,BO,Delivery,KRISHNA,ANDHRA PRADESH,16.9355590,80.1715860
Andhra Pradesh Circle,Vijayawada Region,Vijayawada Division,Gummadidurru B.O,521190,BO,Delivery,KRISHNA,ANDHRA PRADESH,16.8413400,80.2646410
Andhra Pradesh Circle,Vijayawada Region,Vijayawada Division,Devarapalli B.O,521163,BO,Delivery,KRISHNA,ANDHRA PRADESH,16.2977020,80.8215210
Andhra Pradesh Circle,Vijayawada Region,Vijayawada Division,Pamulalanka B.O,521163,BO,Delivery,KRISHNA,ANDHRA PRADESH,16.3309670,80.7730430
Andhra Pradesh Circle,Vijayawada Region,Vijayawada Division,Valluripalem B.O,521163,BO,Delivery,KRISHNA,ANDHRA PRADESH,16.3719000,80.7695160
Andhra Pradesh Circle,Vijayawada Region,Vijayawada Division,Machinenipalem B.O,521402,BO,Delivery,KRISHNA,ANDHRA PRADESH,16.9466590,80.3115680
Andhra Pradesh Circle,Vijayawada Region,Vijayawada Division,Talluru B.O,521402,BO,Delivery,KRISHNA,ANDHRA PRADESH,16.9248350,80.3089140
Andhra Pradesh Circle,Vijayawada Region,Vijayawada Division,Yakamuru B.O,521165,BO,Delivery,KRISHNA,ANDHRA PRADESH,16.3611150,80.8297450
Andhra Pradesh Circle,Vijayawada Region,Vijayawada Division,Kuntamukkala B.O,521230,BO,Delivery,KRISHNA,ANDHRA PRADESH,16.7165940,80.6350840
Andhra Pradesh Circle,Vijayawada Region,Vijayawada Division,Munagacherla B.O,521185,BO,Delivery,KRISHNA,ANDHRA PRADESH,16.7626390,80.2391120
Andhra Pradesh Circle,Vijayawada Region,Vijayawada Division,Chikkavaram B.O,521101,BO,Delivery,KRISHNA,ANDHRA PRADESH,16.6193210,80.7935080
Andhra Pradesh Circle,Vijayawada Region,Vijayawada Division,Gollanapalli B.O,521101,BO,Delivery,KRISHNA,ANDHRA PRADESH,16.6154850,80.7734510
Andhra Pradesh Circle,Vijayawada Region,Gudivada Division,Pandraka B.O,521324,BO,Delivery,KRISHNA,ANDHRA PRADESH,16.3500000,81.2800000
Andhra Pradesh Circle,Vijayawada Region,Gudivada Division,Edulamaddali B.O,521148,BO,Delivery,KRISHNA,ANDHRA PRADESH,16.4000000,80.9400000
Andhra Pradesh Circle,Vijayawada Region,Gudivada Division,Lakshminarasimhapuram B.O,521321,BO,Delivery,KRISHNA,ANDHRA PRADESH,16.5700000,81.0800000
Andhra Pradesh Circle,Vijayawada Region,Gudivada Division,Nandivada B.O,521321,BO,Delivery,KRISHNA,ANDHRA PRADESH,16.5000000,80.9900000
Andhra Pradesh Circle,Vijayawada Region,Gudivada Division,Vennanapudi B.O,521321,BO,Delivery,KRISHNA,ANDHRA PRADESH,16.5200000,18.0100000
Andhra Pradesh Circle,Vijayawada Region,Gudivada Division,Chintapadu B.O,521333,BO,Delivery,KRISHNA,ANDHRA PRADESH,16.5900000,81.1900000
Andhra Pradesh Circle,Vijayawada Region,Gudivada Division,Vinjaram B.O,521333,BO,Delivery,KRISHNA,ANDHRA PRADESH,16.5200000,81.2100000
Andhra Pradesh Circle,Vijayawada Region,Gudivada Division,Mattagunta B.O,521344,BO,Delivery,KRISHNA,ANDHRA PRADESH,16.4700000,81.3700000
Andhra Pradesh Circle,Vijayawada Region,Gudivada Division,Pedalanka B.O,521344,BO,Delivery,KRISHNA,ANDHRA PRADESH,16.4400000,81.3800000
Andhra Pradesh Circle,Vijayawada Region,Gudivada Division,Venkatapuram B.O,521344,BO,Delivery,KRISHNA,ANDHRA PRADESH,16.5200000,81.2700000
Andhra Pradesh Circle,Vijayawada Region,Gudivada Division,Bomminampadu B.O,521343,BO,Delivery,KRISHNA,ANDHRA PRADESH,16.4700000,81.2000000
Andhra Pradesh Circle,Vijayawada Region,Gudivada Division,Prodduvaka B.O,521343,BO,Delivery,KRISHNA,ANDHRA PRADESH,16.4600000,81.2200000
Andhra Pradesh Circle,Vijayawada Region,Gudivada Division,Bhyravapatnam B.O,521345,BO,Delivery,KRISHNA,ANDHRA PRADESH,16.5400000,81.1800000
Andhra Pradesh Circle,Vijayawada Region,Gudivada Division,Gannavaram B.O,521345,BO,Delivery,KRISHNA,ANDHRA PRADESH,16.5000000,81.1400000
Andhra Pradesh Circle,Vijayawada Region,Gudivada Division,Singanapudi B.O,521345,BO,Delivery,KRISHNA,ANDHRA PRADESH,16.5050000,81.1200000
Andhra Pradesh Circle,Vijayawada Region,Gudivada Division,Takkellapadu B.O,521345,BO,Delivery,KRISHNA,ANDHRA PRADESH,16.9600000,80.0600000
Andhra Pradesh Circle,Vijayawada Region,Gudivada Division,Guntakoduru B.O,521323,BO,Delivery,KRISHNA,ANDHRA PRADESH,16.4600000,81.0800000
Andhra Pradesh Circle,Vijayawada Region,Gudivada Division,Pedapalaparru B.O,521323,BO,Delivery,KRISHNA,ANDHRA PRADESH,16.4300000,81.0500000
Andhra Pradesh Circle,Vijayawada Region,Gudivada Division,Guraza B.O,521325,BO,Delivery,KRISHNA,ANDHRA PRADESH,16.4000000,81.1100000
Andhra Pradesh Circle,Vijayawada Region,Gudivada Division,Kanukollu B.O,521325,BO,Delivery,KRISHNA,ANDHRA PRADESH,16.4600000,81.1300000
Andhra Pradesh Circle,Vijayawada Region,Gudivada Division,Peruru B.O,521325,BO,Delivery,KRISHNA,ANDHRA PRADESH,16.4600000,81.1100000
Andhra Pradesh Circle,Vijayawada Region,Gudivada Division,Peyyeru B.O,521325,BO,Delivery,KRISHNA,ANDHRA PRADESH,16.4300000,81.1188000
Andhra Pradesh Circle,Vijayawada Region,Gudivada Division,Bollapadu B.O,521261,BO,Delivery,KRISHNA,ANDHRA PRADESH,16.4100000,80.8800000
Andhra Pradesh Circle,Vijayawada Region,Gudivada Division,Bhujabalapatnam B.O,521340,BO,Delivery,KRISHNA,ANDHRA PRADESH,16.5800000,81.2700000
Andhra Pradesh Circle,Vijayawada Region,Gudivada Division,Kolletikota B.O,521340,BO,Delivery,KRISHNA,ANDHRA PRADESH,16.6300000,81.2900000
Andhra Pradesh Circle,Vijayawada Region,Gudivada Division,Chevuru B.O,521329,BO,Delivery,KRISHNA,ANDHRA PRADESH,16.3900000,81.1400000
Andhra Pradesh Circle,Vijayawada Region,Vijayawada Division,Gopavarapugudem B.O,521101,BO,Delivery,KRISHNA,ANDHRA PRADESH,16.6096460,80.7624640
Andhra Pradesh Circle,Vijayawada Region,Vijayawada Division,Budhavaram B.O,521101,BO,Delivery,KRISHNA,ANDHRA PRADESH,16.5280470,80.8082760
Andhra Pradesh Circle,Vijayawada Region,Vijayawada Division,Budavada B.O,521175,BO,Delivery,KRISHNA,ANDHRA PRADESH,16.8738560,80.0239110
Andhra Pradesh Circle,Vijayawada Region,Vijayawada Division,Jami Annavaram B.O,521175,BO,Delivery,KRISHNA,ANDHRA PRADESH,80.0362530,80.0362530
Andhra Pradesh Circle,Vijayawada Region,Vijayawada Division,Alluru B.O,521181,BO,Delivery,KRISHNA,ANDHRA PRADESH,16.7695070,80.4405730
Andhra Pradesh Circle,Vijayawada Region,Vijayawada Division,Dachavaram B.O,521181,BO,Delivery,KRISHNA,ANDHRA PRADESH,16.9856450,80.7526980
Andhra Pradesh Circle,Vijayawada Region,Vijayawada Division,Ambapuram B.O,520012,BO,Delivery,KRISHNA,ANDHRA PRADESH,16.5986320,80.6235680
Andhra Pradesh Circle,Vijayawada Region,Vijayawada Division,Tadepalli B.O,520012,BO,Delivery,KRISHNA,ANDHRA PRADESH,16.5328970,80.6589240
Andhra Pradesh Circle,Vijayawada Region,Vijayawada Division,Kadavakollu B.O,521164,BO,Delivery,KRISHNA,ANDHRA PRADESH,16.4145670,80.8454930
Andhra Pradesh Circle,Vijayawada Region,Vijayawada Division,Polisettipadu B.O,521227,BO,Delivery,KRISHNA,ANDHRA PRADESH,17.0314330,80.6328880
Andhra Pradesh Circle,Vijayawada Region,Gudivada Division,Urivi B.O,521329,BO,Delivery,KRISHNA,ANDHRA PRADESH,16.3700000,81.1800000
Andhra Pradesh Circle,Vijayawada Region,Gudivada Division,Vadavalli B.O,521329,BO,Delivery,KRISHNA,ANDHRA PRADESH,16.4000000,81.1900000
Andhra Pradesh Circle,Vijayawada Region,Gudivada Division,Putlacheruvu B.O,521326,BO,Delivery,KRISHNA,ANDHRA PRADESH,16.4900000,81.1100000
Andhra Pradesh Circle,Vijayawada Region,Gudivada Division,Guruvindagunta B.O,521263,BO,Delivery,KRISHNA,ANDHRA PRADESH,16.4400000,80.9600000
Andhra Pradesh Circle,Vijayawada Region,Gudivada Division,Hanumanthunigudem B.O,521202,BO,Delivery,KRISHNA,ANDHRA PRADESH,16.8600000,80.8400000
Andhra Pradesh Circle,Vijayawada Region,Vijayawada Division,Ganugapadu B.O,521227,BO,Delivery,KRISHNA,ANDHRA PRADESH,16.9638580,80.6414720
Andhra Pradesh Circle,Vijayawada Region,Vijayawada Division,Vemireddipalle B.O,521227,BO,Delivery,KRISHNA,ANDHRA PRADESH,17.0652570,80.7317730
Andhra Pradesh Circle,Vijayawada Region,Vijayawada Division,Ida Kondaplli B.O,521228,BO,Delivery,KRISHNA,ANDHRA PRADESH,16.6210490,80.5413040
Andhra Pradesh Circle,Vijayawada Region,Vijayawada Division,Muktyala B.O,521457,BO,Delivery,KRISHNA,ANDHRA PRADESH,16.8238590,80.0738420
Andhra Pradesh Circle,Vijayawada Region,Vijayawada Division,Marrivada B.O,521256,BO,Delivery,KRISHNA,ANDHRA PRADESH,16.3634830,80.8785300
Andhra Pradesh Circle,Vijayawada Region,Vijayawada Division,Gopuvanipalem B.O,521256,BO,Delivery,KRISHNA,ANDHRA PRADESH,16.3561330,80.8956750
Andhra Pradesh Circle,Vijayawada Region,Vijayawada Division,Tadanki B.O,521256,BO,Delivery,KRISHNA,ANDHRA PRADESH,16.3562760,80.8952310
Andhra Pradesh Circle,Vijayawada Region,Vijayawada Division,Kuderu B.O,521247,BO,Delivery,KRISHNA,ANDHRA PRADESH,16.2547150,80.8450670
Andhra Pradesh Circle,Vijayawada Region,Vijayawada Division,Velvdam B.O,521230,BO,Delivery,KRISHNA,ANDHRA PRADESH,16.7625440,80.6630070
Andhra Pradesh Circle,Vijayawada Region,Vijayawada Division,Boddapadu B.O,521151,BO,Delivery,KRISHNA,ANDHRA PRADESH,16.3977320,80.7729530
Andhra Pradesh Circle,Vijayawada Region,Vijayawada Division,Madduru B.O,521151,BO,Delivery,KRISHNA,ANDHRA PRADESH,16.4032970,80.7281510
Andhra Pradesh Circle,Vijayawada Region,Vijayawada Division,Gosala B.O,521151,BO,Delivery,KRISHNA,ANDHRA PRADESH,16.4784000,80.1456800
Andhra Pradesh Circle,Vijayawada Region,Vijayawada Division,Chodavaram B.O,521139,BO,Delivery,KRISHNA,ANDHRA PRADESH,16.4310840,80.6989290
Andhra Pradesh Circle,Vijayawada Region,Vijayawada Division,Ganguru B.O,521139,BO,Delivery,KRISHNA,ANDHRA PRADESH,16.4749580,80.7405570
Andhra Pradesh Circle,Vijayawada Region,Vijayawada Division,Nepalli B.O,521245,BO,Delivery,KRISHNA,ANDHRA PRADESH,16.4107380,80.8043900
Andhra Pradesh Circle,Vijayawada Region,Vijayawada Division,Pedaogirala B.O,521245,BO,Delivery,KRISHNA,ANDHRA PRADESH,16.3879300,80.8084240
Andhra Pradesh Circle,Vijayawada Region,Vijayawada Division,Edara B.O,521211,BO,Delivery,KRISHNA,ANDHRA PRADESH,16.7271350,80.7523760
Andhra Pradesh Circle,Vijayawada Region,Vijayawada Division,Idulagudem B.O,521211,BO,Delivery,KRISHNA,ANDHRA PRADESH,16.6880870,80.8401810
Andhra Pradesh Circle,Vijayawada Region,Vijayawada Division,Krishnavaram B.O,521211,BO,Delivery,KRISHNA,ANDHRA PRADESH,16.6599670,80.8554160
Andhra Pradesh Circle,Vijayawada Region,Vijayawada Division,Nugondapalli B.O,521211,BO,Delivery,KRISHNA,ANDHRA PRADESH,16.6732050,80.7624610
Andhra Pradesh Circle,Vijayawada Region,Vijayawada Division,Sobhanapuram B.O,521211,BO,Delivery,KRISHNA,ANDHRA PRADESH,16.7099550,80.7501020
Andhra Pradesh Circle,Vijayawada Region,Vijayawada Division,Vattigudipadu B.O,521211,BO,Delivery,KRISHNA,ANDHRA PRADESH,16.7338760,80.8689770
Andhra Pradesh Circle,Vijayawada Region,Vijayawada Division,Payakapuram. B.O,520015,BO,Non Delivery,KRISHNA,ANDHRA PRADESH,16.5517010,80.6520510
Andhra Pradesh Circle,Vijayawada Region,Vijayawada Division,Pokkunuru B.O,521182,BO,Delivery,KRISHNA,ANDHRA PRADESH,16.6600000,80.1600000
Andhra Pradesh Circle,Vijayawada Region,Vijayawada Division,Konakanchi B.O,521178,BO,Delivery,KRISHNA,ANDHRA PRADESH,16.8300000,80.2000000
Andhra Pradesh Circle,Vijayawada Region,Vijayawada Division,Sunnampadu B.O,521229,BO,Delivery,KRISHNA,ANDHRA PRADESH,16.7231300,80.5303460
Andhra Pradesh Circle,Vijayawada Region,Vijayawada Division,APUHS SO,520008,PO,Non Delivery,KRISHNA,ANDHRA PRADESH,16.5182778,80.6702500
Andhra Pradesh Circle,Vijayawada Region,Vijayawada Division,Autonagar S.O,520007,PO,Delivery,KRISHNA,ANDHRA PRADESH,16.5003056,80.6762778
Andhra Pradesh Circle,Vijayawada Region,Vijayawada Division,Civil Coursts S.O,520002,PO,Non Delivery,KRISHNA,ANDHRA PRADESH,16.5098889,80.6354444
Andhra Pradesh Circle,Vijayawada Region,Vijayawada Division,Gunadala S.O,520004,PO,Non Delivery,KRISHNA,ANDHRA PRADESH,16.5204167,80.6660556
Andhra Pradesh Circle,Vijayawada Region,Vijayawada Division,Kankipadu S.O,521151,PO,Delivery,KRISHNA,ANDHRA PRADESH,16.4191389,80.7689722
Andhra Pradesh Circle,Vijayawada Region,Vijayawada Division,Krishnalanka S.O,520013,PO,Delivery,KRISHNA,ANDHRA PRADESH,16.5018611,80.6315556
Andhra Pradesh Circle,Vijayawada Region,Vijayawada Division,Nidamanuru S.O,521104,PO,Delivery,KRISHNA,ANDHRA PRADESH,16.5082500,80.7196111
Andhra Pradesh Circle,Vijayawada Region,Vijayawada Division,Penamaluru S.O,521139,PO,Delivery,KRISHNA,ANDHRA PRADESH,16.4621667,80.7169722
Andhra Pradesh Circle,Vijayawada Region,Vijayawada Division,Poranki S.O,521137,PO,Delivery,KRISHNA,ANDHRA PRADESH,16.4791944,80.7079167
Andhra Pradesh Circle,Vijayawada Region,Vijayawada Division,Ramavarappadu S.O,521108,PO,Delivery,KRISHNA,ANDHRA PRADESH,16.5239722,80.6855833
Andhra Pradesh Circle,Vijayawada Region,Vijayawada Division,Suryaraopet S.O,520002,PO,Non Delivery,KRISHNA,ANDHRA PRADESH,16.5128333,80.6375833
Andhra Pradesh Circle,Vijayawada Region,Vijayawada Division,Vj Polytechnic S.O,520008,PO,Delivery,KRISHNA,ANDHRA PRADESH,16.5083611,80.6661389
Andhra Pradesh Circle,Vijayawada Region,Vijayawada Division,Azitnagar S.O,520015,PO,Delivery,KRISHNA,ANDHRA PRADESH,16.5248056,80.6406944
Andhra Pradesh Circle,Vijayawada Region,Vijayawada Division,Bhavanipuram S.O,520012,PO,Non Delivery,KRISHNA,ANDHRA PRADESH,16.5307778,80.5971944
Andhra Pradesh Circle,Vijayawada Region,Vijayawada Division,Chittinagar S.O,520001,PO,Non Delivery,KRISHNA,ANDHRA PRADESH,16.5380278,80.6132500
Andhra Pradesh Circle,Vijayawada Region,Vijayawada Division,Gannavaram S.O,521101,PO,Delivery,KRISHNA,ANDHRA PRADESH,16.5408333,80.7952778
Andhra Pradesh Circle,Vijayawada Region,Vijayawada Division,Gollapudi S.O,521225,PO,Delivery,KRISHNA,ANDHRA PRADESH,16.5398611,80.5766944
Andhra Pradesh Circle,Vijayawada Region,Vijayawada Division,Juzzuru S.O,521181,PO,Delivery,KRISHNA,ANDHRA PRADESH,16.7443611,80.4185833
Andhra Pradesh Circle,Vijayawada Region,Vijayawada Division,Lakshminagar S.O,520011,PO,Non Delivery,KRISHNA,ANDHRA PRADESH,16.5018889,80.6315556
Andhra Pradesh Circle,Vijayawada Region,Vijayawada Division,Meduru S.O,521247,PO,Delivery,KRISHNA,ANDHRA PRADESH,16.2759167,80.8474444
Andhra Pradesh Circle,Vijayawada Region,Vijayawada Division,Nandigama S.O,521185,PO,Delivery,KRISHNA,ANDHRA PRADESH,16.1276944,80.4683611
Andhra Pradesh Circle,Vijayawada Region,Vijayawada Division,Pedavutapalli S.O,521286,PO,Delivery,KRISHNA,ANDHRA PRADESH,16.5531944,80.8400833
Andhra Pradesh Circle,Vijayawada Region,Vijayawada Division,Railway Wagon Work Shop S.O,521241,PO,Delivery,KRISHNA,ANDHRA PRADESH,16.5948611,80.5480000
Andhra Pradesh Circle,Vijayawada Region,Vijayawada Division,Satyanarayanapuram S.O (Vijayawada),520011,PO,Delivery,KRISHNA,ANDHRA PRADESH,16.7846944,80.8498611
Andhra Pradesh Circle,Vijayawada Region,Vijayawada Division,VTPS S.O,521456,PO,Delivery,KRISHNA,ANDHRA PRADESH,16.3581667,80.3138333
Andhra Pradesh Circle,Vijayawada Region,Vijayawada Division,Vuyyuru S.O,521165,PO,Delivery,KRISHNA,ANDHRA PRADESH,16.3631389,80.8444167
Andhra Pradesh Circle,Vijayawada Region,Vijayawada Division,Magallu SO,521184,PO,Delivery,KRISHNA,ANDHRA PRADESH,NA,NA
Andhra Pradesh Circle,Vijayawada Region,Vijayawada Division,Durga Agraharam S.O,520002,PO,Non Delivery,KRISHNA,ANDHRA PRADESH,16.5141111,80.6088333
Andhra Pradesh Circle,Vijayawada Region,Vijayawada Division,Moghalrajpuram S.O,520010,PO,Non Delivery,KRISHNA,ANDHRA PRADESH,16.5081944,80.6415000
Andhra Pradesh Circle,Vijayawada Region,Vijayawada Division,A.C.Company S.O,520003,PO,Non Delivery,KRISHNA,ANDHRA PRADESH,16.5280000,80.6268333
Andhra Pradesh Circle,Vijayawada Region,Vijayawada Division,A.Konduru S.O,521226,PO,Delivery,KRISHNA,ANDHRA PRADESH,16.7846944,80.8498611
Andhra Pradesh Circle,Vijayawada Region,Vijayawada Division,Akunuru S.O,521245,PO,Delivery,KRISHNA,ANDHRA PRADESH,16.3971111,80.8174444
Andhra Pradesh Circle,Vijayawada Region,Vijayawada Division,Aukiripalli S.O,521211,PO,Delivery,KRISHNA,ANDHRA PRADESH,16.6808889,80.7836667
Andhra Pradesh Circle,Vijayawada Region,Vijayawada Division,Bacon Factory S.O,521102,PO,Delivery,KRISHNA,ANDHRA PRADESH,16.5208611,80.7806389
Andhra Pradesh Circle,Vijayawada Region,Vijayawada Division,G Konduru S.O,521229,PO,Delivery,KRISHNA,ANDHRA PRADESH,16.6793333,80.5743889
Andhra Pradesh Circle,Vijayawada Region,Vijayawada Division,Jaggaiahpet S.O,521175,PO,Delivery,KRISHNA,ANDHRA PRADESH,16.1359444,80.1517778
Andhra Pradesh Circle,Vijayawada Region,Vijayawada Division,Kanchikacharla S.O,521180,PO,Delivery,KRISHNA,ANDHRA PRADESH,16.6780278,80.4920000
Andhra Pradesh Circle,Vijayawada Region,Vijayawada Division,Katuru S.O,521164,PO,Delivery,KRISHNA,ANDHRA PRADESH,16.4217500,80.8589722
Andhra Pradesh Circle,Vijayawada Region,Vijayawada Division,Kondapalli S.O,521228,PO,Delivery,KRISHNA,ANDHRA PRADESH,16.6214167,80.5442500
Andhra Pradesh Circle,Vijayawada Region,Vijayawada Division,Mylavaram S.O (Krishna),521230,PO,Delivery,KRISHNA,ANDHRA PRADESH,16.7846944,80.8498611
Andhra Pradesh Circle,Vijayawada Region,Vijayawada Division,Nunna S.O,521212,PO,Delivery,KRISHNA,ANDHRA PRADESH,16.5785000,80.6837778
Andhra Pradesh Circle,Vijayawada Region,Vijayawada Division,Vatsavai S.O,521402,PO,Delivery,KRISHNA,ANDHRA PRADESH,16.9804167,80.2446667
Andhra Pradesh Circle,Vijayawada Region,Vijayawada Division,Veerullapadu S.O,521170,PO,Delivery,KRISHNA,ANDHRA PRADESH,16.8205000,80.3969167
Andhra Pradesh Circle,Vijayawada Region,Vijayawada Division,Wnchipet S.O,520001,PO,Non Delivery,KRISHNA,ANDHRA PRADESH,16.5233889,80.6157222
Andhra Pradesh Circle,Vijayawada Region,Vijayawada Division,Madhuranagar S.O,520011,PO,Non Delivery,KRISHNA,ANDHRA PRADESH,16.5101667,80.6267500
Andhra Pradesh Circle,Vijayawada Region,Vijayawada Division,Industrial Estate S.O (Krishna),520007,PO,Non Delivery,KRISHNA,ANDHRA PRADESH,16.5245211,80.6748524
Andhra Pradesh Circle,Vijayawada Region,Vijayawada Division,Kolavennu S.O,521153,PO,Delivery,KRISHNA,ANDHRA PRADESH,16.4321389,80.7945556
Andhra Pradesh Circle,Vijayawada Region,Vijayawada Division,Machavaram S.O (Krishna),520004,PO,Delivery,KRISHNA,ANDHRA PRADESH,16.7846944,80.8498611
Andhra Pradesh Circle,Vijayawada Region,Vijayawada Division,Venkateswarapuram S.O,520010,PO,Delivery,KRISHNA,ANDHRA PRADESH,16.3358611,80.6354722
Andhra Pradesh Circle,Vijayawada Region,Vijayawada Division,Currency Nagar S.O,520008,PO,Non Delivery,KRISHNA,ANDHRA PRADESH,16.5213000,80.6792000
Andhra Pradesh Circle,Vijayawada Region,Vijayawada Division,A.P.H.B.Colony S.O,520012,PO,Non Delivery,KRISHNA,ANDHRA PRADESH,16.5384722,80.5794444
Andhra Pradesh Circle,Vijayawada Region,Vijayawada Division,Chillakallu S.O,521178,PO,Delivery,KRISHNA,ANDHRA PRADESH,16.8941111,80.1405000
Andhra Pradesh Circle,Vijayawada Region,Vijayawada Division,Durgapuram S.O,520003,PO,Non Delivery,KRISHNA,ANDHRA PRADESH,16.5204444,80.6407222
Andhra Pradesh Circle,Vijayawada Region,Vijayawada Division,Ibrahimpatnam S.O (Krishna),521456,PO,Non Delivery,KRISHNA,ANDHRA PRADESH,16.7215540,80.1466200
Andhra Pradesh Circle,Vijayawada Region,Vijayawada Division,Khambhampadu S.O,521227,PO,Delivery,KRISHNA,ANDHRA PRADESH,16.9851111,80.6553611
Andhra Pradesh Circle,Vijayawada Region,Vijayawada Division,Kumaraswamy Raja Nagar S.O,521457,PO,Delivery,KRISHNA,ANDHRA PRADESH,16.8770000,80.1351667
Andhra Pradesh Circle,Vijayawada Region,Vijayawada Division,Mantada S.O,521256,PO,Delivery,KRISHNA,ANDHRA PRADESH,16.3565833,80.8802222
Andhra Pradesh Circle,Vijayawada Region,Vijayawada Division,Muppalla S.O (Krishna),521183,PO,Delivery,KRISHNA,ANDHRA PRADESH,16.7846944,80.8498611
Andhra Pradesh Circle,Vijayawada Region,Vijayawada Division,Mustabad S.O (Krishna),521107,PO,Delivery,KRISHNA,ANDHRA PRADESH,16.7846944,80.8498611
Andhra Pradesh Circle,Vijayawada Region,Vijayawada Division,Purnanandampet S.O,520003,PO,Non Delivery,KRISHNA,ANDHRA PRADESH,16.5201667,80.6229444
Andhra Pradesh Circle,Vijayawada Region,Vijayawada Division,RAMALINGESWAR NAGAR S.O,520013,PO,Non Delivery,KRISHNA,ANDHRA PRADESH,16.5093611,80.6149444
Andhra Pradesh Circle,Vijayawada Region,Vijayawada Division,Punnamathota S.O,520010,PO,Non Delivery,KRISHNA,ANDHRA PRADESH,16.5049444,80.6368611
Andhra Pradesh Circle,Vijayawada Region,Vijayawada Division,Tadigadapa S.O,521134,PO,Delivery,KRISHNA,ANDHRA PRADESH,16.3795925,80.6059238
Andhra Pradesh Circle,Vijayawada Region,Vijayawada Division,Chandarlapadu S.O,521182,PO,Delivery,KRISHNA,ANDHRA PRADESH,16.7719167,80.2863611
Andhra Pradesh Circle,Vijayawada Region,Vijayawada Division,Gandhinagaram S.O (Vijayawada),520003,PO,Delivery,KRISHNA,ANDHRA PRADESH,16.7846944,80.8498611
Andhra Pradesh Circle,Vijayawada Region,Vijayawada Division,Kamakotinagar S.O,520012,PO,Delivery,KRISHNA,ANDHRA PRADESH,16.5306944,80.6009444
Andhra Pradesh Circle,Vijayawada Region,Vijayawada Division,Kapileswarapuram S.O (Krishna),521246,PO,Delivery,KRISHNA,ANDHRA PRADESH,16.7846944,80.8498611
Andhra Pradesh Circle,Vijayawada Region,Machilipatnam Division,Avanigadda H.O,521121,HO,Delivery,KRISHNA,ANDHRA PRADESH,16.02008333,80.91555556
Andhra Pradesh Circle,Vijayawada Region,Vijayawada Division,Lakshmana Nagar S.O,521165,PO,Non Delivery,KRISHNA,ANDHRA PRADESH,16.3553611,80.8425556
Andhra Pradesh Circle,Vijayawada Region,Vijayawada Division,Penuganchiprolu S.O,521190,PO,Delivery,KRISHNA,ANDHRA PRADESH,16.8988056,80.2514167
Andhra Pradesh Circle,Vijayawada Region,Vijayawada Division,Virankilock S.O,521250,PO,Delivery,KRISHNA,ANDHRA PRADESH,16.2933611,80.8670556
Andhra Pradesh Circle,Vijayawada Region,Vijayawada Division,JNNURM Colony S.O,521231,PO,Delivery,KRISHNA,ANDHRA PRADESH,16.31,80.39
Andhra Pradesh Circle,Vijayawada Region,Vijayawada Division,Thotlavalluru S.O,521163,PO,Delivery,KRISHNA,ANDHRA PRADESH,16.3464444,80.7829167
Andhra Pradesh Circle,Vijayawada Region,Vijayawada Division,Vja Railway Junction S.O,520001,PO,Non Delivery,KRISHNA,ANDHRA PRADESH,16.5189444,80.6201667
Andhra Pradesh Circle,Vijayawada Region,Vijayawada Division,Vja Rly Divl Office S.O,520001,PO,Non Delivery,KRISHNA,ANDHRA PRADESH,16.5209722,80.6213889
Andhra Pradesh Circle,Vijayawada Region,Gudivada Division,Gudivada H.O,521301,HO,Delivery,KRISHNA,ANDHRA PRADESH,16.4338333,80.9916667
Andhra Pradesh Circle,Vijayawada Region,Machilipatnam Division,Machilipatnam H.O,521001,HO,Delivery,KRISHNA,ANDHRA PRADESH,16.31455556,81.35188889
Andhra Pradesh Circle,Vijayawada Region,Vijayawada Division,Buckinghampet H.O,520002,HO,Delivery,KRISHNA,ANDHRA PRADESH,16.5095000,80.6253056
Andhra Pradesh Circle,Vijayawada Region,Vijayawada Division,Vijayawada H.O,520001,HO,Delivery,KRISHNA,ANDHRA PRADESH,16.5095000,80.6253056
Andhra Pradesh Circle,Vijayawada Region,Gudivada Division,Angaluru S.O,521330,PO,Delivery,KRISHNA,ANDHRA PRADESH,16.3830556,81.0354167
Andhra Pradesh Circle,Vijayawada Region,Gudivada Division,Golvepalli (Zami) S.O,521322,PO,Delivery,KRISHNA,ANDHRA PRADESH,16.3676667,80.9630278
Andhra Pradesh Circle,Vijayawada Region,Gudivada Division,Korukollu S.O,521343,PO,Delivery,KRISHNA,ANDHRA PRADESH,16.4837778,81.2436111
Andhra Pradesh Circle,Vijayawada Region,Gudivada Division,Mudinepalli S.O,521325,PO,Delivery,KRISHNA,ANDHRA PRADESH,16.4221667,81.1103889
Andhra Pradesh Circle,Vijayawada Region,Gudivada Division,Mudunuru S.O,521261,PO,Delivery,KRISHNA,ANDHRA PRADESH,16.4034722,80.9036111
Andhra Pradesh Circle,Vijayawada Region,Gudivada Division,Nuzvid S.O,521201,PO,Delivery,KRISHNA,ANDHRA PRADESH,16.7924722,80.8472778
Andhra Pradesh Circle,Vijayawada Region,Gudivada Division,Musunuru S.O,521207,PO,Delivery,KRISHNA,ANDHRA PRADESH,16.8260000,80.9338889
Andhra Pradesh Circle,Vijayawada Region,Vijayawada Division,Penugolanu S.O,521401,PO,Delivery,KRISHNA,ANDHRA PRADESH,16.9762222,80.4365833
Andhra Pradesh Circle,Vijayawada Region,Vijayawada Division,Tiruvuru S.O,521235,PO,Delivery,KRISHNA,ANDHRA PRADESH,17.1156389,80.6080278
Andhra Pradesh Circle,Vijayawada Region,Gudivada Division,Janardhanapuram S.O,521321,PO,Delivery,KRISHNA,ANDHRA PRADESH,15.3202778,79.8415556
Andhra Pradesh Circle,Vijayawada Region,Gudivada Division,Mandavalli S.O,521345,PO,Delivery,KRISHNA,ANDHRA PRADESH,16.5136667,81.1568333
Andhra Pradesh Circle,Vijayawada Region,Gudivada Division,Pedamaddali S.O,521390,PO,Delivery,KRISHNA,ANDHRA PRADESH,16.3467222,80.9532500
Andhra Pradesh Circle,Vijayawada Region,Gudivada Division,Rajendranagar Colony S.O,521301,PO,Non Delivery,KRISHNA,ANDHRA PRADESH,16.4013611,81.0202500
Andhra Pradesh Circle,Vijayawada Region,Gudivada Division,Satyanarayanapuram S.O (Gudivada),521301,PO,Non Delivery,KRISHNA,ANDHRA PRADESH,16.4300000,81.0000000
Andhra Pradesh Circle,Vijayawada Region,Gudivada Division,Tamirisa S.O,521327,PO,Delivery,KRISHNA,ANDHRA PRADESH,16.4884167,81.0264444
Andhra Pradesh Circle,Vijayawada Region,Gudivada Division,Nuzvid Bazar S.O,521201,PO,Non Delivery,KRISHNA,ANDHRA PRADESH,16.7846944,80.8498611
Andhra Pradesh Circle,Vijayawada Region,Gudivada Division,Vidyanagar S.O (Krishna),521201,PO,Non Delivery,KRISHNA,ANDHRA PRADESH,16.7900000,80.8500000
Andhra Pradesh Circle,Vijayawada Region,Gudivada Division,Manikonda S.O,521260,PO,Delivery,KRISHNA,ANDHRA PRADESH,16.4501667,80.8336389
Andhra Pradesh Circle,Vijayawada Region,Gudivada Division,Ventrapragada S.O,521263,PO,Delivery,KRISHNA,ANDHRA PRADESH,16.4591389,80.9085833
Andhra Pradesh Circle,Vijayawada Region,Gudivada Division,Dum Dum Gardens S.O,521201,PO,Non Delivery,KRISHNA,ANDHRA PRADESH,16.7803611,80.8765000
Andhra Pradesh Circle,Vijayawada Region,Gudivada Division,Gollapalli S.O (Krishna),521111,PO,Delivery,KRISHNA,ANDHRA PRADESH,16.7846944,80.8498611
Andhra Pradesh Circle,Vijayawada Region,Gudivada Division,Hanuman Junction S.O,521105,PO,Delivery,KRISHNA,ANDHRA PRADESH,16.6352778,78.9689167
Andhra Pradesh Circle,Vijayawada Region,Gudivada Division,Indupalli S.O,521311,PO,Delivery,KRISHNA,ANDHRA PRADESH,16.4603889,80.8962222
Andhra Pradesh Circle,Vijayawada Region,Gudivada Division,Kanumolu S.O,521106,PO,Delivery,KRISHNA,ANDHRA PRADESH,16.6066944,80.9654167
Andhra Pradesh Circle,Vijayawada Region,Vijayawada Division,Telaprolu S.O,521109,PO,Delivery,KRISHNA,ANDHRA PRADESH,16.5810556,80.8917222
Andhra Pradesh Circle,Vijayawada Region,Vijayawada Division,Veeravalli S.O,521110,PO,Delivery,KRISHNA,ANDHRA PRADESH,16.6135833,80.9157222
Andhra Pradesh Circle,Vijayawada Region,Vijayawada Division,Gampalagudem S.O,521403,PO,Delivery,KRISHNA,ANDHRA PRADESH,16.9987500,80.5220556
Andhra Pradesh Circle,Vijayawada Region,Machilipatnam Division,Ghantasala S.O,521133,PO,Delivery,KRISHNA,ANDHRA PRADESH,16.16975,80.94636111
Andhra Pradesh Circle,Vijayawada Region,Machilipatnam Division,Guduru S.O,521149,PO,Delivery,KRISHNA,ANDHRA PRADESH,16.21491667,81.07783333
Andhra Pradesh Circle,Vijayawada Region,Machilipatnam Division,Kaja S.O,521150,PO,Delivery,KRISHNA,ANDHRA PRADESH,16.19894444,81.00416667
Andhra Pradesh Circle,Vijayawada Region,Machilipatnam Division,Kodali S.O,521132,PO,Delivery,KRISHNA,ANDHRA PRADESH,16.18366667,80.90136111
Andhra Pradesh Circle,Vijayawada Region,Machilipatnam Division,Movva S.O,521135,PO,Delivery,KRISHNA,ANDHRA PRADESH,16.22455556,80.91502778
Andhra Pradesh Circle,Vijayawada Region,Machilipatnam Division,Pedasanagallu S.O,521138,PO,Delivery,KRISHNA,ANDHRA PRADESH,16.30463889,80.89816667
Andhra Pradesh Circle,Vijayawada Region,Machilipatnam Division,Bhaskarapuram S.O,521001,PO,Non Delivery,KRISHNA,ANDHRA PRADESH,16.19805556,81.151
Andhra Pradesh Circle,Vijayawada Region,Machilipatnam Division,Valandapalem S.O,521002,PO,Non Delivery,KRISHNA,ANDHRA PRADESH,16.20119444,81.14577778
Andhra Pradesh Circle,Vijayawada Region,Machilipatnam Division,K.P.Centre S.O,521136,PO,Delivery,KRISHNA,ANDHRA PRADESH,16.36161111,80.85230556
Andhra Pradesh Circle,Vijayawada Region,Machilipatnam Division,Nagayalanka S.O,521120,PO,Delivery,KRISHNA,ANDHRA PRADESH,15.94775,80.91641667
Andhra Pradesh Circle,Vijayawada Region,Machilipatnam Division,Nidumolu S.O,521156,PO,Delivery,KRISHNA,ANDHRA PRADESH,16.25866667,81.023
Andhra Pradesh Circle,Vijayawada Region,Machilipatnam Division,Polavaram(K) S.O,521162,PO,Delivery,KRISHNA,ANDHRA PRADESH,16.22825,80.96386111
Andhra Pradesh Circle,Vijayawada Region,Machilipatnam Division,Balaramunipet S.O,521001,PO,Non Delivery,KRISHNA,ANDHRA PRADESH,16.20344444,81.13877778
Andhra Pradesh Circle,Vijayawada Region,Machilipatnam Division,Desaipet S.O,521001,PO,Non Delivery,KRISHNA,ANDHRA PRADESH,16.19302778,81.18275
Andhra Pradesh Circle,Vijayawada Region,Machilipatnam Division,Dt.Court S.O,521002,PO,Non Delivery,KRISHNA,ANDHRA PRADESH,16.19488889,81.13727778
Andhra Pradesh Circle,Vijayawada Region,Machilipatnam Division,Gudlavalleru S.O,521356,PO,Delivery,KRISHNA,ANDHRA PRADESH,16.3455,81.05191667
Andhra Pradesh Circle,Vijayawada Region,Machilipatnam Division,Inagudurupet S.O,521001,PO,Non Delivery,KRISHNA,ANDHRA PRADESH,16.21058333,81.15786111
Andhra Pradesh Circle,Vijayawada Region,Machilipatnam Division,K.P.Pur S.O,521002,PO,Non Delivery,KRISHNA,ANDHRA PRADESH,16.24641667,81.22127778
Andhra Pradesh Circle,Vijayawada Region,Machilipatnam Division,U.G.C.Works S.O,521001,PO,Non Delivery,KRISHNA,ANDHRA PRADESH,16.28561111,81.22147222
Andhra Pradesh Circle,Vijayawada Region,Machilipatnam Division,Koduru S.O,521328,PO,Delivery,KRISHNA,ANDHRA PRADESH,16.00861111,81.03405556
Andhra Pradesh Circle,Vijayawada Region,Machilipatnam Division,Pamarru S.O (Krishna),521157,PO,Delivery,KRISHNA,ANDHRA PRADESH,16.7846944,80.8498611
Andhra Pradesh Circle,Vijayawada Region,Machilipatnam Division,Pedakallepalli S.O,521130,PO,Delivery,KRISHNA,ANDHRA PRADESH,16.08227778,80.98855556
Andhra Pradesh Circle,Vijayawada Region,Machilipatnam Division,Batchupet S.O,521001,PO,Non Delivery,KRISHNA,ANDHRA PRADESH,16.1835,80.90141667
Andhra Pradesh Circle,Vijayawada Region,Machilipatnam Division,Chilakalapudi S.O,521002,PO,Delivery,KRISHNA,ANDHRA PRADESH,16.19372222,80.31486111
Andhra Pradesh Circle,Vijayawada Region,Machilipatnam Division,Chintaguntapalem S.O,521003,PO,Delivery,KRISHNA,ANDHRA PRADESH,16.16769444,80.13491667
Andhra Pradesh Circle,Vijayawada Region,Machilipatnam Division,Godugupet S.O,521001,PO,Non Delivery,KRISHNA,ANDHRA PRADESH,16.17325,81.11516667
Andhra Pradesh Circle,Vijayawada Region,Gudivada Division,Bantumilli S.O,521324,PO,Delivery,KRISHNA,ANDHRA PRADESH,16.3565556,81.2685556
Andhra Pradesh Circle,Vijayawada Region,Gudivada Division,Elamarru S.O,521148,PO,Delivery,KRISHNA,ANDHRA PRADESH,16.3686944,80.9256944
Andhra Pradesh Circle,Vijayawada Region,Gudivada Division,Kaikalur S.O,521333,PO,Delivery,KRISHNA,ANDHRA PRADESH,16.5510278,81.2101389
Andhra Pradesh Circle,Vijayawada Region,Gudivada Division,Kalidindi S.O,521344,PO,Delivery,KRISHNA,ANDHRA PRADESH,16.5031389,1.2876667
Andhra Pradesh Circle,Vijayawada Region,Gudivada Division,Moturu S.O,521323,PO,Delivery,KRISHNA,ANDHRA PRADESH,16.4476944,81.0464722
Andhra Pradesh Circle,Vijayawada Region,Gudivada Division,Pallevada S.O,521340,PO,Delivery,KRISHNA,ANDHRA PRADESH,16.5769722,81.2725000
Andhra Pradesh Circle,Vijayawada Region,Gudivada Division,Pedagonnuru S.O,521329,PO,Delivery,KRISHNA,ANDHRA PRADESH,16.4343056,81.1846667
Andhra Pradesh Circle,Vijayawada Region,Gudivada Division,Rudrapaka S.O,521326,PO,Delivery,KRISHNA,ANDHRA PRADESH,16.5090000,81.0982222
Andhra Pradesh Circle,Vijayawada Region,Gudivada Division,APIIIT S.O,521202,PO,Delivery,KRISHNA,ANDHRA PRADESH,16.7846944,80.8498611
Andhra Pradesh Circle,Vijayawada Region,Gudivada Division,Ramanakkapet S.O,521213,PO,Delivery,KRISHNA,ANDHRA PRADESH,16.8844444,80.8738889
Andhra Pradesh Circle,Vijayawada Region,Gudivada Division,Tsanubanda S.O,521214,PO,Delivery,KRISHNA,ANDHRA PRADESH,17.0328333,80.8058889
Andhra Pradesh Circle,Vijayawada Region,Machilipatnam Division,Kavutaram S.O,521331,PO,Delivery,KRISHNA,ANDHRA PRADESH,16.33361111,81.07625
Andhra Pradesh Circle,Vijayawada Region,Machilipatnam Division,Malakapatnam S.O,521001,PO,Non Delivery,KRISHNA,ANDHRA PRADESH,16.20130556,81.131
Andhra Pradesh Circle,Vijayawada Region,Machilipatnam Division,Munjuluru S.O,521369,PO,Delivery,KRISHNA,ANDHRA PRADESH,16.31102778,81.215
Andhra Pradesh Circle,Vijayawada Region,Machilipatnam Division,Challapalli S.O,521126,PO,Delivery,KRISHNA,ANDHRA PRADESH,16.11583333,80.93155556
Andhra Pradesh Circle,Vijayawada Region,Machilipatnam Division,Gandhikshetram S.O,521122,PO,Delivery,KRISHNA,ANDHRA PRADESH,16.03069444,80.929
Andhra Pradesh Circle,Vijayawada Region,Machilipatnam Division,Lakshmipuram S.O (Krishna),521131,PO,Delivery,KRISHNA,ANDHRA PRADESH,16.7846944,80.8498611
Andhra Pradesh Circle,Vijayawada Region,Machilipatnam Division,Mopidevi S.O,521125,PO,Delivery,KRISHNA,ANDHRA PRADESH,16.06697222,70.92572222
Andhra Pradesh Circle,Vijayawada Region,Machilipatnam Division,Nimmakuru S.O,521158,PO,Delivery,KRISHNA,ANDHRA PRADESH,16.27030556,80.99669444
Andhra Pradesh Circle,Vijayawada Region,Machilipatnam Division,Pamarru Bazar S.O,521157,PO,Non Delivery,KRISHNA,ANDHRA PRADESH,16.32036111,80.96030556
Andhra Pradesh Circle,Vijayawada Region,Machilipatnam Division,Brahmapuram S.O,521366,PO,Non Delivery,KRISHNA,ANDHRA PRADESH,16.25297222,81.13386111
Andhra Pradesh Circle,Vijayawada Region,Machilipatnam Division,Dokiparru S.O,521332,PO,Delivery,KRISHNA,ANDHRA PRADESH,16.30044444,81.05111111
Andhra Pradesh Circle,Vijayawada Region,Machilipatnam Division,Pedana S.O,521366,PO,Delivery,KRISHNA,ANDHRA PRADESH,16.25475,81.14633333
Andhra Pradesh Circle,Vijayawada Region,Machilipatnam Division,Rajupet S.O,521001,PO,Non Delivery,KRISHNA,ANDHRA PRADESH,16.18436111,81.13483333
Andhra Pradesh Circle,Vijayawada Region,Gudivada Division,Vissannapet S.O,521215,PO,Delivery,KRISHNA,ANDHRA PRADESH,16.9384444,80.7867500
Andhra Pradesh Circle,Vijayawada Region,Gudivada Division,Vunguturu S.O (Krishna),521312,PO,Delivery,KRISHNA,ANDHRA PRADESH,16.7846944,80.8498611