CircleName,RegionName,DivisionName,OfficeName,Pincode,OfficeType,Delivery,District,StateName,Latitude,Longitude
Andhra Pradesh Circle,Visakhapatnam Region,Parvathipuram Division,Pogiri B.O,532148,BO,Delivery,SRIKAKULAM,ANDHRA PRADESH,83.1426000,18.0506000
Andhra Pradesh Circle,Visakhapatnam Region,Parvathipuram Division,Ramachandrapuram Agraharam B.O,532148,BO,Delivery,SRIKAKULAM,ANDHRA PRADESH,83.1522000,18.0675000
Andhra Pradesh Circle,Visakhapatnam Region,Parvathipuram Division,Yenduva B.O,532148,BO,Delivery,SRIKAKULAM,ANDHRA PRADESH,18.7817,83.4268
Andhra Pradesh Circle,Visakhapatnam Region,Srikakulam Division,Keesara B.O,532455,BO,Delivery,SRIKAKULAM,ANDHRA PRADESH,18.29483,83.89366
Andhra Pradesh Circle,Visakhapatnam Region,Srikakulam Division,Ponnuturu B.O,532457,BO,Delivery,SRIKAKULAM,ANDHRA PRADESH,18.83879,83.84852
Andhra Pradesh Circle,Visakhapatnam Region,Srikakulam Division,Bairisingupuram S.O,532187,PO,Delivery,SRIKAKULAM,ANDHRA PRADESH,18.2877770,83.9003333
Andhra Pradesh Circle,Visakhapatnam Region,Parvathipuram Division,Batuva B.O,535125,BO,Delivery,SRIKAKULAM,ANDHRA PRADESH,83.6132000,18.3299000
Andhra Pradesh Circle,Visakhapatnam Region,Parvathipuram Division,Gobburu B.O,532148,BO,Delivery,SRIKAKULAM,ANDHRA PRADESH,83.1420000,18.0574000
Andhra Pradesh Circle,Visakhapatnam Region,Parvathipuram Division,Nandabalaga B.O,532148,BO,Delivery,SRIKAKULAM,ANDHRA PRADESH,83.1423000,18.0576000
Andhra Pradesh Circle,Visakhapatnam Region,Parvathipuram Division,Chettupodilam B.O,532148,BO,Delivery,SRIKAKULAM,ANDHRA PRADESH,83.1521000,18.0575000
Andhra Pradesh Circle,Visakhapatnam Region,Parvathipuram Division,Gedda Kancharam B.O,532148,BO,Delivery,SRIKAKULAM,ANDHRA PRADESH,83.1421000,18.0574000
Andhra Pradesh Circle,Visakhapatnam Region,Parvathipuram Division,Niddam B.O,532148,BO,Delivery,SRIKAKULAM,ANDHRA PRADESH,83.1221000,18.0578000
Andhra Pradesh Circle,Visakhapatnam Region,Srikakulam Division,Pusam B.O,532458,BO,Delivery,SRIKAKULAM,ANDHRA PRADESH,18.2924500,83.8936960
Andhra Pradesh Circle,Visakhapatnam Region,Srikakulam Division,Santhakaviti B.O,532123,BO,Delivery,SRIKAKULAM,ANDHRA PRADESH,18.4554160,83.7517770
Andhra Pradesh Circle,Visakhapatnam Region,Srikakulam Division,Vavilavalasa B.O,532123,BO,Delivery,SRIKAKULAM,ANDHRA PRADESH,18.4554160,83.7517770
Andhra Pradesh Circle,Visakhapatnam Region,Srikakulam Division,Nayaralavalasa B.O,532122,BO,Delivery,SRIKAKULAM,ANDHRA PRADESH,18.5263111,83.6318055
Andhra Pradesh Circle,Visakhapatnam Region,Srikakulam Division,Parampeta B.O,532122,BO,Delivery,SRIKAKULAM,ANDHRA PRADESH,18.5263611,83.6318055
Andhra Pradesh Circle,Visakhapatnam Region,Srikakulam Division,Mamidipalli B.O,532264,BO,Delivery,SRIKAKULAM,ANDHRA PRADESH,18.9009720,84.5533055
Andhra Pradesh Circle,Visakhapatnam Region,Srikakulam Division,Potrakonda B.O,532264,BO,Delivery,SRIKAKULAM,ANDHRA PRADESH,18.9009720,84.5533055
Andhra Pradesh Circle,Visakhapatnam Region,Srikakulam Division,Nadumuru B.O,532263,BO,Delivery,SRIKAKULAM,ANDHRA PRADESH,18.8831111,84.5829444
Andhra Pradesh Circle,Visakhapatnam Region,Srikakulam Division,Bendi B.O,532220,BO,Delivery,SRIKAKULAM,ANDHRA PRADESH,18.7456388,84.3845833
Andhra Pradesh Circle,Visakhapatnam Region,Srikakulam Division,Kothagraharam B.O,532220,BO,Delivery,SRIKAKULAM,ANDHRA PRADESH,18.7456388,84.3845833
Andhra Pradesh Circle,Visakhapatnam Region,Srikakulam Division,Tekkalipatnam B.O,532220,BO,Delivery,SRIKAKULAM,ANDHRA PRADESH,18.7456388,84.3845833
Andhra Pradesh Circle,Visakhapatnam Region,Srikakulam Division,Ganguvada B.O,532243,BO,Delivery,SRIKAKULAM,ANDHRA PRADESH,18.8486660,84.5038611
Andhra Pradesh Circle,Visakhapatnam Region,Srikakulam Division,Neelavathi B.O,532243,BO,Delivery,SRIKAKULAM,ANDHRA PRADESH,18.8486660,84.5038611
Andhra Pradesh Circle,Visakhapatnam Region,Srikakulam Division,Bhirlangi B.O,532312,BO,Delivery,SRIKAKULAM,ANDHRA PRADESH,19.1174110,84.6861944
Andhra Pradesh Circle,Visakhapatnam Region,Srikakulam Division,Koligam B.O,532312,BO,Delivery,SRIKAKULAM,ANDHRA PRADESH,19.1174110,84.6861944
Andhra Pradesh Circle,Visakhapatnam Region,Srikakulam Division,Mandapalli B.O,532312,BO,Delivery,SRIKAKULAM,ANDHRA PRADESH,19.1174110,84.6861944
Andhra Pradesh Circle,Visakhapatnam Region,Srikakulam Division,Belagam B.O,532290,BO,Delivery,SRIKAKULAM,ANDHRA PRADESH,18.9756667,84.5805277
Andhra Pradesh Circle,Visakhapatnam Region,Srikakulam Division,Khajuru B.O,532290,BO,Delivery,SRIKAKULAM,ANDHRA PRADESH,18.9756667,84.5805277
Andhra Pradesh Circle,Visakhapatnam Region,Srikakulam Division,Pedasrirampuram B.O,532290,BO,Delivery,SRIKAKULAM,ANDHRA PRADESH,18.9756667,84.5805277
Andhra Pradesh Circle,Visakhapatnam Region,Srikakulam Division,Garudabhadra B.O,532222,BO,Delivery,SRIKAKULAM,ANDHRA PRADESH,18.2962500,83.8936944
Andhra Pradesh Circle,Visakhapatnam Region,Srikakulam Division,Laxmidevipeta B.O,532222,BO,Delivery,SRIKAKULAM,ANDHRA PRADESH,18.2962500,83.8936944
Andhra Pradesh Circle,Visakhapatnam Region,Srikakulam Division,Pallisaradhi B.O,532222,BO,Delivery,SRIKAKULAM,ANDHRA PRADESH,18.2962500,83.8936944
Andhra Pradesh Circle,Visakhapatnam Region,Srikakulam Division,Vajrapukotturu B.O,532222,BO,Delivery,SRIKAKULAM,ANDHRA PRADESH,18.2962500,83.8936944
Andhra Pradesh Circle,Visakhapatnam Region,Srikakulam Division,Beejiputti B.O,532322,BO,Delivery,SRIKAKULAM,ANDHRA PRADESH,19.0113611,84.6902500
Andhra Pradesh Circle,Visakhapatnam Region,Srikakulam Division,Kistupuram B.O,532195,BO,Delivery,SRIKAKULAM,ANDHRA PRADESH,18.5185277,84.1520550
Andhra Pradesh Circle,Visakhapatnam Region,Srikakulam Division,Kurudu B.O,532195,BO,Delivery,SRIKAKULAM,ANDHRA PRADESH,18.5185277,84.1520550
Andhra Pradesh Circle,Visakhapatnam Region,Srikakulam Division,Santhabommali B.O,532195,BO,Delivery,SRIKAKULAM,ANDHRA PRADESH,18.5185277,84.1520550
Andhra Pradesh Circle,Visakhapatnam Region,Srikakulam Division,Cheepi B.O,532242,BO,Delivery,SRIKAKULAM,ANDHRA PRADESH,18.8715277,84.4615110
Andhra Pradesh Circle,Visakhapatnam Region,Srikakulam Division,Killoyicolony B.O,532242,BO,Delivery,SRIKAKULAM,ANDHRA PRADESH,18.8715277,84.4615110
Andhra Pradesh Circle,Visakhapatnam Region,Srikakulam Division,Kothapalli B.O,532242,BO,Delivery,SRIKAKULAM,ANDHRA PRADESH,18.8715200,84.4615110
Andhra Pradesh Circle,Visakhapatnam Region,Srikakulam Division,Gonapaputtuga B.O,532292,BO,Delivery,SRIKAKULAM,ANDHRA PRADESH,18.9517770,84.6317220
Andhra Pradesh Circle,Visakhapatnam Region,Parvathipuram Division,Jada B.O,532148,BO,Delivery,SRIKAKULAM,ANDHRA PRADESH,83.1422000,18.0577000
Andhra Pradesh Circle,Visakhapatnam Region,Parvathipuram Division,Boddam B.O,532148,BO,Delivery,SRIKAKULAM,ANDHRA PRADESH,83.1421000,18.0574000
Andhra Pradesh Circle,Visakhapatnam Region,Parvathipuram Division,Chandraiahpeta B.O,532148,BO,Delivery,SRIKAKULAM,ANDHRA PRADESH,83.1425000,18.0579000
Andhra Pradesh Circle,Visakhapatnam Region,Srikakulam Division,Kusumapuram B.O,532292,BO,Delivery,SRIKAKULAM,ANDHRA PRADESH,18.9517770,84.6317220
Andhra Pradesh Circle,Visakhapatnam Region,Srikakulam Division,Marripadu B.O,532215,BO,Delivery,SRIKAKULAM,ANDHRA PRADESH,18.7695566,84.1688611
Andhra Pradesh Circle,Visakhapatnam Region,Srikakulam Division,Mulapeta B.O,532211,BO,Delivery,SRIKAKULAM,ANDHRA PRADESH,18.4858,84.164
Andhra Pradesh Circle,Visakhapatnam Region,Srikakulam Division,Goppili B.O,532221,BO,Delivery,SRIKAKULAM,ANDHRA PRADESH,18.7745000,84.4101110
Andhra Pradesh Circle,Visakhapatnam Region,Srikakulam Division,Karajada B.O,532221,BO,Delivery,SRIKAKULAM,ANDHRA PRADESH,18.7745000,84.4101110
Andhra Pradesh Circle,Visakhapatnam Region,Srikakulam Division,Borubhadra B.O,532218,BO,Delivery,SRIKAKULAM,ANDHRA PRADESH,18.6661110,84.3686380
Andhra Pradesh Circle,Visakhapatnam Region,Srikakulam Division,Mandarada B.O,532123,BO,Delivery,SRIKAKULAM,ANDHRA PRADESH,18.4554160,83.7517770
Andhra Pradesh Circle,Visakhapatnam Region,Srikakulam Division,Vasudevapatnam B.O,532123,BO,Delivery,SRIKAKULAM,ANDHRA PRADESH,18.4554160,83.7517770
Andhra Pradesh Circle,Visakhapatnam Region,Srikakulam Division,Vungarada B.O,532123,BO,Delivery,SRIKAKULAM,ANDHRA PRADESH,18.4554160,83.7517700
Andhra Pradesh Circle,Visakhapatnam Region,Srikakulam Division,Ambada B.O,532122,BO,Delivery,SRIKAKULAM,ANDHRA PRADESH,18.5263611,83.6318055
Andhra Pradesh Circle,Visakhapatnam Region,Srikakulam Division,Arasada B.O,532122,BO,Delivery,SRIKAKULAM,ANDHRA PRADESH,18.5263611,83.6318055
Andhra Pradesh Circle,Visakhapatnam Region,Srikakulam Division,Bhagempeta B.O,532122,BO,Delivery,SRIKAKULAM,ANDHRA PRADESH,18.5263611,83.6318055
Andhra Pradesh Circle,Visakhapatnam Region,Srikakulam Division,Pedasirlam B.O,532122,BO,Delivery,SRIKAKULAM,ANDHRA PRADESH,18.5263611,83.6318055
Andhra Pradesh Circle,Visakhapatnam Region,Srikakulam Division,Sarasanapalli B.O,532122,BO,Delivery,SRIKAKULAM,ANDHRA PRADESH,18.5263611,83.6318055
Andhra Pradesh Circle,Visakhapatnam Region,Srikakulam Division,Talada B.O,532123,BO,Delivery,SRIKAKULAM,ANDHRA PRADESH,18.4554160,83.7517770
Andhra Pradesh Circle,Visakhapatnam Region,Srikakulam Division,KR Puram BO,532123,BO,Delivery,SRIKAKULAM,ANDHRA PRADESH,18.4747,83.7996
Andhra Pradesh Circle,Visakhapatnam Region,Srikakulam Division,Madduvalasa B.O,532122,BO,Delivery,SRIKAKULAM,ANDHRA PRADESH,18.5263611,83.6318055
Andhra Pradesh Circle,Visakhapatnam Region,Srikakulam Division,Neelayyavalasa B.O,532122,BO,Delivery,SRIKAKULAM,ANDHRA PRADESH,18.5263611,83.6318055
Andhra Pradesh Circle,Visakhapatnam Region,Srikakulam Division,Chowkipeta B.O,532264,BO,Delivery,SRIKAKULAM,ANDHRA PRADESH,18.9009720,84.5533055
Andhra Pradesh Circle,Visakhapatnam Region,Srikakulam Division,Palavalasa B.O,532264,BO,Delivery,SRIKAKULAM,ANDHRA PRADESH,18.9009720,84.5533055
Andhra Pradesh Circle,Visakhapatnam Region,Srikakulam Division,Uppalam B.O,532263,BO,Delivery,SRIKAKULAM,ANDHRA PRADESH,18.8831111,84.5829444
Andhra Pradesh Circle,Visakhapatnam Region,Srikakulam Division,Yerramukkam B.O,532263,BO,Delivery,SRIKAKULAM,ANDHRA PRADESH,18.8831111,84.5829444
Andhra Pradesh Circle,Visakhapatnam Region,Srikakulam Division,Kavitaagraharam B.O,532220,BO,Delivery,SRIKAKULAM,ANDHRA PRADESH,18.7456388,84.3845833
Andhra Pradesh Circle,Visakhapatnam Region,Srikakulam Division,Pedalaxmipuram B.O,532216,BO,Delivery,SRIKAKULAM,ANDHRA PRADESH,18.7709444,84.1853880
Andhra Pradesh Circle,Visakhapatnam Region,Srikakulam Division,Kondalogam B.O,532243,BO,Delivery,SRIKAKULAM,ANDHRA PRADESH,18.8486660,84.5038611
Andhra Pradesh Circle,Visakhapatnam Region,Srikakulam Division,Burjapadu B.O,532312,BO,Delivery,SRIKAKULAM,ANDHRA PRADESH,19.1174110,84.6861944
Andhra Pradesh Circle,Visakhapatnam Region,Srikakulam Division,Loddaputti B.O,532312,BO,Delivery,SRIKAKULAM,ANDHRA PRADESH,19.1174110,84.6861944
Andhra Pradesh Circle,Visakhapatnam Region,Srikakulam Division,Purushothapur (IPR) B.O,532312,BO,Delivery,SRIKAKULAM,ANDHRA PRADESH,19.1174110,84.6861944
Andhra Pradesh Circle,Visakhapatnam Region,Srikakulam Division,Jhadupudi B.O,532290,BO,Delivery,SRIKAKULAM,ANDHRA PRADESH,18.9756667,84.5805277
Andhra Pradesh Circle,Visakhapatnam Region,Srikakulam Division,Sahalalaputtuga B.O,532290,BO,Delivery,SRIKAKULAM,ANDHRA PRADESH,18.9756667,84.5805277
Andhra Pradesh Circle,Visakhapatnam Region,Srikakulam Division,Nagarampalli B.O,532222,BO,Delivery,SRIKAKULAM,ANDHRA PRADESH,18.2962500,83.8936944
Andhra Pradesh Circle,Visakhapatnam Region,Srikakulam Division,Jagathi B.O,532322,BO,Delivery,SRIKAKULAM,ANDHRA PRADESH,19.0113611,84.6902500
Andhra Pradesh Circle,Visakhapatnam Region,Srikakulam Division,Borubhadra B.O,532195,BO,Delivery,SRIKAKULAM,ANDHRA PRADESH,18.5185277,84.1520550
Andhra Pradesh Circle,Visakhapatnam Region,Srikakulam Division,Elamanchili B.O,532195,BO,Delivery,SRIKAKULAM,ANDHRA PRADESH,18.5185277,84.1520550
Andhra Pradesh Circle,Visakhapatnam Region,Srikakulam Division,Pattupuram B.O,532195,BO,Delivery,SRIKAKULAM,ANDHRA PRADESH,18.5185277,84.1520550
Andhra Pradesh Circle,Visakhapatnam Region,Srikakulam Division,T.Lingalapadu B.O,532195,BO,Delivery,SRIKAKULAM,ANDHRA PRADESH,18.5185277,84.1520550
Andhra Pradesh Circle,Visakhapatnam Region,Srikakulam Division,Gudarurajamanipuram B.O,532242,BO,Delivery,SRIKAKULAM,ANDHRA PRADESH,18.8715277,84.4615110
Andhra Pradesh Circle,Visakhapatnam Region,Srikakulam Division,Rushikudda B.O,532292,BO,Delivery,SRIKAKULAM,ANDHRA PRADESH,18.9517770,84.6317220
Andhra Pradesh Circle,Visakhapatnam Region,Srikakulam Division,Pedapadmapuram B.O,532215,BO,Delivery,SRIKAKULAM,ANDHRA PRADESH,18.7695566,84.1688611
Andhra Pradesh Circle,Visakhapatnam Region,Srikakulam Division,Buragam B.O,532212,BO,Delivery,SRIKAKULAM,ANDHRA PRADESH,18.5771660,84.2844722
Andhra Pradesh Circle,Visakhapatnam Region,Srikakulam Division,Talagam B.O,532212,BO,Delivery,SRIKAKULAM,ANDHRA PRADESH,18.5771660,84.2844722
Andhra Pradesh Circle,Visakhapatnam Region,Srikakulam Division,Devanaltada B.O,532211,BO,Delivery,SRIKAKULAM,ANDHRA PRADESH,18.2962500,83.8936944
Andhra Pradesh Circle,Visakhapatnam Region,Srikakulam Division,Hanumanthunaidupeta BO,532211,BO,Delivery,SRIKAKULAM,ANDHRA PRADESH,18.5445,84.2723
Andhra Pradesh Circle,Visakhapatnam Region,Srikakulam Division,Akasalakkavaram BO,532211,BO,Delivery,SRIKAKULAM,ANDHRA PRADESH,18.5224,84.2345
Andhra Pradesh Circle,Visakhapatnam Region,Srikakulam Division,Lotturu BO,532221,BO,Delivery,SRIKAKULAM,ANDHRA PRADESH,18.8618,84.3516
Andhra Pradesh Circle,Visakhapatnam Region,Srikakulam Division,Haridasupuram B.O,532218,BO,Delivery,SRIKAKULAM,ANDHRA PRADESH,18.6661110,84.3686380
Andhra Pradesh Circle,Visakhapatnam Region,Srikakulam Division,Kanitivooru B.O,532218,BO,Delivery,SRIKAKULAM,ANDHRA PRADESH,18.6661110,84.3686380
Andhra Pradesh Circle,Visakhapatnam Region,Srikakulam Division,Kurmanadhapuram B.O,532218,BO,Delivery,SRIKAKULAM,ANDHRA PRADESH,18.6661110,84.3686380
Andhra Pradesh Circle,Visakhapatnam Region,Srikakulam Division,Pedamuraharipuram B.O,532218,BO,Delivery,SRIKAKULAM,ANDHRA PRADESH,18.6661110,84.3686380
Andhra Pradesh Circle,Visakhapatnam Region,Srikakulam Division,Jinkibhadra B.O,532284,BO,Delivery,SRIKAKULAM,ANDHRA PRADESH,18.9460550,84.5854444
Andhra Pradesh Circle,Visakhapatnam Region,Srikakulam Division,Sasanam B.O,532284,BO,Delivery,SRIKAKULAM,ANDHRA PRADESH,18.9460550,84.5850000
Andhra Pradesh Circle,Visakhapatnam Region,Srikakulam Division,Kommusariapalli B.O,532203,BO,Delivery,SRIKAKULAM,ANDHRA PRADESH,18.6068333,84.2365550
Andhra Pradesh Circle,Visakhapatnam Region,Srikakulam Division,Talatampara B.O,532123,BO,Delivery,SRIKAKULAM,ANDHRA PRADESH,18.469,83.7294
Andhra Pradesh Circle,Visakhapatnam Region,Srikakulam Division,Kondagudem BO,532123,BO,Delivery,SRIKAKULAM,ANDHRA PRADESH,18.5835,84.2233
Andhra Pradesh Circle,Visakhapatnam Region,Srikakulam Division,Ampolu B.O,532404,BO,Delivery,SRIKAKULAM,ANDHRA PRADESH,18.2731111,84.0048333
Andhra Pradesh Circle,Visakhapatnam Region,Srikakulam Division,Chinavatsavalasa B.O,532404,BO,Delivery,SRIKAKULAM,ANDHRA PRADESH,18.2731111,84.0048333
Andhra Pradesh Circle,Visakhapatnam Region,Srikakulam Division,Lingalavalasa B.O,532404,BO,Delivery,SRIKAKULAM,ANDHRA PRADESH,18.2731111,84.0048333
Andhra Pradesh Circle,Visakhapatnam Region,Srikakulam Division,Vatsavalasa B.O,532404,BO,Delivery,SRIKAKULAM,ANDHRA PRADESH,18.2731111,84.0048333
Andhra Pradesh Circle,Visakhapatnam Region,Srikakulam Division,Kandisa B.O,532122,BO,Delivery,SRIKAKULAM,ANDHRA PRADESH,18.5263611,83.6318055
Andhra Pradesh Circle,Visakhapatnam Region,Srikakulam Division,Kodisa B.O,532122,BO,Delivery,SRIKAKULAM,ANDHRA PRADESH,18.5263611,83.6318055
Andhra Pradesh Circle,Visakhapatnam Region,Srikakulam Division,Tunivada B.O,532122,BO,Delivery,SRIKAKULAM,ANDHRA PRADESH,18.5263611,83.6318055
Andhra Pradesh Circle,Visakhapatnam Region,Srikakulam Division,Venkampeta B.O,532122,BO,Delivery,SRIKAKULAM,ANDHRA PRADESH,18.5263611,83.6318055
Andhra Pradesh Circle,Visakhapatnam Region,Srikakulam Division,Bathupuram B.O,532219,BO,Delivery,SRIKAKULAM,ANDHRA PRADESH,18.7515556,84.4871121
Andhra Pradesh Circle,Visakhapatnam Region,Srikakulam Division,Metturu B.O,532219,BO,Delivery,SRIKAKULAM,ANDHRA PRADESH,18.7515556,84.4871121
Andhra Pradesh Circle,Visakhapatnam Region,Srikakulam Division,Vonkuluru B.O,532219,BO,Delivery,SRIKAKULAM,ANDHRA PRADESH,18.7515556,84.4871121
Andhra Pradesh Circle,Visakhapatnam Region,Srikakulam Division,Badupuram B.O,532264,BO,Delivery,SRIKAKULAM,ANDHRA PRADESH,18.9009720,84.5533055
Andhra Pradesh Circle,Visakhapatnam Region,Srikakulam Division,Bhogapuram B.O,532264,BO,Delivery,SRIKAKULAM,ANDHRA PRADESH,18.9009720,84.5533055
Andhra Pradesh Circle,Visakhapatnam Region,Srikakulam Division,Turakasasanam B.O,532264,BO,Delivery,SRIKAKULAM,ANDHRA PRADESH,18.9009720,84.5533055
Andhra Pradesh Circle,Visakhapatnam Region,Srikakulam Division,Budarisingi BO,532264,BO,Delivery,SRIKAKULAM,ANDHRA PRADESH,18.9445,84.4435
Andhra Pradesh Circle,Visakhapatnam Region,Srikakulam Division,Gollagandi B.O,532263,BO,Delivery,SRIKAKULAM,ANDHRA PRADESH,18.8831111,84.5829444
Andhra Pradesh Circle,Visakhapatnam Region,Srikakulam Division,Venkatapuram B.O,532220,BO,Delivery,SRIKAKULAM,ANDHRA PRADESH,18.7456388,84.3845833
Andhra Pradesh Circle,Visakhapatnam Region,Srikakulam Division,Bantukotturu B.O,532220,BO,Delivery,SRIKAKULAM,ANDHRA PRADESH,18.7627,84.3865
Andhra Pradesh Circle,Visakhapatnam Region,Srikakulam Division,Amalakudiya BO,532220,BO,Delivery,SRIKAKULAM,ANDHRA PRADESH,18.7442,84.3779
Andhra Pradesh Circle,Visakhapatnam Region,Srikakulam Division,Parasurampuram BO,532220,BO,Delivery,SRIKAKULAM,ANDHRA PRADESH,18.7415,84.2884
Andhra Pradesh Circle,Visakhapatnam Region,Srikakulam Division,Jhadupalli B.O,532216,BO,Delivery,SRIKAKULAM,ANDHRA PRADESH,18.7709444,84.1853880
Andhra Pradesh Circle,Visakhapatnam Region,Srikakulam Division,Sekharapuram B.O,532216,BO,Delivery,SRIKAKULAM,ANDHRA PRADESH,18.7709444,84.1853880
Andhra Pradesh Circle,Visakhapatnam Region,Srikakulam Division,Banapuram B.O,532216,BO,Delivery,SRIKAKULAM,ANDHRA PRADESH,17.0587,80.1252
Andhra Pradesh Circle,Visakhapatnam Region,Srikakulam Division,Garudakhandi B.O,532220,BO,Delivery,SRIKAKULAM,ANDHRA PRADESH,18.7456388,84.3845833
Andhra Pradesh Circle,Visakhapatnam Region,Srikakulam Division,Pedanarayanapuram B.O,532220,BO,Delivery,SRIKAKULAM,ANDHRA PRADESH,18.7456388,84.3845833
Andhra Pradesh Circle,Visakhapatnam Region,Srikakulam Division,Arakabhadra BO,532312,BO,Delivery,SRIKAKULAM,ANDHRA PRADESH,19.1006,84.6139
Andhra Pradesh Circle,Visakhapatnam Region,Srikakulam Division,Rattakanna B.O,532312,BO,Delivery,SRIKAKULAM,ANDHRA PRADESH,19.1174110,84.6861944
Andhra Pradesh Circle,Visakhapatnam Region,Srikakulam Division,MUCHINDRA,532312,BO,Delivery,SRIKAKULAM,ANDHRA PRADESH,19.1247510,84.6564130
Andhra Pradesh Circle,Visakhapatnam Region,Srikakulam Division,Gorlapadu B.O,532290,BO,Delivery,SRIKAKULAM,ANDHRA PRADESH,18.9756667,84.5805277
Andhra Pradesh Circle,Visakhapatnam Region,Srikakulam Division,Makarampuram B.O,532290,BO,Delivery,SRIKAKULAM,ANDHRA PRADESH,18.9756667,84.5805277
Andhra Pradesh Circle,Visakhapatnam Region,Srikakulam Division,Gangaram B.O,532195,BO,Delivery,SRIKAKULAM,ANDHRA PRADESH,18.5185277,84.1520550
Andhra Pradesh Circle,Visakhapatnam Region,Srikakulam Division,Jarjangi B.O,532195,BO,Delivery,SRIKAKULAM,ANDHRA PRADESH,18.5185277,84.1520550
Andhra Pradesh Circle,Visakhapatnam Region,Srikakulam Division,Kotabomma R.S. B.O,532195,BO,Delivery,SRIKAKULAM,ANDHRA PRADESH,18.5185277,84.1520550
Andhra Pradesh Circle,Visakhapatnam Region,Srikakulam Division,Sondipudi B.O,532242,BO,Delivery,SRIKAKULAM,ANDHRA PRADESH,18.8715277,84.4615110
Andhra Pradesh Circle,Visakhapatnam Region,Srikakulam Division,Borivanka B.O,532292,BO,Delivery,SRIKAKULAM,ANDHRA PRADESH,18.9517770,84.6317220
Andhra Pradesh Circle,Visakhapatnam Region,Srikakulam Division,Isakalapalem B.O,532292,BO,Delivery,SRIKAKULAM,ANDHRA PRADESH,18.9517770,84.6317220
Andhra Pradesh Circle,Visakhapatnam Region,Srikakulam Division,Dolagovindapuram B.O,532291,BO,Delivery,SRIKAKULAM,ANDHRA PRADESH,19.0006944,84.5674166
Andhra Pradesh Circle,Visakhapatnam Region,Srikakulam Division,Kesaripada B.O,532291,BO,Delivery,SRIKAKULAM,ANDHRA PRADESH,19.0006944,84.5674166
Andhra Pradesh Circle,Visakhapatnam Region,Srikakulam Division,Mundala B.O,532291,BO,Delivery,SRIKAKULAM,ANDHRA PRADESH,19.0006944,84.5674166
Andhra Pradesh Circle,Visakhapatnam Region,Srikakulam Division,Dandugopalapuram B.O,532212,BO,Delivery,SRIKAKULAM,ANDHRA PRADESH,18.5771660,84.2844722
Andhra Pradesh Circle,Visakhapatnam Region,Srikakulam Division,Dimilada B.O,532212,BO,Delivery,SRIKAKULAM,ANDHRA PRADESH,18.5771660,84.2844722
Andhra Pradesh Circle,Visakhapatnam Region,Srikakulam Division,Jandapeta B.O,532212,BO,Delivery,SRIKAKULAM,ANDHRA PRADESH,18.5771660,84.2844722
Andhra Pradesh Circle,Visakhapatnam Region,Srikakulam Division,Ravivalasa B.O,532212,BO,Delivery,SRIKAKULAM,ANDHRA PRADESH,18.5771660,84.2844722
Andhra Pradesh Circle,Visakhapatnam Region,Srikakulam Division,Marripadu B.O,532211,BO,Delivery,SRIKAKULAM,ANDHRA PRADESH,18.2962500,83.8936944
Andhra Pradesh Circle,Visakhapatnam Region,Srikakulam Division,Meghavaram B.O,532211,BO,Delivery,SRIKAKULAM,ANDHRA PRADESH,18.2962500,83.8936944
Andhra Pradesh Circle,Visakhapatnam Region,Srikakulam Division,Kedaripuram B.O,532221,BO,Delivery,SRIKAKULAM,ANDHRA PRADESH,18.7745000,84.4101110
Andhra Pradesh Circle,Visakhapatnam Region,Srikakulam Division,Rentikota B.O,532221,BO,Delivery,SRIKAKULAM,ANDHRA PRADESH,18.7745000,84.4101110
Andhra Pradesh Circle,Visakhapatnam Region,Srikakulam Division,Tarlakota B.O,532221,BO,Delivery,SRIKAKULAM,ANDHRA PRADESH,18.7745000,84.4101110
Andhra Pradesh Circle,Visakhapatnam Region,Srikakulam Division,Amalapadu B.O,532218,BO,Delivery,SRIKAKULAM,ANDHRA PRADESH,18.6661110,84.3686380
Andhra Pradesh Circle,Visakhapatnam Region,Srikakulam Division,Buragam B.O,532284,BO,Delivery,SRIKAKULAM,ANDHRA PRADESH,18.9460550,84.5854444
Andhra Pradesh Circle,Visakhapatnam Region,Srikakulam Division,Aitam Engg.College B.O,532203,BO,Delivery,SRIKAKULAM,ANDHRA PRADESH,18.6068333,84.2365550
Andhra Pradesh Circle,Visakhapatnam Region,Srikakulam Division,Chakipalli B.O,532203,BO,Delivery,SRIKAKULAM,ANDHRA PRADESH,18.6068333,84.2365550
Andhra Pradesh Circle,Visakhapatnam Region,Srikakulam Division,Dimidijola B.O,532203,BO,Delivery,SRIKAKULAM,ANDHRA PRADESH,18.6068333,84.2365550
Andhra Pradesh Circle,Visakhapatnam Region,Srikakulam Division,Nowgam B.O,532203,BO,Delivery,SRIKAKULAM,ANDHRA PRADESH,18.6068333,84.2365550
Andhra Pradesh Circle,Visakhapatnam Region,Srikakulam Division,Rangoi B.O,532243,BO,Delivery,SRIKAKULAM,ANDHRA PRADESH,18.8486660,84.5038611
Andhra Pradesh Circle,Visakhapatnam Region,Srikakulam Division,Suvarnapuram B.O,532243,BO,Delivery,SRIKAKULAM,ANDHRA PRADESH,18.8486660,84.5038611
Andhra Pradesh Circle,Visakhapatnam Region,Srikakulam Division,Tallabhadra B.O,532243,BO,Delivery,SRIKAKULAM,ANDHRA PRADESH,18.8486660,84.5038611
Andhra Pradesh Circle,Visakhapatnam Region,Srikakulam Division,Loharibanda BO,532243,BO,Delivery,SRIKAKULAM,ANDHRA PRADESH,18.856,84.5563
Andhra Pradesh Circle,Visakhapatnam Region,Srikakulam Division,Deppilugonapaputtuga B.O,532312,BO,Delivery,SRIKAKULAM,ANDHRA PRADESH,19.1174110,84.6861944
Andhra Pradesh Circle,Visakhapatnam Region,Srikakulam Division,Dharmapuram B.O,532312,BO,Delivery,SRIKAKULAM,ANDHRA PRADESH,19.1174110,84.6861944
Andhra Pradesh Circle,Visakhapatnam Region,Srikakulam Division,Edupuram B.O,532312,BO,Delivery,SRIKAKULAM,ANDHRA PRADESH,19.1174110,84.6861944
Andhra Pradesh Circle,Visakhapatnam Region,Srikakulam Division,Haripuram B.O,532312,BO,Delivery,SRIKAKULAM,ANDHRA PRADESH,19.1174110,84.6861944
Andhra Pradesh Circle,Visakhapatnam Region,Srikakulam Division,Karapadu B.O,532312,BO,Delivery,SRIKAKULAM,ANDHRA PRADESH,19.1174110,84.6861944
Andhra Pradesh Circle,Visakhapatnam Region,Srikakulam Division,Kesupuram B.O,532312,BO,Delivery,SRIKAKULAM,ANDHRA PRADESH,19.1174110,84.6861944
Andhra Pradesh Circle,Visakhapatnam Region,Srikakulam Division,Peddakojjiria B.O,532290,BO,Delivery,SRIKAKULAM,ANDHRA PRADESH,18.9756667,84.5805277
Andhra Pradesh Circle,Visakhapatnam Region,Srikakulam Division,Anthrakudda B.O,532222,BO,Delivery,SRIKAKULAM,ANDHRA PRADESH,18.2962500,83.8936944
Andhra Pradesh Circle,Visakhapatnam Region,Srikakulam Division,Boddapadu B.O,532222,BO,Delivery,SRIKAKULAM,ANDHRA PRADESH,18.2962500,83.8936944
Andhra Pradesh Circle,Visakhapatnam Region,Srikakulam Division,Chinabadam B.O,532222,BO,Delivery,SRIKAKULAM,ANDHRA PRADESH,18.2962500,83.8936944
Andhra Pradesh Circle,Visakhapatnam Region,Srikakulam Division,Dokulapadu B.O,532222,BO,Delivery,SRIKAKULAM,ANDHRA PRADESH,18.2962500,83.8936944
Andhra Pradesh Circle,Visakhapatnam Region,Srikakulam Division,Kapaskudda B.O,532322,BO,Delivery,SRIKAKULAM,ANDHRA PRADESH,19.0113611,84.6902500
Andhra Pradesh Circle,Visakhapatnam Region,Srikakulam Division,Rajapuram B.O,532322,BO,Delivery,SRIKAKULAM,ANDHRA PRADESH,19.0113611,84.6902500
Andhra Pradesh Circle,Visakhapatnam Region,Srikakulam Division,Silagam B.O,532322,BO,Delivery,SRIKAKULAM,ANDHRA PRADESH,19.0113611,84.6902500
Andhra Pradesh Circle,Visakhapatnam Region,Srikakulam Division,Danta B.O,532195,BO,Delivery,SRIKAKULAM,ANDHRA PRADESH,18.5185277,84.1520550
Andhra Pradesh Circle,Visakhapatnam Region,Srikakulam Division,Kamalanabhapuram B.O,532195,BO,Delivery,SRIKAKULAM,ANDHRA PRADESH,18.5185277,84.1520550
Andhra Pradesh Circle,Visakhapatnam Region,Srikakulam Division,Kakarapalli B.O,532195,BO,Delivery,SRIKAKULAM,ANDHRA PRADESH,18.2978,83.8987
Andhra Pradesh Circle,Visakhapatnam Region,Srikakulam Division,Talatampara B.O,532292,BO,Delivery,SRIKAKULAM,ANDHRA PRADESH,18.9517770,84.6317220
Andhra Pradesh Circle,Visakhapatnam Region,Srikakulam Division,Siriakhandi B.O,532215,BO,Delivery,SRIKAKULAM,ANDHRA PRADESH,18.7695566,84.1688611
Andhra Pradesh Circle,Visakhapatnam Region,Srikakulam Division,Vasundhara B.O,532215,BO,Delivery,SRIKAKULAM,ANDHRA PRADESH,18.7695566,84.1688611
Andhra Pradesh Circle,Visakhapatnam Region,Srikakulam Division,Venkatapuram B.O,532215,BO,Delivery,SRIKAKULAM,ANDHRA PRADESH,18.6991,84.2274
Andhra Pradesh Circle,Visakhapatnam Region,Srikakulam Division,Sarubujjili B.O,532458,BO,Delivery,SRIKAKULAM,ANDHRA PRADESH,18.2962500,83.8936960
Andhra Pradesh Circle,Visakhapatnam Region,Srikakulam Division,Kambalarayudupeta B.O,532218,BO,Delivery,SRIKAKULAM,ANDHRA PRADESH,18.6661110,84.3686380
Andhra Pradesh Circle,Visakhapatnam Region,Srikakulam Division,Kondavooru B.O,532218,BO,Delivery,SRIKAKULAM,ANDHRA PRADESH,18.6661110,84.3686380
Andhra Pradesh Circle,Visakhapatnam Region,Srikakulam Division,Pathatekkali B.O,532218,BO,Delivery,SRIKAKULAM,ANDHRA PRADESH,18.6661110,84.3686380
Andhra Pradesh Circle,Visakhapatnam Region,Srikakulam Division,Brc Puram B.O,532284,BO,Delivery,SRIKAKULAM,ANDHRA PRADESH,18.9460550,84.5854444
Andhra Pradesh Circle,Visakhapatnam Region,Srikakulam Division,Jalantrakota B.O,532284,BO,Delivery,SRIKAKULAM,ANDHRA PRADESH,18.9460550,84.5854444
Andhra Pradesh Circle,Visakhapatnam Region,Srikakulam Division,Narasingupalli B.O,532203,BO,Delivery,SRIKAKULAM,ANDHRA PRADESH,18.6068333,84.2365550
Andhra Pradesh Circle,Visakhapatnam Region,Srikakulam Division,Parasurampuram B.O,532203,BO,Delivery,SRIKAKULAM,ANDHRA PRADESH,18.6068333,84.2365550
Andhra Pradesh Circle,Visakhapatnam Region,Srikakulam Division,Lingalavalasa B.O,532123,BO,Delivery,SRIKAKULAM,ANDHRA PRADESH,18.4554166,83.7517770
Andhra Pradesh Circle,Visakhapatnam Region,Srikakulam Division,Deenabhandupuram B.O,532215,BO,Delivery,SRIKAKULAM,ANDHRA PRADESH,18.7261,84.1725
Andhra Pradesh Circle,Visakhapatnam Region,Srikakulam Division,Kerasingi BO,532215,BO,Delivery,SRIKAKULAM,ANDHRA PRADESH,18.7395,84.2252
Andhra Pradesh Circle,Visakhapatnam Region,Srikakulam Division,Poleru B.O,532291,BO,Delivery,SRIKAKULAM,ANDHRA PRADESH,19.0006944,84.5674166
Andhra Pradesh Circle,Visakhapatnam Region,Srikakulam Division,Sailada B.O,532212,BO,Delivery,SRIKAKULAM,ANDHRA PRADESH,18.618,84.3391
Andhra Pradesh Circle,Visakhapatnam Region,Srikakulam Division,Kothalingudu B.O,532211,BO,Delivery,SRIKAKULAM,ANDHRA PRADESH,18.2962500,83.8936944
Andhra Pradesh Circle,Visakhapatnam Region,Srikakulam Division,Lakkivalasa B.O,532211,BO,Delivery,SRIKAKULAM,ANDHRA PRADESH,18.5771660,83.8936944
Andhra Pradesh Circle,Visakhapatnam Region,Srikakulam Division,Bharanikota BO,532221,BO,Delivery,SRIKAKULAM,ANDHRA PRADESH,18.7949,84.3033
Andhra Pradesh Circle,Visakhapatnam Region,Srikakulam Division,Komaraltada B.O,532218,BO,Delivery,SRIKAKULAM,ANDHRA PRADESH,18.6661110,84.3686380
Andhra Pradesh Circle,Visakhapatnam Region,Srikakulam Division,Reyyipadu B.O,532218,BO,Delivery,SRIKAKULAM,ANDHRA PRADESH,18.6661110,84.3686380
Andhra Pradesh Circle,Visakhapatnam Region,Srikakulam Division,Singuru BO,532218,BO,Delivery,SRIKAKULAM,ANDHRA PRADESH,18.6199,84.3705
Andhra Pradesh Circle,Visakhapatnam Region,Srikakulam Division,UG Puram BO,532218,BO,Delivery,SRIKAKULAM,ANDHRA PRADESH,18.6511,84.3736
Andhra Pradesh Circle,Visakhapatnam Region,Srikakulam Division,Palasapuram B.O,532284,BO,Delivery,SRIKAKULAM,ANDHRA PRADESH,18.9460550,84.5854444
Andhra Pradesh Circle,Visakhapatnam Region,Srikakulam Division,Bhogabeni BO,532284,BO,Delivery,SRIKAKULAM,ANDHRA PRADESH,18.9877,84.555
Andhra Pradesh Circle,Visakhapatnam Region,Srikakulam Division,Pedalavunipalli B.O,532203,BO,Delivery,SRIKAKULAM,ANDHRA PRADESH,18.6068333,84.2365550
Andhra Pradesh Circle,Visakhapatnam Region,Srikakulam Division,Sasanam B.O,532203,BO,Delivery,SRIKAKULAM,ANDHRA PRADESH,18.6068333,84.2365550
Andhra Pradesh Circle,Visakhapatnam Region,Srikakulam Division,Siddhantham B.O,532458,BO,Delivery,SRIKAKULAM,ANDHRA PRADESH,18.2962500,83.8936944
Andhra Pradesh Circle,Visakhapatnam Region,Srikakulam Division,Telikipenta B.O,532458,BO,Delivery,SRIKAKULAM,ANDHRA PRADESH,18.2962354,83.8936944
Andhra Pradesh Circle,Visakhapatnam Region,Srikakulam Division,Vondrajola B.O,532458,BO,Delivery,SRIKAKULAM,ANDHRA PRADESH,18.8936954,83.8936954
Andhra Pradesh Circle,Visakhapatnam Region,Srikakulam Division,Govindapuram B.O,532123,BO,Delivery,SRIKAKULAM,ANDHRA PRADESH,18.4554657,83.7518570
Andhra Pradesh Circle,Visakhapatnam Region,Srikakulam Division,Mamidipalli B.O,532123,BO,Delivery,SRIKAKULAM,ANDHRA PRADESH,18.4554166,83.7517770
Andhra Pradesh Circle,Visakhapatnam Region,Srikakulam Division,KOTTAPALLI,532203,BO,Delivery,SRIKAKULAM,ANDHRA PRADESH,18.6118410,84.1387940
Andhra Pradesh Circle,Visakhapatnam Region,Srikakulam Division,LINGALAVALASA,532203,BO,Delivery,SRIKAKULAM,ANDHRA PRADESH,18.6058540,84.1566190
Andhra Pradesh Circle,Visakhapatnam Region,Srikakulam Division,NARSIPURAM,532203,BO,Delivery,SRIKAKULAM,ANDHRA PRADESH,18.6068337,84.2365558
Andhra Pradesh Circle,Visakhapatnam Region,Srikakulam Division,Bhagavanpuram BO,532203,BO,Delivery,SRIKAKULAM,ANDHRA PRADESH,18.4996,83.7591
Andhra Pradesh Circle,Visakhapatnam Region,Srikakulam Division,POLAVARAM,532203,BO,Delivery,SRIKAKULAM,ANDHRA PRADESH,18.6068332,84.2365552
Andhra Pradesh Circle,Visakhapatnam Region,Srikakulam Division,Baddumarri BO,532203,BO,Delivery,SRIKAKULAM,ANDHRA PRADESH,18.6315,84.1264
Andhra Pradesh Circle,Visakhapatnam Region,Srikakulam Division,Mamidivalasa B.O,532123,BO,Delivery,SRIKAKULAM,ANDHRA PRADESH,18.4554185,83.7517750
Andhra Pradesh Circle,Visakhapatnam Region,Parvathipuram Division,Sankili B.O,532440,BO,Delivery,SRIKAKULAM,ANDHRA PRADESH,83.7434000,18.5618000
Andhra Pradesh Circle,Visakhapatnam Region,Parvathipuram Division,Tampatapalli B.O,532440,BO,Delivery,SRIKAKULAM,ANDHRA PRADESH,83.7228000,18.5968000
Andhra Pradesh Circle,Visakhapatnam Region,Parvathipuram Division,Vatapagu B.O,532440,BO,Delivery,SRIKAKULAM,ANDHRA PRADESH,83.7057000,18.6339000
Andhra Pradesh Circle,Visakhapatnam Region,Parvathipuram Division,Voni B.O,532440,BO,Delivery,SRIKAKULAM,ANDHRA PRADESH,83.7654000,18.6303000
Andhra Pradesh Circle,Visakhapatnam Region,Parvathipuram Division,Sambham B.O,532443,BO,Delivery,SRIKAKULAM,ANDHRA PRADESH,83.8518000,18.6434000
Andhra Pradesh Circle,Visakhapatnam Region,Parvathipuram Division,Rajulagumada B.O,532461,BO,Delivery,SRIKAKULAM,ANDHRA PRADESH,83.5782000,18.6337000
Andhra Pradesh Circle,Visakhapatnam Region,Parvathipuram Division,Talagam B.O,532461,BO,Delivery,SRIKAKULAM,ANDHRA PRADESH,83.6011000,18.6475000
Andhra Pradesh Circle,Visakhapatnam Region,Parvathipuram Division,Kottisa B.O,532461,BO,Delivery,SRIKAKULAM,ANDHRA PRADESH,83.5782000,18.6337000
Andhra Pradesh Circle,Visakhapatnam Region,Parvathipuram Division,Gumada B.O,532460,BO,Delivery,SRIKAKULAM,ANDHRA PRADESH,83.7603000,18.7351000
Andhra Pradesh Circle,Visakhapatnam Region,Parvathipuram Division,Kadakella B.O,532460,BO,Delivery,SRIKAKULAM,ANDHRA PRADESH,83.7603400,18.7355000
Andhra Pradesh Circle,Visakhapatnam Region,Parvathipuram Division,Kambara B.O,532460,BO,Delivery,SRIKAKULAM,ANDHRA PRADESH,83.5866000,18.7138000
Andhra Pradesh Circle,Visakhapatnam Region,Parvathipuram Division,Killada B.O,532460,BO,Delivery,SRIKAKULAM,ANDHRA PRADESH,83.6868000,18.7638000
Andhra Pradesh Circle,Visakhapatnam Region,Parvathipuram Division,Narsipuram B.O,532460,BO,Delivery,SRIKAKULAM,ANDHRA PRADESH,83.4038000,18.7397000
Andhra Pradesh Circle,Visakhapatnam Region,Parvathipuram Division,Pedapolla B.O,532460,BO,Delivery,SRIKAKULAM,ANDHRA PRADESH,83.6870000,18.7637000
Andhra Pradesh Circle,Visakhapatnam Region,Parvathipuram Division,Pubbada B.O,532460,BO,Delivery,SRIKAKULAM,ANDHRA PRADESH,83.6868000,18.7636000
Andhra Pradesh Circle,Visakhapatnam Region,Parvathipuram Division,Regulapadu B.O,532460,BO,Delivery,SRIKAKULAM,ANDHRA PRADESH,83.6427000,18.6699000
Andhra Pradesh Circle,Visakhapatnam Region,Srikakulam Division,Temburu B.O,532203,BO,Delivery,SRIKAKULAM,ANDHRA PRADESH,18.6068333,84.2365550
Andhra Pradesh Circle,Visakhapatnam Region,Srikakulam Division,GUDEM,532203,BO,Delivery,SRIKAKULAM,ANDHRA PRADESH,18.6068333,84.2365550
Andhra Pradesh Circle,Visakhapatnam Region,Srikakulam Division,Ayodhyapuram B.O,532203,BO,Delivery,SRIKAKULAM,ANDHRA PRADESH,18.6205,84.2611
Andhra Pradesh Circle,Visakhapatnam Region,Srikakulam Division,VENUGOPALAPURAM,532203,BO,Delivery,SRIKAKULAM,ANDHRA PRADESH,18.6068331,84.2365551
Andhra Pradesh Circle,Visakhapatnam Region,Srikakulam Division,Seethapuram B.O,532203,BO,Delivery,SRIKAKULAM,ANDHRA PRADESH,18.6068333,84.2365550
Andhra Pradesh Circle,Visakhapatnam Region,Srikakulam Division,NANDIGAM,532203,BO,Delivery,SRIKAKULAM,ANDHRA PRADESH,18.6068337,84.2365562
Andhra Pradesh Circle,Visakhapatnam Region,Parvathipuram Division,Adavaram B.O,532440,BO,Delivery,SRIKAKULAM,ANDHRA PRADESH,83.7619000,18.5294000
Andhra Pradesh Circle,Visakhapatnam Region,Parvathipuram Division,Kondapuram B.O,532440,BO,Delivery,SRIKAKULAM,ANDHRA PRADESH,83.7714000,18.5910000
Andhra Pradesh Circle,Visakhapatnam Region,Parvathipuram Division,Purli B.O,532440,BO,Delivery,SRIKAKULAM,ANDHRA PRADESH,83.7691000,18.5650000
Andhra Pradesh Circle,Visakhapatnam Region,Parvathipuram Division,Sivvam B.O,532461,BO,Non Delivery,SRIKAKULAM,ANDHRA PRADESH,83.6200000,18.6274000
Andhra Pradesh Circle,Visakhapatnam Region,Parvathipuram Division,Vangara B.O,532461,BO,Non Delivery,SRIKAKULAM,ANDHRA PRADESH,83.6082000,18.6185000
Andhra Pradesh Circle,Visakhapatnam Region,Parvathipuram Division,Donubai B.O,532460,BO,Delivery,SRIKAKULAM,ANDHRA PRADESH,83.7242000,18.7426600
Andhra Pradesh Circle,Visakhapatnam Region,Parvathipuram Division,Titukupai B.O,532460,BO,Delivery,SRIKAKULAM,ANDHRA PRADESH,83.6869000,18.7637000
Andhra Pradesh Circle,Visakhapatnam Region,Parvathipuram Division,Vanduva B.O,532460,BO,Delivery,SRIKAKULAM,ANDHRA PRADESH,83.6407000,18.6484000
Andhra Pradesh Circle,Visakhapatnam Region,Srikakulam Division,Singidi B.O,532456,BO,Delivery,SRIKAKULAM,ANDHRA PRADESH,18.2400000,83.9100000
Andhra Pradesh Circle,Visakhapatnam Region,Srikakulam Division,Guttavilli B.O,532445,BO,Delivery,SRIKAKULAM,ANDHRA PRADESH,18.5191333,83.7993066
Andhra Pradesh Circle,Visakhapatnam Region,Srikakulam Division,Javam B.O,532445,BO,Delivery,SRIKAKULAM,ANDHRA PRADESH,18.5191222,83.7993055
Andhra Pradesh Circle,Visakhapatnam Region,Srikakulam Division,Khandyam B.O,532445,BO,Delivery,SRIKAKULAM,ANDHRA PRADESH,18.5191332,83.7993055
Andhra Pradesh Circle,Visakhapatnam Region,Srikakulam Division,Neelampeta B.O,532445,BO,Delivery,SRIKAKULAM,ANDHRA PRADESH,18.8190033,83.7993049
Andhra Pradesh Circle,Visakhapatnam Region,Srikakulam Division,Thotavada B.O,532445,BO,Delivery,SRIKAKULAM,ANDHRA PRADESH,18.5191290,83.7993044
Andhra Pradesh Circle,Visakhapatnam Region,Srikakulam Division,Annampeta BO,532445,BO,Delivery,SRIKAKULAM,ANDHRA PRADESH,18.514,83.8725
Andhra Pradesh Circle,Visakhapatnam Region,Srikakulam Division,Thogaram B.O,532484,BO,Delivery,SRIKAKULAM,ANDHRA PRADESH,18.3523785,83.8586956
Andhra Pradesh Circle,Visakhapatnam Region,Srikakulam Division,Vanjangi B.O,532484,BO,Delivery,SRIKAKULAM,ANDHRA PRADESH,18.3523856,83.8585985
Andhra Pradesh Circle,Visakhapatnam Region,Srikakulam Division,Lankam BO,532484,BO,Delivery,SRIKAKULAM,ANDHRA PRADESH,18.371,83.9036
Andhra Pradesh Circle,Visakhapatnam Region,Srikakulam Division,Akulatampara B.O,532459,BO,Delivery,SRIKAKULAM,ANDHRA PRADESH,18.6707501,83.9503054
Andhra Pradesh Circle,Visakhapatnam Region,Srikakulam Division,Bhagiradhipuram B.O,532459,BO,Delivery,SRIKAKULAM,ANDHRA PRADESH,18.6707499,83.9503045
Andhra Pradesh Circle,Visakhapatnam Region,Srikakulam Division,Padali B.O,532459,BO,Delivery,SRIKAKULAM,ANDHRA PRADESH,18.6707456,83.9503055
Andhra Pradesh Circle,Visakhapatnam Region,Srikakulam Division,Borubhadra B.O,532214,BO,Delivery,SRIKAKULAM,ANDHRA PRADESH,18.5836120,83.9035220
Andhra Pradesh Circle,Visakhapatnam Region,Srikakulam Division,Peddaseedhi B.O,532214,BO,Delivery,SRIKAKULAM,ANDHRA PRADESH,18.5836300,83.9035850
Andhra Pradesh Circle,Visakhapatnam Region,Srikakulam Division,Romadala B.O,532214,BO,Delivery,SRIKAKULAM,ANDHRA PRADESH,18.5836500,83.9035600
Andhra Pradesh Circle,Visakhapatnam Region,Srikakulam Division,KOMMANAPALLI,532214,BO,Delivery,SRIKAKULAM,ANDHRA PRADESH,18.6964360,83.9815740
Andhra Pradesh Circle,Visakhapatnam Region,Srikakulam Division,Ghanasara B.O,532455,BO,Delivery,SRIKAKULAM,ANDHRA PRADESH,18.7789444,83.8815360
Andhra Pradesh Circle,Visakhapatnam Region,Srikakulam Division,Gunabhadra B.O,532455,BO,Delivery,SRIKAKULAM,ANDHRA PRADESH,18.7789444,83.8815850
Andhra Pradesh Circle,Visakhapatnam Region,Srikakulam Division,Haddubangi B.O,532455,BO,Delivery,SRIKAKULAM,ANDHRA PRADESH,18.7789405,83.8815740
Andhra Pradesh Circle,Visakhapatnam Region,Srikakulam Division,Korama B.O,532455,BO,Delivery,SRIKAKULAM,ANDHRA PRADESH,18.7789442,83.8815920
Andhra Pradesh Circle,Visakhapatnam Region,Srikakulam Division,Marripadu B.O,532455,BO,Delivery,SRIKAKULAM,ANDHRA PRADESH,18.7789444,83.8815740
Andhra Pradesh Circle,Visakhapatnam Region,Srikakulam Division,Parapuram B.O,532455,BO,Delivery,SRIKAKULAM,ANDHRA PRADESH,18.7789450,83.8815960
Andhra Pradesh Circle,Visakhapatnam Region,Srikakulam Division,Peddadimili B.O,532455,BO,Delivery,SRIKAKULAM,ANDHRA PRADESH,18.7789445,83.8815450
Andhra Pradesh Circle,Visakhapatnam Region,Srikakulam Division,Puliputti B.O,532455,BO,Delivery,SRIKAKULAM,ANDHRA PRADESH,18.7789465,83.8815320
Andhra Pradesh Circle,Visakhapatnam Region,Srikakulam Division,Sirusuvada B.O,532455,BO,Delivery,SRIKAKULAM,ANDHRA PRADESH,18.7789425,83.8815940
Andhra Pradesh Circle,Visakhapatnam Region,Srikakulam Division,Gurandi B.O,532456,BO,Delivery,SRIKAKULAM,ANDHRA PRADESH,18.7832245,83.8737774
Andhra Pradesh Circle,Visakhapatnam Region,Srikakulam Division,Loharijola B.O,532456,BO,Delivery,SRIKAKULAM,ANDHRA PRADESH,18.7832264,83.8737774
Andhra Pradesh Circle,Visakhapatnam Region,Srikakulam Division,Togiri B.O,532427,BO,Delivery,SRIKAKULAM,ANDHRA PRADESH,18.5439167,84.0132776
Andhra Pradesh Circle,Visakhapatnam Region,Srikakulam Division,Yalamanchili B.O,532427,BO,Delivery,SRIKAKULAM,ANDHRA PRADESH,18.5439166,84.0132776
Andhra Pradesh Circle,Visakhapatnam Region,Srikakulam Division,Belamam B.O,532484,BO,Delivery,SRIKAKULAM,ANDHRA PRADESH,18.3523887,83.8585990
Andhra Pradesh Circle,Visakhapatnam Region,Srikakulam Division,Ragolu B.O,532484,BO,Delivery,SRIKAKULAM,ANDHRA PRADESH,18.3523855,83.8585895
Andhra Pradesh Circle,Visakhapatnam Region,Srikakulam Division,Labba B.O,532459,BO,Delivery,SRIKAKULAM,ANDHRA PRADESH,18.6707599,83.9503030
Andhra Pradesh Circle,Visakhapatnam Region,Srikakulam Division,Tulagam B.O,532459,BO,Delivery,SRIKAKULAM,ANDHRA PRADESH,18.6704561,83.9503056
Andhra Pradesh Circle,Visakhapatnam Region,Srikakulam Division,Tungatampara B.O,532459,BO,Delivery,SRIKAKULAM,ANDHRA PRADESH,18.6707512,83.9503055
Andhra Pradesh Circle,Visakhapatnam Region,Srikakulam Division,Somarajapuram B.O,532459,BO,Delivery,SRIKAKULAM,ANDHRA PRADESH,18.7711,83.968
Andhra Pradesh Circle,Visakhapatnam Region,Srikakulam Division,Challavanipeta B.O,532432,BO,Delivery,SRIKAKULAM,ANDHRA PRADESH,18.6707456,83.9503045
Andhra Pradesh Circle,Visakhapatnam Region,Srikakulam Division,Gotivada B.O,532432,BO,Delivery,SRIKAKULAM,ANDHRA PRADESH,18.5110232,84.0390114
Andhra Pradesh Circle,Visakhapatnam Region,Srikakulam Division,Gonepadu B.O,532458,BO,Delivery,SRIKAKULAM,ANDHRA PRADESH,18.2936325,83.8936450
Andhra Pradesh Circle,Visakhapatnam Region,Srikakulam Division,Bhamini B.O,532456,BO,Delivery,SRIKAKULAM,ANDHRA PRADESH,18.9099410,83.8185630
Andhra Pradesh Circle,Visakhapatnam Region,Srikakulam Division,Manumakonda BO,532456,BO,Delivery,SRIKAKULAM,ANDHRA PRADESH,18.9962,83.772
Andhra Pradesh Circle,Visakhapatnam Region,Srikakulam Division,Bhadri B.O,532427,BO,Delivery,SRIKAKULAM,ANDHRA PRADESH,18.5439156,84.0132777
Andhra Pradesh Circle,Visakhapatnam Region,Srikakulam Division,Timadam B.O,532427,BO,Delivery,SRIKAKULAM,ANDHRA PRADESH,18.5439166,84.0132776
Andhra Pradesh Circle,Visakhapatnam Region,Srikakulam Division,Lakkupuram B.O,532445,BO,Delivery,SRIKAKULAM,ANDHRA PRADESH,18.5191322,83.7992956
Andhra Pradesh Circle,Visakhapatnam Region,Srikakulam Division,Peddapeta BO,532445,BO,Delivery,SRIKAKULAM,ANDHRA PRADESH,18.5581,83.8079
Andhra Pradesh Circle,Visakhapatnam Region,Srikakulam Division,Modallavalasa B.O,532484,BO,Delivery,SRIKAKULAM,ANDHRA PRADESH,18.3523878,83.8585456
Andhra Pradesh Circle,Visakhapatnam Region,Srikakulam Division,Tadivalasa B.O,532484,BO,Delivery,SRIKAKULAM,ANDHRA PRADESH,18.3523884,83.8585985
Andhra Pradesh Circle,Visakhapatnam Region,Srikakulam Division,Gurandi B.O,532459,BO,Delivery,SRIKAKULAM,ANDHRA PRADESH,18.6707499,83.9503098
Andhra Pradesh Circle,Visakhapatnam Region,Srikakulam Division,Kommuvalasa B.O,532459,BO,Delivery,SRIKAKULAM,ANDHRA PRADESH,18.6707588,83.0305589
Andhra Pradesh Circle,Visakhapatnam Region,Srikakulam Division,Kondaragolu B.O,532459,BO,Delivery,SRIKAKULAM,ANDHRA PRADESH,18.6707545,83.9504562
Andhra Pradesh Circle,Visakhapatnam Region,Srikakulam Division,Karavanja B.O,532432,BO,Delivery,SRIKAKULAM,ANDHRA PRADESH,18.5110245,84.0395624
Andhra Pradesh Circle,Visakhapatnam Region,Srikakulam Division,Chennaivalasa BO,532432,BO,Delivery,SRIKAKULAM,ANDHRA PRADESH,18.5016,83.9929
Andhra Pradesh Circle,Visakhapatnam Region,Srikakulam Division,Dhanupuram B.O,532214,BO,Delivery,SRIKAKULAM,ANDHRA PRADESH,18.5836500,83.9034500
Andhra Pradesh Circle,Visakhapatnam Region,Srikakulam Division,Kallata B.O,532214,BO,Delivery,SRIKAKULAM,ANDHRA PRADESH,18.5837700,83.9035450
Andhra Pradesh Circle,Visakhapatnam Region,Srikakulam Division,Baleru B.O,532455,BO,Delivery,SRIKAKULAM,ANDHRA PRADESH,18.7789400,83.8815000
Andhra Pradesh Circle,Visakhapatnam Region,Srikakulam Division,Putikavalasa BO,532455,BO,Delivery,SRIKAKULAM,ANDHRA PRADESH,18.7582,83.8003
Andhra Pradesh Circle,Visakhapatnam Region,Srikakulam Division,Chintalabadavanja B.O,532458,BO,Delivery,SRIKAKULAM,ANDHRA PRADESH,18.2962500,83.8936420
Andhra Pradesh Circle,Visakhapatnam Region,Srikakulam Division,Kadagandi B.O,532458,BO,Delivery,SRIKAKULAM,ANDHRA PRADESH,18.2967566,83.8936754
Andhra Pradesh Circle,Visakhapatnam Region,Srikakulam Division,Peddakota B.O,532458,BO,Delivery,SRIKAKULAM,ANDHRA PRADESH,18.2962630,83.8936452
Andhra Pradesh Circle,Visakhapatnam Region,Srikakulam Division,Maniga BO,532456,BO,Delivery,SRIKAKULAM,ANDHRA PRADESH,18.9141,83.7651
Andhra Pradesh Circle,Visakhapatnam Region,Srikakulam Division,Kommanapalli B.O,532427,BO,Delivery,SRIKAKULAM,ANDHRA PRADESH,18.5439166,84.0132777
Andhra Pradesh Circle,Visakhapatnam Region,Srikakulam Division,Allena B.O,532445,BO,Delivery,SRIKAKULAM,ANDHRA PRADESH,18.5191332,83.7993055
Andhra Pradesh Circle,Visakhapatnam Region,Srikakulam Division,Labham B.O,532445,BO,Delivery,SRIKAKULAM,ANDHRA PRADESH,18.5191222,83.7993056
Andhra Pradesh Circle,Visakhapatnam Region,Srikakulam Division,Mamidivalasa B.O,532445,BO,Delivery,SRIKAKULAM,ANDHRA PRADESH,18.5191311,83.7992995
Andhra Pradesh Circle,Visakhapatnam Region,Srikakulam Division,Gudem B.O,532484,BO,Delivery,SRIKAKULAM,ANDHRA PRADESH,18.3524885,83.8585492
Andhra Pradesh Circle,Visakhapatnam Region,Srikakulam Division,Thotada B.O,532484,BO,Delivery,SRIKAKULAM,ANDHRA PRADESH,18.3523856,83.8585895
Andhra Pradesh Circle,Visakhapatnam Region,Srikakulam Division,Gulumuru B.O,532459,BO,Delivery,SRIKAKULAM,ANDHRA PRADESH,18.6707545,83.9503098
Andhra Pradesh Circle,Visakhapatnam Region,Srikakulam Division,Irapadu B.O,532459,BO,Delivery,SRIKAKULAM,ANDHRA PRADESH,18.6707456,83.9504125
Andhra Pradesh Circle,Visakhapatnam Region,Srikakulam Division,Neradi B.O,532459,BO,Delivery,SRIKAKULAM,ANDHRA PRADESH,18.6707598,83.9502956
Andhra Pradesh Circle,Visakhapatnam Region,Srikakulam Division,Pedasankili B.O,532459,BO,Delivery,SRIKAKULAM,ANDHRA PRADESH,18.6707523,83.9503055
Andhra Pradesh Circle,Visakhapatnam Region,Srikakulam Division,Regulapadu B.O,532432,BO,Delivery,SRIKAKULAM,ANDHRA PRADESH,18.5102452,84.0391112
Andhra Pradesh Circle,Visakhapatnam Region,Parvathipuram Division,Dalemrajuvalasa B.O,535128,BO,Delivery,SRIKAKULAM,ANDHRA PRADESH,83.6018000,18.3700000
Andhra Pradesh Circle,Visakhapatnam Region,Parvathipuram Division,Routhupeta B.O,535128,BO,Delivery,SRIKAKULAM,ANDHRA PRADESH,83.6018000,18.3700000
Andhra Pradesh Circle,Visakhapatnam Region,Parvathipuram Division,Regidi B.O,532440,BO,Delivery,SRIKAKULAM,ANDHRA PRADESH,83.7228000,18.5968000
Andhra Pradesh Circle,Visakhapatnam Region,Parvathipuram Division,Bukkuru B.O,532440,BO,Delivery,SRIKAKULAM,ANDHRA PRADESH,83.7263000,18.5727000
Andhra Pradesh Circle,Visakhapatnam Region,Parvathipuram Division,Gottamangalapuram B.O,532440,BO,Delivery,SRIKAKULAM,ANDHRA PRADESH,83.7264000,18.5728000
Andhra Pradesh Circle,Visakhapatnam Region,Parvathipuram Division,Komiri B.O,532440,BO,Delivery,SRIKAKULAM,ANDHRA PRADESH,83.7756000,18.5423000
Andhra Pradesh Circle,Visakhapatnam Region,Parvathipuram Division,Pedakotipalli B.O,532440,BO,Delivery,SRIKAKULAM,ANDHRA PRADESH,83.7715000,18.5911000
Andhra Pradesh Circle,Visakhapatnam Region,Parvathipuram Division,Gondi B.O,532443,BO,Delivery,SRIKAKULAM,ANDHRA PRADESH,83.8106000,18.6629000
Andhra Pradesh Circle,Visakhapatnam Region,Parvathipuram Division,Kodisa B.O,532443,BO,Delivery,SRIKAKULAM,ANDHRA PRADESH,83.6868000,18.7638000
Andhra Pradesh Circle,Visakhapatnam Region,Parvathipuram Division,Kuddapalli B.O,532443,BO,Delivery,SRIKAKULAM,ANDHRA PRADESH,83.8007000,18.6649000
Andhra Pradesh Circle,Visakhapatnam Region,Parvathipuram Division,Kusimi B.O,532443,BO,Delivery,SRIKAKULAM,ANDHRA PRADESH,83.8322000,18.6131000
Andhra Pradesh Circle,Visakhapatnam Region,Parvathipuram Division,Chidimi B.O,532460,BO,Delivery,SRIKAKULAM,ANDHRA PRADESH,83.6164000,18.6517000
Andhra Pradesh Circle,Visakhapatnam Region,Parvathipuram Division,Chittapudivalasa B.O,532460,BO,Delivery,SRIKAKULAM,ANDHRA PRADESH,83.6164800,18.6517800
Andhra Pradesh Circle,Visakhapatnam Region,Srikakulam Division,Chinakittalapadu B.O,532214,BO,Delivery,SRIKAKULAM,ANDHRA PRADESH,18.5862000,83.9035220
Andhra Pradesh Circle,Visakhapatnam Region,Srikakulam Division,Dharmalaxmipuram B.O,532214,BO,Delivery,SRIKAKULAM,ANDHRA PRADESH,18.5836700,83.9035670
Andhra Pradesh Circle,Visakhapatnam Region,Srikakulam Division,Pedalamba B.O,532214,BO,Delivery,SRIKAKULAM,ANDHRA PRADESH,18.5836300,83.9035300
Andhra Pradesh Circle,Visakhapatnam Region,Srikakulam Division,Chinnabagga B.O,532455,BO,Delivery,SRIKAKULAM,ANDHRA PRADESH,18.2962500,83.8815250
Andhra Pradesh Circle,Visakhapatnam Region,Srikakulam Division,Somagandi B.O,532455,BO,Delivery,SRIKAKULAM,ANDHRA PRADESH,18.7789412,83.8815310
Andhra Pradesh Circle,Visakhapatnam Region,Srikakulam Division,Dabbapadu B.O,532458,BO,Delivery,SRIKAKULAM,ANDHRA PRADESH,18.2962500,83.8935600
Andhra Pradesh Circle,Visakhapatnam Region,Srikakulam Division,Pedasavalapuram B.O,532458,BO,Delivery,SRIKAKULAM,ANDHRA PRADESH,18.2965430,83.8936245
Andhra Pradesh Circle,Visakhapatnam Region,Parvathipuram Division,Aradali B.O,532440,BO,Delivery,SRIKAKULAM,ANDHRA PRADESH,83.7233000,18.6217000
Andhra Pradesh Circle,Visakhapatnam Region,Parvathipuram Division,Pedarama B.O,532443,BO,Delivery,SRIKAKULAM,ANDHRA PRADESH,83.8018000,18.7049000
Andhra Pradesh Circle,Visakhapatnam Region,Parvathipuram Division,Manda B.O,532443,BO,Delivery,SRIKAKULAM,ANDHRA PRADESH,83.7961000,18.6827000
Andhra Pradesh Circle,Visakhapatnam Region,Parvathipuram Division,Pedduru B.O,532443,BO,Delivery,SRIKAKULAM,ANDHRA PRADESH,83.8286000,18.6816000
Andhra Pradesh Circle,Visakhapatnam Region,Parvathipuram Division,Rushingi B.O,532461,BO,Delivery,SRIKAKULAM,ANDHRA PRADESH,83.5860000,18.6592000
Andhra Pradesh Circle,Visakhapatnam Region,Parvathipuram Division,Gadagamma B.O,532460,BO,Delivery,SRIKAKULAM,ANDHRA PRADESH,83.6064000,18.6600000
Andhra Pradesh Circle,Visakhapatnam Region,Parvathipuram Division,Hussainpuram B.O,532460,BO,Delivery,SRIKAKULAM,ANDHRA PRADESH,83.7604000,18.7351200
Andhra Pradesh Circle,Visakhapatnam Region,Parvathipuram Division,Kathulakaviti B.O,532460,BO,Delivery,SRIKAKULAM,ANDHRA PRADESH,83.5867000,18.7139000
Andhra Pradesh Circle,Visakhapatnam Region,Parvathipuram Division,Mokhasarajapuram B.O,532460,BO,Delivery,SRIKAKULAM,ANDHRA PRADESH,83.6868000,18.7638000
Andhra Pradesh Circle,Visakhapatnam Region,Parvathipuram Division,Samarelli B.O,532460,BO,Delivery,SRIKAKULAM,ANDHRA PRADESH,83.6870000,18.7638000
Andhra Pradesh Circle,Visakhapatnam Region,Parvathipuram Division,Tudi B.O,532460,BO,Delivery,SRIKAKULAM,ANDHRA PRADESH,83.6407000,18.6484000
Andhra Pradesh Circle,Visakhapatnam Region,Parvathipuram Division,Maruwada B.O,535557,BO,Delivery,SRIKAKULAM,ANDHRA PRADESH,83.5473000,18.5546000
Andhra Pradesh Circle,Visakhapatnam Region,Parvathipuram Division,Bitiwada B.O,532462,BO,Delivery,SRIKAKULAM,ANDHRA PRADESH,83.6400000,18.6147000
Andhra Pradesh Circle,Visakhapatnam Region,Parvathipuram Division,Talavaram B.O,532462,BO,Delivery,SRIKAKULAM,ANDHRA PRADESH,83.6886000,18.6111000
Andhra Pradesh Circle,Visakhapatnam Region,Parvathipuram Division,Navagam B.O,532462,BO,Delivery,SRIKAKULAM,ANDHRA PRADESH,83.6795000,18.6395000
Andhra Pradesh Circle,Visakhapatnam Region,Parvathipuram Division,Potli B.O,532462,BO,Delivery,SRIKAKULAM,ANDHRA PRADESH,83.6902000,18.6479000
Andhra Pradesh Circle,Visakhapatnam Region,Parvathipuram Division,Singupuram B.O,532462,BO,Delivery,SRIKAKULAM,ANDHRA PRADESH,83.6903000,18.6480000
Andhra Pradesh Circle,Visakhapatnam Region,Parvathipuram Division,Bhasuru B.O,532440,BO,Delivery,SRIKAKULAM,ANDHRA PRADESH,83.7315000,18.6318000
Andhra Pradesh Circle,Visakhapatnam Region,Parvathipuram Division,Devudala B.O,532440,BO,Delivery,SRIKAKULAM,ANDHRA PRADESH,NA,18.5472000
Andhra Pradesh Circle,Visakhapatnam Region,Parvathipuram Division,Jamparakota B.O,532462,BO,Delivery,SRIKAKULAM,ANDHRA PRADESH,83.6889000,18.6112000
Andhra Pradesh Circle,Visakhapatnam Region,Parvathipuram Division,Kinjangi B.O,535557,BO,Delivery,SRIKAKULAM,ANDHRA PRADESH,83.5297000,18.6149000
Andhra Pradesh Circle,Visakhapatnam Region,Parvathipuram Division,Iruwada B.O,535557,BO,Delivery,SRIKAKULAM,ANDHRA PRADESH,83.5297000,18.6149000
Andhra Pradesh Circle,Visakhapatnam Region,Parvathipuram Division,Koppara B.O,535557,BO,Delivery,SRIKAKULAM,ANDHRA PRADESH,83.6089000,18.6169000
Andhra Pradesh Circle,Visakhapatnam Region,Parvathipuram Division,Garraju Chipurupalle B.O,535128,BO,Delivery,SRIKAKULAM,ANDHRA PRADESH,83.5668000,18.3089000
Andhra Pradesh Circle,Visakhapatnam Region,Srikakulam Division,Yeragam B.O,532458,BO,Delivery,SRIKAKULAM,ANDHRA PRADESH,18.2962503,83.8936541
Andhra Pradesh Circle,Visakhapatnam Region,Srikakulam Division,Mulasavalapuram BO,532458,BO,Delivery,SRIKAKULAM,ANDHRA PRADESH,18.5197,83.9231
Andhra Pradesh Circle,Visakhapatnam Region,Srikakulam Division,Nagarikatakam B.O,532428,BO,Delivery,SRIKAKULAM,ANDHRA PRADESH,18.6438545,84.0018565
Andhra Pradesh Circle,Visakhapatnam Region,Srikakulam Division,Jaduru B.O,532421,BO,Delivery,SRIKAKULAM,ANDHRA PRADESH,18.4181945,84.0463211
Andhra Pradesh Circle,Visakhapatnam Region,Srikakulam Division,Komarti B.O,532421,BO,Delivery,SRIKAKULAM,ANDHRA PRADESH,18.0460121,84.0462111
Andhra Pradesh Circle,Visakhapatnam Region,Srikakulam Division,Satyavaram B.O,532421,BO,Delivery,SRIKAKULAM,ANDHRA PRADESH,18.4180112,84.0451111
Andhra Pradesh Circle,Visakhapatnam Region,Srikakulam Division,Shalantri B.O,532190,BO,Delivery,SRIKAKULAM,ANDHRA PRADESH,18.4973330,83.9428330
Andhra Pradesh Circle,Visakhapatnam Region,Srikakulam Division,Labara B.O,532213,BO,Delivery,SRIKAKULAM,ANDHRA PRADESH,18.7470220,84.0879722
Andhra Pradesh Circle,Visakhapatnam Region,Srikakulam Division,Tiddimi B.O,532213,BO,Delivery,SRIKAKULAM,ANDHRA PRADESH,18.7470220,84.0879722
Andhra Pradesh Circle,Visakhapatnam Region,Srikakulam Division,Challayyavalasa B.O,532429,BO,Delivery,SRIKAKULAM,ANDHRA PRADESH,18.3748891,84.1046944
Andhra Pradesh Circle,Visakhapatnam Region,Srikakulam Division,Dola B.O,532429,BO,Delivery,SRIKAKULAM,ANDHRA PRADESH,18.3748891,84.1046944
Andhra Pradesh Circle,Visakhapatnam Region,Srikakulam Division,Nimmada B.O,532430,BO,Delivery,SRIKAKULAM,ANDHRA PRADESH,18.2853330,83.8958611
Andhra Pradesh Circle,Visakhapatnam Region,Srikakulam Division,Karakavalasa B.O,532428,BO,Delivery,SRIKAKULAM,ANDHRA PRADESH,18.6438332,84.0012354
Andhra Pradesh Circle,Visakhapatnam Region,Srikakulam Division,Devadi B.O,532421,BO,Delivery,SRIKAKULAM,ANDHRA PRADESH,18.4181945,84.0460833
Andhra Pradesh Circle,Visakhapatnam Region,Srikakulam Division,Talasamudram B.O,532429,BO,Delivery,SRIKAKULAM,ANDHRA PRADESH,18.3748891,84.1046944
Andhra Pradesh Circle,Visakhapatnam Region,Srikakulam Division,Mabagam B.O,532421,BO,Delivery,SRIKAKULAM,ANDHRA PRADESH,18.4181456,84.0460831
Andhra Pradesh Circle,Visakhapatnam Region,Srikakulam Division,Makivalasa B.O,532421,BO,Delivery,SRIKAKULAM,ANDHRA PRADESH,18.4180451,84.0456231
Andhra Pradesh Circle,Visakhapatnam Region,Srikakulam Division,Piruvada B.O,532421,BO,Delivery,SRIKAKULAM,ANDHRA PRADESH,18.4180021,84.0461211
Andhra Pradesh Circle,Visakhapatnam Region,Srikakulam Division,Karagam BO,532421,BO,Delivery,SRIKAKULAM,ANDHRA PRADESH,18.4415,83.9612
Andhra Pradesh Circle,Visakhapatnam Region,Srikakulam Division,Balada B.O,532457,BO,Delivery,SRIKAKULAM,ANDHRA PRADESH,18.7838056,83.9391511
Andhra Pradesh Circle,Visakhapatnam Region,Srikakulam Division,Dimili B.O,532457,BO,Delivery,SRIKAKULAM,ANDHRA PRADESH,18.7838055,83.9392550
Andhra Pradesh Circle,Visakhapatnam Region,Srikakulam Division,Kadumu B.O,532457,BO,Delivery,SRIKAKULAM,ANDHRA PRADESH,18.7838055,83.9392511
Andhra Pradesh Circle,Visakhapatnam Region,Srikakulam Division,Kurigam B.O,532457,BO,Delivery,SRIKAKULAM,ANDHRA PRADESH,18.7838056,83.9392511
Andhra Pradesh Circle,Visakhapatnam Region,Srikakulam Division,Alamajipeta B.O,532190,BO,Delivery,SRIKAKULAM,ANDHRA PRADESH,18.4973330,83.9428330
Andhra Pradesh Circle,Visakhapatnam Region,Srikakulam Division,Chiguruvalasa B.O,532190,BO,Delivery,SRIKAKULAM,ANDHRA PRADESH,18.4973330,83.9428333
Andhra Pradesh Circle,Visakhapatnam Region,Srikakulam Division,Kondavalasa B.O,532190,BO,Delivery,SRIKAKULAM,ANDHRA PRADESH,18.4973330,83.9428330
Andhra Pradesh Circle,Visakhapatnam Region,Srikakulam Division,Rottavalasa B.O,532190,BO,Delivery,SRIKAKULAM,ANDHRA PRADESH,18.4973300,83.9428333
Andhra Pradesh Circle,Visakhapatnam Region,Srikakulam Division,Peddamallipuram B.O,532213,BO,Delivery,SRIKAKULAM,ANDHRA PRADESH,18.7470220,84.0879722
Andhra Pradesh Circle,Visakhapatnam Region,Srikakulam Division,R.L.Puram B.O,532213,BO,Delivery,SRIKAKULAM,ANDHRA PRADESH,18.7470220,84.0879722
Andhra Pradesh Circle,Visakhapatnam Region,Srikakulam Division,Sarali B.O,532213,BO,Delivery,SRIKAKULAM,ANDHRA PRADESH,18.7470220,84.0879722
Andhra Pradesh Circle,Visakhapatnam Region,Srikakulam Division,Seetarampalli B.O,532213,BO,Delivery,SRIKAKULAM,ANDHRA PRADESH,18.7470220,84.0879722
Andhra Pradesh Circle,Visakhapatnam Region,Srikakulam Division,Amapalam B.O,532429,BO,Delivery,SRIKAKULAM,ANDHRA PRADESH,18.3748891,84.1046944
Andhra Pradesh Circle,Visakhapatnam Region,Srikakulam Division,Jagannadhapuram B.O,532430,BO,Delivery,SRIKAKULAM,ANDHRA PRADESH,18.2853330,83.8958611
Andhra Pradesh Circle,Visakhapatnam Region,Srikakulam Division,Koduru B.O,532430,BO,Delivery,SRIKAKULAM,ANDHRA PRADESH,18.2853330,83.8958611
Andhra Pradesh Circle,Visakhapatnam Region,Srikakulam Division,Gathalavalasa BO,532430,BO,Delivery,SRIKAKULAM,ANDHRA PRADESH,18.4157,84.1161
Andhra Pradesh Circle,Visakhapatnam Region,Srikakulam Division,Malagam BO,532430,BO,Delivery,SRIKAKULAM,ANDHRA PRADESH,18.4678,84.2358
Andhra Pradesh Circle,Visakhapatnam Region,Srikakulam Division,Annupuram B.O,532426,BO,Delivery,SRIKAKULAM,ANDHRA PRADESH,18.5922511,84.0525550
Andhra Pradesh Circle,Visakhapatnam Region,Srikakulam Division,Burujuvada B.O,532426,BO,Delivery,SRIKAKULAM,ANDHRA PRADESH,18.5922511,84.0525550
Andhra Pradesh Circle,Visakhapatnam Region,Srikakulam Division,Jamachakram B.O,532426,BO,Delivery,SRIKAKULAM,ANDHRA PRADESH,18.5922511,84.0525550
Andhra Pradesh Circle,Visakhapatnam Region,Srikakulam Division,Savaraddapanasa B.O,532426,BO,Delivery,SRIKAKULAM,ANDHRA PRADESH,18.5922511,84.0525550
Andhra Pradesh Circle,Visakhapatnam Region,Srikakulam Division,Nadagam B.O,532425,BO,Delivery,SRIKAKULAM,ANDHRA PRADESH,18.4341380,83.9851111
Andhra Pradesh Circle,Visakhapatnam Region,Srikakulam Division,B.S.Puram B.O,532186,BO,Delivery,SRIKAKULAM,ANDHRA PRADESH,18.2877770,83.9003333
Andhra Pradesh Circle,Visakhapatnam Region,Srikakulam Division,Cheemalavalasa B.O,532186,BO,Delivery,SRIKAKULAM,ANDHRA PRADESH,18.2877000,83.9003333
Andhra Pradesh Circle,Visakhapatnam Region,Srikakulam Division,CHINTHADA,532186,BO,Delivery,SRIKAKULAM,ANDHRA PRADESH,18.4089390,83.9038180
Andhra Pradesh Circle,Visakhapatnam Region,Srikakulam Division,Koyyam B.O,532408,BO,Delivery,SRIKAKULAM,ANDHRA PRADESH,18.2226660,83.8701944
Andhra Pradesh Circle,Visakhapatnam Region,Srikakulam Division,Ponnada B.O,532408,BO,Delivery,SRIKAKULAM,ANDHRA PRADESH,18.2226660,83.8701944
Andhra Pradesh Circle,Visakhapatnam Region,Srikakulam Division,Kothapeta B.O,532005,BO,Delivery,SRIKAKULAM,ANDHRA PRADESH,18.2966111,83.8881147
Andhra Pradesh Circle,Visakhapatnam Region,Srikakulam Division,Muddada B.O,532005,BO,Delivery,SRIKAKULAM,ANDHRA PRADESH,18.2966118,83.8881154
Andhra Pradesh Circle,Visakhapatnam Region,Srikakulam Division,Jeerupalem B.O,532407,BO,Delivery,SRIKAKULAM,ANDHRA PRADESH,18.2050874,83.6896857
Andhra Pradesh Circle,Visakhapatnam Region,Srikakulam Division,Kotapalem B.O,532407,BO,Delivery,SRIKAKULAM,ANDHRA PRADESH,18.2050838,83.6896152
Andhra Pradesh Circle,Visakhapatnam Region,Srikakulam Division,Kovvadamachilesam B.O,532407,BO,Delivery,SRIKAKULAM,ANDHRA PRADESH,18.2050875,83.6896198
Andhra Pradesh Circle,Visakhapatnam Region,Srikakulam Division,Ranasthalam B.O,532407,BO,Delivery,SRIKAKULAM,ANDHRA PRADESH,18.2050838,83.6896638
Andhra Pradesh Circle,Visakhapatnam Region,Srikakulam Division,Tallavalasa B.O,532407,BO,Delivery,SRIKAKULAM,ANDHRA PRADESH,18.2050837,83.6896857
Andhra Pradesh Circle,Visakhapatnam Region,Srikakulam Division,Venkatapuram B.O,532407,BO,Delivery,SRIKAKULAM,ANDHRA PRADESH,18.2050897,83.6896957
Andhra Pradesh Circle,Visakhapatnam Region,Srikakulam Division,Allivalasa BO,532407,BO,Delivery,SRIKAKULAM,ANDHRA PRADESH,18.126,83.7363
Andhra Pradesh Circle,Visakhapatnam Region,Srikakulam Division,Allinagaram B.O,532403,BO,Delivery,SRIKAKULAM,ANDHRA PRADESH,18.2273613,83.7916385
Andhra Pradesh Circle,Visakhapatnam Region,Srikakulam Division,Budumuru B.O,532403,BO,Delivery,SRIKAKULAM,ANDHRA PRADESH,18.2273611,83.7916388
Andhra Pradesh Circle,Visakhapatnam Region,Srikakulam Division,Kuppili B.O,532403,BO,Delivery,SRIKAKULAM,ANDHRA PRADESH,18.2273957,83.7916963
Andhra Pradesh Circle,Visakhapatnam Region,Srikakulam Division,Tamavada B.O,532403,BO,Delivery,SRIKAKULAM,ANDHRA PRADESH,18.2273696,83.7916857
Andhra Pradesh Circle,Visakhapatnam Region,Srikakulam Division,Palakhandyam B.O,532168,BO,Delivery,SRIKAKULAM,ANDHRA PRADESH,18.3472785,83.7552257
Andhra Pradesh Circle,Visakhapatnam Region,Srikakulam Division,Thandyam B.O,532168,BO,Delivery,SRIKAKULAM,ANDHRA PRADESH,18.3472877,83.7552229
Andhra Pradesh Circle,Visakhapatnam Region,Srikakulam Division,Walteru B.O,532168,BO,Delivery,SRIKAKULAM,ANDHRA PRADESH,18.3472967,83.7552758
Andhra Pradesh Circle,Visakhapatnam Region,Srikakulam Division,METTAVALASA,532168,BO,Delivery,SRIKAKULAM,ANDHRA PRADESH,18.3897940,83.7262410
Andhra Pradesh Circle,Visakhapatnam Region,Srikakulam Division,Dhavalapeta B.O,532168,BO,Delivery,SRIKAKULAM,ANDHRA PRADESH,18.3773,83.752
Andhra Pradesh Circle,Visakhapatnam Region,Srikakulam Division,Arjunavalasa B.O,532409,BO,Delivery,SRIKAKULAM,ANDHRA PRADESH,18.1461140,83.6215277
Andhra Pradesh Circle,Visakhapatnam Region,Srikakulam Division,Devunipalavalasa B.O,532409,BO,Delivery,SRIKAKULAM,ANDHRA PRADESH,18.1461190,83.6215279
Andhra Pradesh Circle,Visakhapatnam Region,Srikakulam Division,Pathivadapalem B.O,532409,BO,Delivery,SRIKAKULAM,ANDHRA PRADESH,18.1461120,83.6215278
Andhra Pradesh Circle,Visakhapatnam Region,Srikakulam Division,Sancham B.O,532409,BO,Delivery,SRIKAKULAM,ANDHRA PRADESH,18.1461198,83.6215271
Andhra Pradesh Circle,Visakhapatnam Region,Srikakulam Division,Aguru B.O,532127,BO,Delivery,SRIKAKULAM,ANDHRA PRADESH,18.4495111,83.6494112
Andhra Pradesh Circle,Visakhapatnam Region,Srikakulam Division,Agurukancharam B.O,532127,BO,Delivery,SRIKAKULAM,ANDHRA PRADESH,18.4495123,83.6215852
Andhra Pradesh Circle,Visakhapatnam Region,Srikakulam Division,Anthakapalli B.O,532127,BO,Delivery,SRIKAKULAM,ANDHRA PRADESH,18.4495118,83.6215279
Andhra Pradesh Circle,Visakhapatnam Region,Srikakulam Division,Bodduru B.O,532127,BO,Delivery,SRIKAKULAM,ANDHRA PRADESH,18.4495118,83.6215271
Andhra Pradesh Circle,Visakhapatnam Region,Srikakulam Division,Bomminaiduvalasa B.O,532127,BO,Delivery,SRIKAKULAM,ANDHRA PRADESH,18.4495115,83.6215279
Andhra Pradesh Circle,Visakhapatnam Region,Srikakulam Division,Kanimetta B.O,532402,BO,Delivery,SRIKAKULAM,ANDHRA PRADESH,18.3414411,83.8172211
Andhra Pradesh Circle,Visakhapatnam Region,Srikakulam Division,Rahimanpuram B.O,532430,BO,Delivery,SRIKAKULAM,ANDHRA PRADESH,18.4618,84.1783
Andhra Pradesh Circle,Visakhapatnam Region,Srikakulam Division,Rana B.O,532474,BO,Delivery,SRIKAKULAM,ANDHRA PRADESH,18.4713333,84.0723055
Andhra Pradesh Circle,Visakhapatnam Region,Srikakulam Division,Lukulam B.O,532425,BO,Delivery,SRIKAKULAM,ANDHRA PRADESH,18.4341380,83.9851111
Andhra Pradesh Circle,Visakhapatnam Region,Parvathipuram Division,Avalangi B.O,532462,BO,Delivery,SRIKAKULAM,ANDHRA PRADESH,83.6695000,18.6052000
Andhra Pradesh Circle,Visakhapatnam Region,Parvathipuram Division,Sangam B.O,532462,BO,Delivery,SRIKAKULAM,ANDHRA PRADESH,8.5616000,18.7064000
Andhra Pradesh Circle,Visakhapatnam Region,Parvathipuram Division,Tettangi B.O,532462,BO,Delivery,SRIKAKULAM,ANDHRA PRADESH,83.6753000,18.6232000
Andhra Pradesh Circle,Visakhapatnam Region,Srikakulam Division,Paraselli B.O,532425,BO,Delivery,SRIKAKULAM,ANDHRA PRADESH,18.4341380,83.9851111
Andhra Pradesh Circle,Visakhapatnam Region,Srikakulam Division,Kalaparthi B.O,532186,BO,Delivery,SRIKAKULAM,ANDHRA PRADESH,18.4603,83.8456
Andhra Pradesh Circle,Visakhapatnam Region,Srikakulam Division,Akkulapeta B.O,532186,BO,Delivery,SRIKAKULAM,ANDHRA PRADESH,18.2877770,83.9003333
Andhra Pradesh Circle,Visakhapatnam Region,Srikakulam Division,Kasimivalasa B.O,532186,BO,Delivery,SRIKAKULAM,ANDHRA PRADESH,18.2877770,83.9003333
Andhra Pradesh Circle,Visakhapatnam Region,Srikakulam Division,Ponnam B.O,532186,BO,Delivery,SRIKAKULAM,ANDHRA PRADESH,18.2877770,83.9003333
Andhra Pradesh Circle,Visakhapatnam Region,Srikakulam Division,Silagam Singuvalasa BO,532186,BO,Delivery,SRIKAKULAM,ANDHRA PRADESH,18.3637,83.9294
Andhra Pradesh Circle,Visakhapatnam Region,Srikakulam Division,Ippili B.O,532401,BO,Delivery,SRIKAKULAM,ANDHRA PRADESH,18.2877770,83.9125500
Andhra Pradesh Circle,Visakhapatnam Region,Srikakulam Division,Dharmavaram B.O,532408,BO,Delivery,SRIKAKULAM,ANDHRA PRADESH,18.2226660,83.8701944
Andhra Pradesh Circle,Visakhapatnam Region,Srikakulam Division,Vommaravilli B.O,532406,BO,Delivery,SRIKAKULAM,ANDHRA PRADESH,18.3415277,84.1184454
Andhra Pradesh Circle,Visakhapatnam Region,Srikakulam Division,Tamminaidupeta BO,532410,BO,Delivery,SRIKAKULAM,ANDHRA PRADESH,18.3256,83.8821
Andhra Pradesh Circle,Visakhapatnam Region,Srikakulam Division,Bhairi B.O,532405,BO,Delivery,SRIKAKULAM,ANDHRA PRADESH,18.2966111,83.8881141
Andhra Pradesh Circle,Visakhapatnam Region,Srikakulam Division,Tulugu B.O,532405,BO,Delivery,SRIKAKULAM,ANDHRA PRADESH,18.3308338,84.0566674
Andhra Pradesh Circle,Visakhapatnam Region,Srikakulam Division,Gumadam B.O,532407,BO,Delivery,SRIKAKULAM,ANDHRA PRADESH,18.2050833,83.6896142
Andhra Pradesh Circle,Visakhapatnam Region,Srikakulam Division,Laveru B.O,532407,BO,Delivery,SRIKAKULAM,ANDHRA PRADESH,18.2050839,83.6896859
Andhra Pradesh Circle,Visakhapatnam Region,Srikakulam Division,Teppalavalasa B.O,532407,BO,Delivery,SRIKAKULAM,ANDHRA PRADESH,18.2050897,83.6896741
Andhra Pradesh Circle,Visakhapatnam Region,Srikakulam Division,Bantupalle B.O,532407,BO,Delivery,SRIKAKULAM,ANDHRA PRADESH,18.1889,83.6636
Andhra Pradesh Circle,Visakhapatnam Region,Srikakulam Division,Ajjaram B.O,532403,BO,Delivery,SRIKAKULAM,ANDHRA PRADESH,18.2273612,83.7916398
Andhra Pradesh Circle,Visakhapatnam Region,Srikakulam Division,Bejjipuram B.O,532403,BO,Delivery,SRIKAKULAM,ANDHRA PRADESH,18.2273621,83.7916389
Andhra Pradesh Circle,Visakhapatnam Region,Srikakulam Division,Kesavarayunipalem B.O,532403,BO,Delivery,SRIKAKULAM,ANDHRA PRADESH,18.2273695,83.7916365
Andhra Pradesh Circle,Visakhapatnam Region,Srikakulam Division,Kesavadasupuram BO,532403,BO,Delivery,SRIKAKULAM,ANDHRA PRADESH,18.2823,83.7863
Andhra Pradesh Circle,Visakhapatnam Region,Srikakulam Division,Lakshmipuram BO,532403,BO,Delivery,SRIKAKULAM,ANDHRA PRADESH,18.1836,83.7813
Andhra Pradesh Circle,Visakhapatnam Region,Srikakulam Division,Anandapuram B.O,532168,BO,Delivery,SRIKAKULAM,ANDHRA PRADESH,18.3472789,83.7552262
Andhra Pradesh Circle,Visakhapatnam Region,Srikakulam Division,Devaravalasa B.O,532168,BO,Delivery,SRIKAKULAM,ANDHRA PRADESH,18.3472857,83.7552856
Andhra Pradesh Circle,Visakhapatnam Region,Srikakulam Division,Mandavakuriti B.O,532168,BO,Delivery,SRIKAKULAM,ANDHRA PRADESH,18.3472777,83.7552222
Andhra Pradesh Circle,Visakhapatnam Region,Srikakulam Division,Mirtivalasa B.O,532168,BO,Delivery,SRIKAKULAM,ANDHRA PRADESH,18.3472898,83.7552225
Andhra Pradesh Circle,Visakhapatnam Region,Srikakulam Division,Siripuram B.O,532168,BO,Delivery,SRIKAKULAM,ANDHRA PRADESH,18.3472871,83.7552297
Andhra Pradesh Circle,Visakhapatnam Region,Srikakulam Division,Tankaladuggivalasa B.O,532168,BO,Delivery,SRIKAKULAM,ANDHRA PRADESH,18.3472858,83.7552221
Andhra Pradesh Circle,Visakhapatnam Region,Srikakulam Division,Thungapeta B.O,532168,BO,Delivery,SRIKAKULAM,ANDHRA PRADESH,18.3721,83.798
Andhra Pradesh Circle,Visakhapatnam Region,Srikakulam Division,Derasam B.O,532409,BO,Delivery,SRIKAKULAM,ANDHRA PRADESH,18.1461190,83.6215278
Andhra Pradesh Circle,Visakhapatnam Region,Srikakulam Division,Rajam B.O,532409,BO,Delivery,SRIKAKULAM,ANDHRA PRADESH,18.1461119,83.6215277
Andhra Pradesh Circle,Visakhapatnam Region,Srikakulam Division,Varisam B.O,532409,BO,Delivery,SRIKAKULAM,ANDHRA PRADESH,18.1461192,83.6215277
Andhra Pradesh Circle,Visakhapatnam Region,Srikakulam Division,Dasariraminaiduvalasa B.O,532127,BO,Delivery,SRIKAKULAM,ANDHRA PRADESH,18.3472858,83.6215851
Andhra Pradesh Circle,Visakhapatnam Region,Srikakulam Division,Gadimudidam B.O,532127,BO,Delivery,SRIKAKULAM,ANDHRA PRADESH,18.4495697,83.6494123
Andhra Pradesh Circle,Visakhapatnam Region,Srikakulam Division,Penubaka B.O,532127,BO,Delivery,SRIKAKULAM,ANDHRA PRADESH,18.4495186,83.6494968
Andhra Pradesh Circle,Visakhapatnam Region,Srikakulam Division,Kinthali B.O,532402,BO,Delivery,SRIKAKULAM,ANDHRA PRADESH,18.3414411,83.8172211
Andhra Pradesh Circle,Visakhapatnam Region,Srikakulam Division,Kotipalli BO,532402,BO,Delivery,SRIKAKULAM,ANDHRA PRADESH,18.3443,83.8139
Andhra Pradesh Circle,Visakhapatnam Region,Srikakulam Division,Kittalapadu B.O,532428,BO,Delivery,SRIKAKULAM,ANDHRA PRADESH,18.6438521,84.0018546
Andhra Pradesh Circle,Visakhapatnam Region,Srikakulam Division,Idulavalasa B.O,532421,BO,Delivery,SRIKAKULAM,ANDHRA PRADESH,18.4181456,84.0465124
Andhra Pradesh Circle,Visakhapatnam Region,Srikakulam Division,Kambakaya B.O,532421,BO,Delivery,SRIKAKULAM,ANDHRA PRADESH,18.4181441,84.0465213
Andhra Pradesh Circle,Visakhapatnam Region,Srikakulam Division,Madapam B.O,532421,BO,Delivery,SRIKAKULAM,ANDHRA PRADESH,18.4181411,84.0462111
Andhra Pradesh Circle,Visakhapatnam Region,Srikakulam Division,Peddalogidi B.O,532213,BO,Delivery,SRIKAKULAM,ANDHRA PRADESH,18.7470000,84.0879722
Andhra Pradesh Circle,Visakhapatnam Region,Srikakulam Division,Deerghasi B.O,532429,BO,Delivery,SRIKAKULAM,ANDHRA PRADESH,18.3748891,84.1046944
Andhra Pradesh Circle,Visakhapatnam Region,Srikakulam Division,Gollalavalasa B.O,532429,BO,Delivery,SRIKAKULAM,ANDHRA PRADESH,18.3748891,84.1046944
Andhra Pradesh Circle,Visakhapatnam Region,Srikakulam Division,Belamara B.O,532430,BO,Delivery,SRIKAKULAM,ANDHRA PRADESH,18.2853330,83.8958611
Andhra Pradesh Circle,Visakhapatnam Region,Srikakulam Division,Runku Hanumanthapuram B.O,532430,BO,Delivery,SRIKAKULAM,ANDHRA PRADESH,18.2853330,83.8958611
Andhra Pradesh Circle,Visakhapatnam Region,Srikakulam Division,Umilada B.O,532430,BO,Delivery,SRIKAKULAM,ANDHRA PRADESH,18.2853330,83.8958611
Andhra Pradesh Circle,Visakhapatnam Region,Srikakulam Division,Aludu B.O,532426,BO,Delivery,SRIKAKULAM,ANDHRA PRADESH,18.5922511,84.0525550
Andhra Pradesh Circle,Visakhapatnam Region,Srikakulam Division,Kodaddapanasa BO,532426,BO,Delivery,SRIKAKULAM,ANDHRA PRADESH,18.3,83.9
Andhra Pradesh Circle,Visakhapatnam Region,Srikakulam Division,Peddabammidi B.O,532474,BO,Delivery,SRIKAKULAM,ANDHRA PRADESH,18.4713333,84.0723055
Andhra Pradesh Circle,Visakhapatnam Region,Srikakulam Division,Tilaru B.O,532474,BO,Delivery,SRIKAKULAM,ANDHRA PRADESH,18.4713333,84.0723055
Andhra Pradesh Circle,Visakhapatnam Region,Srikakulam Division,Chikkalavalasa B.O,532425,BO,Delivery,SRIKAKULAM,ANDHRA PRADESH,18.4461,84.0019
Andhra Pradesh Circle,Visakhapatnam Region,Srikakulam Division,Alikam B.O,532186,BO,Delivery,SRIKAKULAM,ANDHRA PRADESH,18.2877770,83.9003333
Andhra Pradesh Circle,Visakhapatnam Region,Srikakulam Division,Korlakota B.O,532186,BO,Delivery,SRIKAKULAM,ANDHRA PRADESH,18.2877770,83.9003333
Andhra Pradesh Circle,Visakhapatnam Region,Srikakulam Division,Naira B.O,532186,BO,Delivery,SRIKAKULAM,ANDHRA PRADESH,18.2877770,83.9003333
Andhra Pradesh Circle,Visakhapatnam Region,Srikakulam Division,Tandemvalasa B.O,532186,BO,Delivery,SRIKAKULAM,ANDHRA PRADESH,18.2877770,83.9003333
Andhra Pradesh Circle,Visakhapatnam Region,Srikakulam Division,Uppinivalasa B.O,532186,BO,Delivery,SRIKAKULAM,ANDHRA PRADESH,18.2877770,83.9003333
Andhra Pradesh Circle,Visakhapatnam Region,Srikakulam Division,Kistappapeta BO,532186,BO,Delivery,SRIKAKULAM,ANDHRA PRADESH,18.3359,83.9768
Andhra Pradesh Circle,Visakhapatnam Region,Srikakulam Division,Mofusbandar B.O,532401,BO,Delivery,SRIKAKULAM,ANDHRA PRADESH,18.2877770,83.9125500
Andhra Pradesh Circle,Visakhapatnam Region,Srikakulam Division,Peddapadu B.O,532401,BO,Delivery,SRIKAKULAM,ANDHRA PRADESH,18.2877770,83.9125500
Andhra Pradesh Circle,Visakhapatnam Region,Srikakulam Division,Sanivada B.O,532401,BO,Delivery,SRIKAKULAM,ANDHRA PRADESH,18.2877770,83.9125500
Andhra Pradesh Circle,Visakhapatnam Region,Srikakulam Division,D. Matchilesam B.O,532408,BO,Delivery,SRIKAKULAM,ANDHRA PRADESH,18.2226660,83.8701944
Andhra Pradesh Circle,Visakhapatnam Region,Srikakulam Division,Tonangi B.O,532406,BO,Delivery,SRIKAKULAM,ANDHRA PRADESH,18.3415277,84.1184445
Andhra Pradesh Circle,Visakhapatnam Region,Srikakulam Division,Fareedpeta B.O,532410,BO,Delivery,SRIKAKULAM,ANDHRA PRADESH,18.2820555,83.8247500
Andhra Pradesh Circle,Visakhapatnam Region,Srikakulam Division,Korlam B.O,532405,BO,Delivery,SRIKAKULAM,ANDHRA PRADESH,18.3308337,84.0566677
Andhra Pradesh Circle,Visakhapatnam Region,Srikakulam Division,Thotapalem B.O,532005,BO,Delivery,SRIKAKULAM,ANDHRA PRADESH,18.2966117,83.8881149
Andhra Pradesh Circle,Visakhapatnam Region,Srikakulam Division,Patharlapalli B.O,532407,BO,Delivery,SRIKAKULAM,ANDHRA PRADESH,18.2050838,83.6896985
Andhra Pradesh Circle,Visakhapatnam Region,Srikakulam Division,Ravada B.O,532407,BO,Delivery,SRIKAKULAM,ANDHRA PRADESH,18.1738,83.7173
Andhra Pradesh Circle,Visakhapatnam Region,Srikakulam Division,Budatavalasa B.O,532403,BO,Delivery,SRIKAKULAM,ANDHRA PRADESH,18.2273685,83.7916399
Andhra Pradesh Circle,Visakhapatnam Region,Srikakulam Division,Mahanthipalem B.O,532403,BO,Delivery,SRIKAKULAM,ANDHRA PRADESH,18.1883,83.7479
Andhra Pradesh Circle,Visakhapatnam Region,Srikakulam Division,Buridikancharam B.O,532168,BO,Delivery,SRIKAKULAM,ANDHRA PRADESH,18.3472788,83.7552265
Andhra Pradesh Circle,Visakhapatnam Region,Srikakulam Division,Chittarupuram B.O,532168,BO,Delivery,SRIKAKULAM,ANDHRA PRADESH,18.3472857,83.7552245
Andhra Pradesh Circle,Visakhapatnam Region,Srikakulam Division,Urjam B.O,532429,BO,Delivery,SRIKAKULAM,ANDHRA PRADESH,18.3748891,84.1046944
Andhra Pradesh Circle,Visakhapatnam Region,Srikakulam Division,Dandulaxmipuram B.O,532430,BO,Delivery,SRIKAKULAM,ANDHRA PRADESH,18.2853330,83.8958611
Andhra Pradesh Circle,Visakhapatnam Region,Srikakulam Division,Harischandrapuram B.O,532430,BO,Delivery,SRIKAKULAM,ANDHRA PRADESH,18.2853330,83.8958611
Andhra Pradesh Circle,Visakhapatnam Region,Srikakulam Division,Yetturallapadu B.O,532474,BO,Delivery,SRIKAKULAM,ANDHRA PRADESH,18.4737,84.1086
Andhra Pradesh Circle,Visakhapatnam Region,Srikakulam Division,Chinabammidi BO,532474,BO,Delivery,SRIKAKULAM,ANDHRA PRADESH,18.4343,84.1092
Andhra Pradesh Circle,Visakhapatnam Region,Srikakulam Division,Allada B.O,532425,BO,Delivery,SRIKAKULAM,ANDHRA PRADESH,18.4341380,83.9851111
Andhra Pradesh Circle,Visakhapatnam Region,Srikakulam Division,Andhavaram B.O,532425,BO,Delivery,SRIKAKULAM,ANDHRA PRADESH,18.4341380,83.9851111
Andhra Pradesh Circle,Visakhapatnam Region,Srikakulam Division,Chodavaram B.O,532425,BO,Delivery,SRIKAKULAM,ANDHRA PRADESH,18.4341380,83.9851111
Andhra Pradesh Circle,Visakhapatnam Region,Srikakulam Division,Kameswaripeta B.O,532425,BO,Delivery,SRIKAKULAM,ANDHRA PRADESH,18.4341380,83.9851111
Andhra Pradesh Circle,Visakhapatnam Region,Srikakulam Division,Parlam B.O,532425,BO,Delivery,SRIKAKULAM,ANDHRA PRADESH,18.4341380,83.9851111
Andhra Pradesh Circle,Visakhapatnam Region,Srikakulam Division,Badam B.O,532425,BO,Delivery,SRIKAKULAM,ANDHRA PRADESH,18.4371,84.0088
Andhra Pradesh Circle,Visakhapatnam Region,Srikakulam Division,Makivalasa B.O,532425,BO,Delivery,SRIKAKULAM,ANDHRA PRADESH,18.3741,84.026
Andhra Pradesh Circle,Visakhapatnam Region,Srikakulam Division,Chittivalasa B.O,532186,BO,Delivery,SRIKAKULAM,ANDHRA PRADESH,18.2877770,83.9003333
Andhra Pradesh Circle,Visakhapatnam Region,Srikakulam Division,Kanugulavalasa B.O,532186,BO,Delivery,SRIKAKULAM,ANDHRA PRADESH,18.2877770,83.9003333
Andhra Pradesh Circle,Visakhapatnam Region,Srikakulam Division,Opivada Venkampeta B.O,532186,BO,Delivery,SRIKAKULAM,ANDHRA PRADESH,18.2877770,83.9003333
Andhra Pradesh Circle,Visakhapatnam Region,Srikakulam Division,Turakapeta B.O,532186,BO,Delivery,SRIKAKULAM,ANDHRA PRADESH,18.2877770,83.9003333
Andhra Pradesh Circle,Visakhapatnam Region,Srikakulam Division,Patrunivalasa B.O,532401,BO,Delivery,SRIKAKULAM,ANDHRA PRADESH,18.2877770,83.9125500
Andhra Pradesh Circle,Visakhapatnam Region,Srikakulam Division,Vadada B.O,532401,BO,Delivery,SRIKAKULAM,ANDHRA PRADESH,18.2877770,83.9125500
Andhra Pradesh Circle,Visakhapatnam Region,Srikakulam Division,Bandaruvanipeta B.O,532406,BO,Delivery,SRIKAKULAM,ANDHRA PRADESH,18.3415277,84.1184444
Andhra Pradesh Circle,Visakhapatnam Region,Srikakulam Division,Buravilli B.O,532405,BO,Delivery,SRIKAKULAM,ANDHRA PRADESH,18.3308333,84.0566671
Andhra Pradesh Circle,Visakhapatnam Region,Srikakulam Division,Salihundam B.O,532405,BO,Delivery,SRIKAKULAM,ANDHRA PRADESH,18.3308333,84.0566671
Andhra Pradesh Circle,Visakhapatnam Region,Srikakulam Division,Sathivada B.O,532405,BO,Delivery,SRIKAKULAM,ANDHRA PRADESH,18.3308333,84.0566678
Andhra Pradesh Circle,Visakhapatnam Region,Srikakulam Division,Adapaka B.O,532403,BO,Delivery,SRIKAKULAM,ANDHRA PRADESH,18.2273611,83.7916388
Andhra Pradesh Circle,Visakhapatnam Region,Srikakulam Division,Gokarnapalli B.O,532168,BO,Delivery,SRIKAKULAM,ANDHRA PRADESH,18.3472866,83.7552255
Andhra Pradesh Circle,Visakhapatnam Region,Srikakulam Division,Honjaram B.O,532168,BO,Delivery,SRIKAKULAM,ANDHRA PRADESH,18.3472877,83.7552897
Andhra Pradesh Circle,Visakhapatnam Region,Srikakulam Division,Laidam B.O,532168,BO,Delivery,SRIKAKULAM,ANDHRA PRADESH,18.3472866,83.7552299
Andhra Pradesh Circle,Visakhapatnam Region,Srikakulam Division,Lolugu B.O,532168,BO,Delivery,SRIKAKULAM,ANDHRA PRADESH,18.3472899,83.7552256
Andhra Pradesh Circle,Visakhapatnam Region,Srikakulam Division,Pathakumkam B.O,532168,BO,Delivery,SRIKAKULAM,ANDHRA PRADESH,18.3472875,83.7552958
Andhra Pradesh Circle,Visakhapatnam Region,Srikakulam Division,Rapaka B.O,532168,BO,Delivery,SRIKAKULAM,ANDHRA PRADESH,18.3472999,83.7552857
Andhra Pradesh Circle,Visakhapatnam Region,Srikakulam Division,Banam B.O,532168,BO,Delivery,SRIKAKULAM,ANDHRA PRADESH,18.2988,83.7491
Andhra Pradesh Circle,Visakhapatnam Region,Srikakulam Division,Naruva B.O,532409,BO,Delivery,SRIKAKULAM,ANDHRA PRADESH,18.1127,83.6535
Andhra Pradesh Circle,Visakhapatnam Region,Srikakulam Division,Korallavalasa B.O,532127,BO,Delivery,SRIKAKULAM,ANDHRA PRADESH,18.4495957,83.6498579
Andhra Pradesh Circle,Visakhapatnam Region,Srikakulam Division,Maredubaka B.O,532127,BO,Delivery,SRIKAKULAM,ANDHRA PRADESH,18.4495745,83.6494967
Andhra Pradesh Circle,Visakhapatnam Region,Srikakulam Division,Nagulavalasa B.O,532127,BO,Delivery,SRIKAKULAM,ANDHRA PRADESH,18.4495111,83.6497584
Andhra Pradesh Circle,Visakhapatnam Region,Srikakulam Division,Vommi B.O,532127,BO,Delivery,SRIKAKULAM,ANDHRA PRADESH,18.4495857,83.6494857
Andhra Pradesh Circle,Visakhapatnam Region,Srikakulam Division,Gopalapuram B.O,532127,BO,Delivery,SRIKAKULAM,ANDHRA PRADESH,18.4443950,83.6414930
Andhra Pradesh Circle,Visakhapatnam Region,Srikakulam Division,Dallavalasa B.O,532402,BO,Delivery,SRIKAKULAM,ANDHRA PRADESH,18.3414411,83.8172211
Andhra Pradesh Circle,Visakhapatnam Region,Srikakulam Division,Dharmapuram B.O,532402,BO,Delivery,SRIKAKULAM,ANDHRA PRADESH,18.3414411,83.8172211
Andhra Pradesh Circle,Visakhapatnam Region,Srikakulam Division,Ambakhandi B.O,532123,BO,Delivery,SRIKAKULAM,ANDHRA PRADESH,18.4554166,83.7517770
Andhra Pradesh Circle,Visakhapatnam Region,Srikakulam Division,Manthina B.O,532168,BO,Delivery,SRIKAKULAM,ANDHRA PRADESH,18.3472855,83.7552259
Andhra Pradesh Circle,Visakhapatnam Region,Srikakulam Division,Santhavuriti B.O,532168,BO,Delivery,SRIKAKULAM,ANDHRA PRADESH,18.3472857,83.7552658
Andhra Pradesh Circle,Visakhapatnam Region,Srikakulam Division,Suravam B.O,532168,BO,Delivery,SRIKAKULAM,ANDHRA PRADESH,18.3472891,83.7552296
Andhra Pradesh Circle,Visakhapatnam Region,Srikakulam Division,Tamaram B.O,532168,BO,Delivery,SRIKAKULAM,ANDHRA PRADESH,18.4744,83.8135
Andhra Pradesh Circle,Visakhapatnam Region,Srikakulam Division,Gorinta B.O,532168,BO,Delivery,SRIKAKULAM,ANDHRA PRADESH,18.3669,83.8079
Andhra Pradesh Circle,Visakhapatnam Region,Srikakulam Division,Maruvada BO,532409,BO,Delivery,SRIKAKULAM,ANDHRA PRADESH,18.1384,83.6827
Andhra Pradesh Circle,Visakhapatnam Region,Srikakulam Division,G.M.R.Nagar B.O,532127,BO,Delivery,SRIKAKULAM,ANDHRA PRADESH,18.4495117,83.6215274
Andhra Pradesh Circle,Visakhapatnam Region,Srikakulam Division,Guravam B.O,532127,BO,Delivery,SRIKAKULAM,ANDHRA PRADESH,18.4495196,83.6494951
Andhra Pradesh Circle,Visakhapatnam Region,Srikakulam Division,Tholapi B.O,532402,BO,Delivery,SRIKAKULAM,ANDHRA PRADESH,18.3414411,83.8172211
Andhra Pradesh Circle,Visakhapatnam Region,Parvathipuram Division,Neelanagaram S.O,532462,PO,Delivery,SRIKAKULAM,ANDHRA PRADESH,18.6055278,83.6674167
Andhra Pradesh Circle,Visakhapatnam Region,Parvathipuram Division,Palakonda S.O,532440,PO,Delivery,SRIKAKULAM,ANDHRA PRADESH,18.6037500,83.7563333
Andhra Pradesh Circle,Visakhapatnam Region,Parvathipuram Division,Seethampeta S.O,532443,PO,Delivery,SRIKAKULAM,ANDHRA PRADESH,18.7331944,83.8071389
Andhra Pradesh Circle,Visakhapatnam Region,Parvathipuram Division,Seetharampuram Inam S.O,532461,PO,Delivery,SRIKAKULAM,ANDHRA PRADESH,18.6327222,83.5971944
Andhra Pradesh Circle,Visakhapatnam Region,Parvathipuram Division,Veeraghattam S.O,532460,PO,Delivery,SRIKAKULAM,ANDHRA PRADESH,18.6885556,83.6095556
Andhra Pradesh Circle,Visakhapatnam Region,Srikakulam Division,Srikakulam H.O,532001,HO,Delivery,SRIKAKULAM,ANDHRA PRADESH,18.2962500,83.8936944
Andhra Pradesh Circle,Visakhapatnam Region,Srikakulam Division,Kotturu S.O,532455,PO,Delivery,SRIKAKULAM,ANDHRA PRADESH,18.7789444,83.8815000
Andhra Pradesh Circle,Visakhapatnam Region,Srikakulam Division,P.S.Puram S.O,532190,PO,Delivery,SRIKAKULAM,ANDHRA PRADESH,18.4973333,83.9428333
Andhra Pradesh Circle,Visakhapatnam Region,Srikakulam Division,Polaki S.O,532429,PO,Delivery,SRIKAKULAM,ANDHRA PRADESH,18.3748889,84.1046944
Andhra Pradesh Circle,Visakhapatnam Region,Srikakulam Division,Srikakulam Market S.O,532001,PO,Non Delivery,SRIKAKULAM,ANDHRA PRADESH,18.2089167,83.8946944
Andhra Pradesh Circle,Visakhapatnam Region,Srikakulam Division,Srikakulam Town S.O,532001,PO,Non Delivery,SRIKAKULAM,ANDHRA PRADESH,18.2971944,83.8951389
Andhra Pradesh Circle,Visakhapatnam Region,Srikakulam Division,Brahmanatarla S.O,532220,PO,Delivery,SRIKAKULAM,ANDHRA PRADESH,18.7456389,84.3845833
Andhra Pradesh Circle,Visakhapatnam Region,Srikakulam Division,Haripuram S.O,532243,PO,Delivery,SRIKAKULAM,ANDHRA PRADESH,18.8486667,84.5038611
Andhra Pradesh Circle,Visakhapatnam Region,Srikakulam Division,Sompeta S.O,532284,PO,Delivery,SRIKAKULAM,ANDHRA PRADESH,18.9460556,84.5854444
Andhra Pradesh Circle,Visakhapatnam Region,Srikakulam Division,Venkateswara Colony S.O,532203,PO,Delivery,SRIKAKULAM,ANDHRA PRADESH,18.6068333,84.2365556
Andhra Pradesh Circle,Visakhapatnam Region,Srikakulam Division,Budithi S.O,532427,PO,Delivery,SRIKAKULAM,ANDHRA PRADESH,18.5439167,84.0132778
Andhra Pradesh Circle,Visakhapatnam Region,Srikakulam Division,Dusi Rs S.O,532484,PO,Delivery,SRIKAKULAM,ANDHRA PRADESH,18.3523889,77.6969167
Andhra Pradesh Circle,Visakhapatnam Region,Srikakulam Division,Mukhalingam S.O,532428,PO,Delivery,SRIKAKULAM,ANDHRA PRADESH,18.6438333,84.0018333
Andhra Pradesh Circle,Visakhapatnam Region,Srikakulam Division,Priyagraharam S.O,532430,PO,Delivery,SRIKAKULAM,ANDHRA PRADESH,18.2853333,83.8958611
Andhra Pradesh Circle,Visakhapatnam Region,Srikakulam Division,Saravakota S.O,532426,PO,Delivery,SRIKAKULAM,ANDHRA PRADESH,18.5922500,84.0525556
Andhra Pradesh Circle,Visakhapatnam Region,Srikakulam Division,Urlam S.O,532425,PO,Delivery,SRIKAKULAM,ANDHRA PRADESH,18.4341389,83.9851111
Andhra Pradesh Circle,Visakhapatnam Region,Srikakulam Division,Calingapatnam S.O,532406,PO,Delivery,SRIKAKULAM,ANDHRA PRADESH,18.3415278,84.1184444
Andhra Pradesh Circle,Visakhapatnam Region,Srikakulam Division,Gara S.O,532405,PO,Delivery,SRIKAKULAM,ANDHRA PRADESH,18.3308333,84.0566667
Andhra Pradesh Circle,Visakhapatnam Region,Srikakulam Division,Murapaka S.O,532403,PO,Delivery,SRIKAKULAM,ANDHRA PRADESH,18.2273611,83.7916389
Andhra Pradesh Circle,Visakhapatnam Region,Srikakulam Division,Ponduru S.O,532168,PO,Delivery,SRIKAKULAM,ANDHRA PRADESH,18.3472778,83.7552222
Andhra Pradesh Circle,Visakhapatnam Region,Srikakulam Division,Akkupalli S.O,532219,PO,Delivery,SRIKAKULAM,ANDHRA PRADESH,18.7515556,84.4871111
Andhra Pradesh Circle,Visakhapatnam Region,Srikakulam Division,Chapara S.O,532216,PO,Delivery,SRIKAKULAM,ANDHRA PRADESH,18.7709444,84.1853889
Andhra Pradesh Circle,Visakhapatnam Region,Srikakulam Division,Ichchapuram Bus Stand S.O,532312,PO,Non Delivery,SRIKAKULAM,ANDHRA PRADESH,19.1095833,84.6945000
Andhra Pradesh Circle,Visakhapatnam Region,Srikakulam Division,Ichchapuram S.O,532312,PO,Delivery,SRIKAKULAM,ANDHRA PRADESH,19.1132500,84.6861944
Andhra Pradesh Circle,Visakhapatnam Region,Srikakulam Division,Kanchili S.O,532290,PO,Delivery,SRIKAKULAM,ANDHRA PRADESH,18.9756667,84.5805278
Andhra Pradesh Circle,Visakhapatnam Region,Srikakulam Division,Mandasa S.O,532242,PO,Delivery,SRIKAKULAM,ANDHRA PRADESH,18.8715278,84.4615000
Andhra Pradesh Circle,Visakhapatnam Region,Srikakulam Division,Ms Palli S.O,532291,PO,Delivery,SRIKAKULAM,ANDHRA PRADESH,19.0006944,84.5674167
Andhra Pradesh Circle,Visakhapatnam Region,Srikakulam Division,Battili S.O,532456,PO,Delivery,SRIKAKULAM,ANDHRA PRADESH,18.7832222,83.8737778
Andhra Pradesh Circle,Visakhapatnam Region,Srikakulam Division,Burja S.O,532445,PO,Delivery,SRIKAKULAM,ANDHRA PRADESH,18.5310000,83.7993056
Andhra Pradesh Circle,Visakhapatnam Region,Srikakulam Division,Jalumuru S.O,532432,PO,Delivery,SRIKAKULAM,ANDHRA PRADESH,18.5110278,84.0391111
Andhra Pradesh Circle,Visakhapatnam Region,Srikakulam Division,Korasavada S.O,532214,PO,Delivery,SRIKAKULAM,ANDHRA PRADESH,18.5836389,83.9035278
Andhra Pradesh Circle,Visakhapatnam Region,Srikakulam Division,Narasannapeta S.O,532421,PO,Delivery,SRIKAKULAM,ANDHRA PRADESH,18.4181944,84.0460833
Andhra Pradesh Circle,Visakhapatnam Region,Srikakulam Division,Nivagam S.O,532457,PO,Delivery,SRIKAKULAM,ANDHRA PRADESH,18.7838056,83.9392500
Andhra Pradesh Circle,Visakhapatnam Region,Srikakulam Division,Tilaru RS S.O,532474,PO,Delivery,SRIKAKULAM,ANDHRA PRADESH,18.4713333,84.0723056
Andhra Pradesh Circle,Visakhapatnam Region,Srikakulam Division,Vengala Rao Colony S.O,532186,PO,Delivery,SRIKAKULAM,ANDHRA PRADESH,18.4081111,83.9003333
Andhra Pradesh Circle,Visakhapatnam Region,Srikakulam Division,Etcherla S.O,532410,PO,Delivery,SRIKAKULAM,ANDHRA PRADESH,18.2820556,83.8247500
Andhra Pradesh Circle,Visakhapatnam Region,Srikakulam Division,J.R.Puram S.O,532407,PO,Delivery,SRIKAKULAM,ANDHRA PRADESH,18.2050833,83.6896111
Andhra Pradesh Circle,Visakhapatnam Region,Srikakulam Division,Pydibheemavaram S.O,532409,PO,Delivery,SRIKAKULAM,ANDHRA PRADESH,18.1411111,83.6215278
Andhra Pradesh Circle,Visakhapatnam Region,Srikakulam Division,Hiramandalam S.O,532459,PO,Delivery,SRIKAKULAM,ANDHRA PRADESH,18.6707500,83.9503056
Andhra Pradesh Circle,Visakhapatnam Region,Srikakulam Division,L.N.Peta S.O,532458,PO,Delivery,SRIKAKULAM,ANDHRA PRADESH,18.2962500,83.8936944
Andhra Pradesh Circle,Visakhapatnam Region,Srikakulam Division,Narasannapeta Market S.O,532421,PO,Non Delivery,SRIKAKULAM,ANDHRA PRADESH,18.4115833,84.0431667
Andhra Pradesh Circle,Visakhapatnam Region,Srikakulam Division,Rajam S.O,532127,PO,Delivery,SRIKAKULAM,ANDHRA PRADESH,18.4495000,73.6630000
Andhra Pradesh Circle,Visakhapatnam Region,Srikakulam Division,S.R.Puram S.O,532123,PO,Delivery,SRIKAKULAM,ANDHRA PRADESH,18.4554167,83.7517778
Andhra Pradesh Circle,Visakhapatnam Region,Srikakulam Division,Srikakulam New Colony S.O,532001,PO,Non Delivery,SRIKAKULAM,ANDHRA PRADESH,18.2962222,83.9041389
Andhra Pradesh Circle,Visakhapatnam Region,Srikakulam Division,Srikurmam S.O,532404,PO,Delivery,SRIKAKULAM,ANDHRA PRADESH,18.2730000,84.0048333
Andhra Pradesh Circle,Visakhapatnam Region,Srikakulam Division,Vunukuru S.O,532122,PO,Delivery,SRIKAKULAM,ANDHRA PRADESH,18.5263611,83.6318056
Andhra Pradesh Circle,Visakhapatnam Region,Srikakulam Division,Amadalavalasa H.O,532185,HO,Delivery,SRIKAKULAM,ANDHRA PRADESH,18.4081111,83.9003333
Andhra Pradesh Circle,Visakhapatnam Region,Srikakulam Division,Tekkali H.O,532201,HO,Delivery,SRIKAKULAM,ANDHRA PRADESH,18.6068333,84.2365556
Andhra Pradesh Circle,Visakhapatnam Region,Srikakulam Division,Baruva R S S.O,532264,PO,Delivery,SRIKAKULAM,ANDHRA PRADESH,18.9009722,84.5533056
Andhra Pradesh Circle,Visakhapatnam Region,Srikakulam Division,Kasibugga S.O (Srikakulam),532222,PO,Delivery,SRIKAKULAM,ANDHRA PRADESH,18.2962500,83.8936944
Andhra Pradesh Circle,Visakhapatnam Region,Srikakulam Division,Kaviti S.O,532322,PO,Delivery,SRIKAKULAM,ANDHRA PRADESH,19.0113611,84.6902500
Andhra Pradesh Circle,Visakhapatnam Region,Srikakulam Division,Manikyapuram S.O,532292,PO,Delivery,SRIKAKULAM,ANDHRA PRADESH,18.9517778,84.6317222
Andhra Pradesh Circle,Visakhapatnam Region,Srikakulam Division,Meliaputti S.O,532215,PO,Delivery,SRIKAKULAM,ANDHRA PRADESH,18.7695556,84.1688611
Andhra Pradesh Circle,Visakhapatnam Region,Srikakulam Division,Naupada RS S.O,532212,PO,Delivery,SRIKAKULAM,ANDHRA PRADESH,18.5771667,84.2844722
Andhra Pradesh Circle,Visakhapatnam Region,Srikakulam Division,Palasa S.O,532221,PO,Delivery,SRIKAKULAM,ANDHRA PRADESH,18.7745000,84.4101111
Andhra Pradesh Circle,Visakhapatnam Region,Srikakulam Division,Pathapatnam S.O,532213,PO,Delivery,SRIKAKULAM,ANDHRA PRADESH,18.7470278,84.0879722
Andhra Pradesh Circle,Visakhapatnam Region,Srikakulam Division,Arasavilli S.O,532401,PO,Delivery,SRIKAKULAM,ANDHRA PRADESH,18.2877778,83.9122500
Andhra Pradesh Circle,Visakhapatnam Region,Srikakulam Division,Bontalakoduru S.O,532408,PO,Delivery,SRIKAKULAM,ANDHRA PRADESH,18.2226667,83.8701944
Andhra Pradesh Circle,Visakhapatnam Region,Srikakulam Division,Gujarathipeta S.O,532005,PO,Delivery,SRIKAKULAM,ANDHRA PRADESH,18.2966111,83.8881111
Andhra Pradesh Circle,Visakhapatnam Region,Srikakulam Division,S.M.Puram S.O,532402,PO,Delivery,SRIKAKULAM,ANDHRA PRADESH,18.3414444,83.8172222
Andhra Pradesh Circle,Visakhapatnam Region,Srikakulam Division,Srikakulam Collectorate S.O,532001,PO,Non Delivery,SRIKAKULAM,ANDHRA PRADESH,18.2729167,83.9060278
Andhra Pradesh Circle,Visakhapatnam Region,Srikakulam Division,Srikakulam District Court S.O,532001,PO,Non Delivery,SRIKAKULAM,ANDHRA PRADESH,18.3095833,83.8954167
Andhra Pradesh Circle,Visakhapatnam Region,Srikakulam Division,Srikakulam Official Colony S.O,532001,PO,Non Delivery,SRIKAKULAM,ANDHRA PRADESH,18.2952222,83.9040278
Andhra Pradesh Circle,Visakhapatnam Region,Srikakulam Division,Srikakulam Zilla Parishad S.O,532001,PO,Non Delivery,SRIKAKULAM,ANDHRA PRADESH,18.2852778,83.8958333
Andhra Pradesh Circle,Visakhapatnam Region,Parvathipuram Division,Sigadam S.O,532148,PO,Delivery,SRIKAKULAM,ANDHRA PRADESH,18.3777778,83.6813611
Andhra Pradesh Circle,Visakhapatnam Region,Srikakulam Division,Baruva S.O,532263,PO,Delivery,SRIKAKULAM,ANDHRA PRADESH,18.8831111,84.5829444
Andhra Pradesh Circle,Visakhapatnam Region,Srikakulam Division,Kotabommali S.O,532195,PO,Delivery,SRIKAKULAM,ANDHRA PRADESH,18.5185278,84.1520556
Andhra Pradesh Circle,Visakhapatnam Region,Srikakulam Division,Naupada S.O (Srikakulam),532211,PO,Delivery,SRIKAKULAM,ANDHRA PRADESH,18.2962500,83.8936944
Andhra Pradesh Circle,Visakhapatnam Region,Srikakulam Division,Pundi R S S.O,532218,PO,Delivery,SRIKAKULAM,ANDHRA PRADESH,18.6661111,84.3686389